category,name,address,lat,lng,자치구
schools,경인고등학교,서울특별시 구로구 경인로46길 31,37.49599268,126.8654289,구로구
schools,고척고등학교,서울특별시 구로구 중앙로15길 162,37.50804938,126.8498691,구로구
schools,구로고등학교,서울특별시 구로구 가마산로27길 45,37.49884008,126.8903092,구로구
schools,구일고등학교,서울특별시 구로구 구일로 90-51,37.49350529,126.8746185,구로구
schools,구현고등학교,서울특별시 구로구 경인로53가길 17,37.50220279,126.8744458,구로구
schools,덕일전자공업고등학교,서울특별시 구로구 서해안로21길 5-12,37.49053652,126.8371091,구로구
schools,서서울생활과학고등학교,서울특별시 구로구 오리로 1355-10,37.50382919,126.8282007,구로구
schools,서울공연예술고등학교,서울특별시 구로구 오리로22나길 16-26,37.49993066,126.8326087,구로구
schools,세종과학고등학교,서울특별시 구로구 오리로21길 79,37.4975694,126.8273517,구로구
schools,신도림고등학교,서울특별시 구로구 경인로67길 159,37.51406292,126.8820838,구로구
schools,예림디자인고등학교,서울특별시 구로구 오리로21길 2,37.50035507,126.827683,구로구
schools,오류고등학교,서울특별시 구로구 오리로21길 2,37.50035507,126.827683,구로구
schools,우신고등학교,서울특별시 구로구 부일로 917,37.49490231,126.8263536,구로구
schools,유한공업고등학교,서울특별시 구로구 경인로 8,37.48791416,126.8232907,구로구
schools,개봉중학교,서울특별시 구로구 고척로21나길 68,37.50352932,126.8423998,구로구
schools,개웅중학교,서울특별시 구로구 개봉로11길 81,37.4875269,126.8510711,구로구
schools,경인중학교,서울특별시 구로구 경인로 301,37.49846566,126.8536725,구로구
schools,고척중학교,서울특별시 구로구 중앙로3길 20,37.49974083,126.8613425,구로구
schools,구로중학교,서울특별시 구로구 구로중앙로 48,37.49485972,126.8910999,구로구
schools,구일중학교,서울특별시 구로구 구일로 90-133,37.49530091,126.8737702,구로구
schools,신도림중학교,서울특별시 구로구 경인로63길 74,37.51074073,126.8848071,구로구
schools,영림중학교,서울특별시 구로구 가마산로27길 17,37.49721962,126.8906895,구로구
schools,영서중학교,서울특별시 구로구 도림로20길 35,37.48911393,126.8956154,구로구
schools,오남중학교,서울특별시 구로구 오리로9길 25,37.48705969,126.837249,구로구
schools,오류중학교,서울특별시 구로구 고척로27바길 19,37.50786222,126.8462113,구로구
schools,우신중학교,서울특별시 구로구 부일로 917,37.49490231,126.8263536,구로구
schools,천왕중학교,서울특별시 구로구 천왕로 63,37.48265442,126.8373336,구로구
schools,항동중학교,서울특별시 구로구 연동로 239-2,37.48285456,126.82019,구로구
schools,서울개명초등학교,서울특별시 구로구 개봉로1다길 16-9,37.48303904,126.8509791,구로구
schools,서울개봉초등학교,서울특별시 구로구 개봉로16길 30-11,37.48952491,126.857976,구로구
schools,서울개웅초등학교,서울특별시 구로구 개봉로11길 98,37.48857132,126.8499823,구로구
schools,서울고산초등학교,서울특별시 구로구 중앙로 6,37.49897255,126.8647727,구로구
schools,서울고원초등학교,서울특별시 구로구 경인로46길 13,37.49761122,126.8657993,구로구
schools,서울고척초등학교,서울특별시 구로구 경서로 31,37.50094829,126.8569791,구로구
schools,서울구로남초등학교,서울특별시 구로구 디지털로27길 76,37.48420602,126.8902182,구로구
schools,서울구로초등학교,서울특별시 구로구 구로중앙로27나길 9,37.49746187,126.8865543,구로구
schools,서울구일초등학교,서울특별시 구로구 구일로 68,37.49319187,126.8734727,구로구
schools,서울덕의초등학교,서울특별시 구로구 고척로 213,37.50605683,126.857346,구로구
schools,서울동구로초등학교,서울특별시 구로구 구로중앙로14길 43,37.49407053,126.8927802,구로구
schools,서울매봉초등학교,서울특별시 구로구 고척로21길 55,37.50491523,126.8443653,구로구
schools,서울미래초등학교,서울특별시 구로구 새말로 73,37.50510665,126.8880137,구로구
schools,서울세곡초등학교,서울특별시 구로구 고척로33길 34,37.5050561,126.8491198,구로구
schools,서울신구로초등학교,서울특별시 구로구 가마산로27길 69,37.49966003,126.8897631,구로구
schools,서울신도림초등학교,서울특별시 구로구 신도림로19길 44,37.51198439,126.8832546,구로구
schools,서울신미림초등학교,서울특별시 구로구 신도림로 26,37.50714192,126.8795527,구로구
schools,서울영서초등학교,서울특별시 구로구 도림로20길 57,37.48896082,126.8955833,구로구
schools,서울영일초등학교,서울특별시 구로구 남부순환로105길 218,37.48564539,126.8838134,구로구
schools,서울오류남초등학교,서울특별시 구로구 서해안로24길 22,37.48968652,126.8391127,구로구
schools,서울오류초등학교,서울특별시 구로구 경인로19길 39,37.49752741,126.84203,구로구
schools,서울오정초등학교,서울특별시 구로구 경인로2길 10,37.49016566,126.8264392,구로구
schools,서울온수초등학교,서울특별시 구로구 부일로 893,37.49400506,126.8259667,구로구
schools,서울천왕초등학교,서울특별시 구로구 천왕로1길 11,37.48145598,126.8370629,구로구
schools,서울하늘숲초등학교,서울특별시 구로구 오리로 1106,37.48418114,126.8416517,구로구
schools,서울항동초등학교,서울특별시 구로구 연동로 178,37.47718813,126.8239832,구로구
schools,대성고등학교,서울특별시 은평구 갈현로29길 51-24,37.62316122,126.9097907,은평구
schools,동명생활경영고등학교,서울특별시 은평구 통일로 793,37.61441879,126.9228204,은평구
schools,동명여자고등학교,서울특별시 은평구 통일로 793,37.61441879,126.9228204,은평구
schools,선일빅데이터고등학교,서울특별시 은평구 갈현로29길 27,37.62033713,126.9119931,은평구
schools,선일여자고등학교,서울특별시 은평구 갈현로29길 27,37.62030421,126.9119931,은평구
schools,선정고등학교,서울특별시 은평구 서오릉로20길 19,37.61870451,126.9090316,은평구
schools,선정국제관광고등학교,서울특별시 은평구 서오릉로20길 19,37.61870451,126.9090316,은평구
schools,세명컴퓨터고등학교,서울특별시 은평구 통일로92가길 33,37.6277708,126.9232499,은평구
schools,숭실고등학교,서울특별시 은평구 은평터널로7길 6,37.59327482,126.9024039,은평구
schools,신도고등학교,서울특별시 은평구 통일로 961,37.62913251,126.9187486,은평구
schools,신진과학기술고등학교,서울특별시 은평구 은평로6길 16,37.59871385,126.9188364,은평구
schools,예일디자인고등학교,서울특별시 은평구 연서로 117,37.6109459,126.9147928,은평구
schools,예일여자고등학교,서울특별시 은평구 연서로 117,37.6109459,126.9147928,은평구
schools,은평고등학교,서울특별시 은평구 갈현로15길 47,37.60984462,126.9057368,은평구
schools,은평메디텍고등학교,서울특별시 은평구 진관2로 57-57,37.63534652,126.9297048,은평구
schools,진관고등학교,서울특별시 은평구 진관4로 26,37.64333857,126.9243825,은평구
schools,충암고등학교,서울특별시 은평구 가좌로5길 5,37.58464029,126.9218095,은평구
schools,하나고등학교,서울특별시 은평구 연서로 535,37.64163759,126.9369302,은평구
schools,구산중학교,서울특별시 은평구 갈현로15길 20-23,37.60987202,126.9094887,은평구
schools,대성중학교,서울특별시 은평구 갈현로29길 51-24,37.62314228,126.9097907,은평구
schools,덕산중학교,서울특별시 은평구 가좌로 400,37.6022574,126.9046771,은평구
schools,불광중학교,서울특별시 은평구 불광로 180,37.62320355,126.9321291,은평구
schools,상신중학교,서울특별시 은평구 증산로15길 61,37.58978547,126.9064249,은평구
schools,선일여자중학교,서울특별시 은평구 갈현로29길 27,37.62030421,126.9119931,은평구
schools,선정중학교,서울특별시 은평구 서오릉로20길 19,37.61870451,126.9090316,은평구
schools,숭실중학교,서울특별시 은평구 은평터널로7길 6,37.59327482,126.9024039,은평구
schools,신도중학교,서울특별시 은평구 진관1로 77-30,37.63298366,126.9308787,은평구
schools,연서중학교,서울특별시 은평구 증산서길 125-6,37.58704446,126.9092766,은평구
schools,연신중학교,서울특별시 은평구 연서로33길 16-32,37.62353926,126.9242879,은평구
schools,연천중학교,서울특별시 은평구 연서로41길 30,37.62754521,126.9258198,은평구
schools,영락중학교,서울특별시 은평구 백련산로 134-6,37.5969603,126.9251334,은평구
schools,예일여자중학교,서울특별시 은평구 연서로 117,37.6109459,126.9147928,은평구
schools,은평중학교,서울특별시 은평구 갈현로17나길 12-1,37.61061869,126.9083472,은평구
schools,증산중학교,서울특별시 은평구 증산로5길 27-30,37.58344275,126.9041567,은평구
schools,진관중학교,서울특별시 은평구 진관4로 36,37.64425564,126.9257277,은평구
schools,충암중학교,서울특별시 은평구 가좌로5길 5,37.58464029,126.9218095,은평구
schools,서울갈현초등학교,서울특별시 은평구 연서로29길 31,37.61977964,126.9166834,은평구
schools,서울구산초등학교,서울특별시 은평구 서오릉로15길 16,37.61275096,126.9093765,은평구
schools,서울구현초등학교,서울특별시 은평구 갈현로15길 51,37.60984462,126.9057958,은평구
schools,서울녹번초등학교,서울특별시 은평구 녹번로1길 1,37.60458339,126.9257463,은평구
schools,서울대은초등학교,서울특별시 은평구 통일로69길 12-15,37.61236712,126.9258698,은평구
schools,서울대조초등학교,서울특별시 은평구 연서로18길 17,37.61357914,126.9193022,은평구
schools,서울북한산초등학교,서울특별시 은평구 대서문길 42-3,37.65363208,126.9504624,은평구
schools,서울불광초등학교,서울특별시 은평구 불광로 51,37.61342945,126.9307187,은평구
schools,서울상신초등학교,서울특별시 은평구 가좌로 361,37.59755372,126.9046049,은평구
schools,서울서신초등학교,서울특별시 은평구 은평터널로 150,37.59229405,126.9073823,은평구
schools,서울수리초등학교,서울특별시 은평구 불광로14길 10-10,37.62030737,126.9341783,은평구
schools,서울수색초등학교,서울특별시 은평구 수색로16길 21,37.58517215,126.8960121,은평구
schools,서울신도초등학교,서울특별시 은평구 진관1로 77-23,37.63296389,126.9291989,은평구
schools,서울신사초등학교,서울특별시 은평구 가좌로 275-2,37.5928019,126.9119832,은평구
schools,서울어울초등학교,서울특별시 은평구 통일로 650,37.60656331,126.9350984,은평구
schools,서울역촌초등학교,서울특별시 은평구 은평로3길 25,37.60158417,126.913928,은평구
schools,서울연광초등학교,서울특별시 은평구 연서로35길 37,37.62364876,126.923909,은평구
schools,서울연신초등학교,서울특별시 은평구 연서로 347,37.62605996,126.9277513,은평구
schools,서울연은초등학교,서울특별시 은평구 백련산로2길 35,37.59051222,126.9251778,은평구
schools,서울연천초등학교,서울특별시 은평구 연서로34길 22,37.62134929,126.9299179,은평구
schools,서울은명초등학교,서울특별시 은평구 은평로4길 21-9,37.59769681,126.9182757,은평구
schools,서울은빛초등학교,서울특별시 은평구 진관3로 73-17,37.64153447,126.921856,은평구
schools,서울은진초등학교,서울특별시 은평구 진관1로 21-20,37.63303012,126.920996,은평구
schools,서울은평초등학교,서울특별시 은평구 은평로 239,37.60230404,126.9340336,은평구
schools,서울응암초등학교,서울특별시 은평구 가좌로6길 20,37.58875319,126.9216161,은평구
schools,서울증산초등학교,서울특별시 은평구 증산서길 61,37.58256527,126.9042764,은평구
schools,서울진관초등학교,서울특별시 은평구 진관4로 78-16,37.64543483,126.9292124,은평구
schools,선일초등학교,서울특별시 은평구 갈현로29길 27,37.62030421,126.9119931,은평구
schools,예일초등학교,서울특별시 은평구 연서로 117,37.6109459,126.9147928,은평구
schools,충암초등학교,서울특별시 은평구 가좌로5길 5,37.58464029,126.9218095,은평구
police,서울서부 응암 지구대,서울특별시 은평구 은평로 171,37.6016345299694,126.926445885297,은평구
police,서울서부 신사 지구대,서울특별시 은평구 은평터널로5길 6호,37.5917796902503,126.90535752555,은평구
police,서울서부 녹번 파출소,서울특별시 은평구 진흥로 진흥로200,37.6088118976774,126.931835604338,은평구
police,서울서부 응암3 파출소,서울특별시 은평구 응암로 208,37.5905275289984,126.917536839269,은평구
police,서울서부 역촌 파출소,서울특별시 은평구 연서로 61,37.6045881730664,126.915065656503,은평구
police,서울구로 신구로 지구대,서울특별시 구로구 새말로 26 신구로지구대,37.5022709315884,126.88389609812,구로구
police,서울구로 오류 지구대,서울특별시 구로구 고척로1길 34 오류지구대,37.4948162993423,126.838842200207,구로구
police,서울구로 구일 지구대,서울특별시 구로구 도림로 63 구일지구대,37.4892521149095,126.890700200107,구로구
police,서울구로 고척 지구대,서울특별시 구로구 중앙로 15길 30 고척지구대,37.5066010740517,126.858302326165,구로구
police,서울구로 개봉 지구대,서울특별시 구로구 개봉로18길 5 개봉지구대,37.4918322570645,126.856448965021,구로구
police,서울구로 구로3 파출소,서울특별시 구로구 디지털로31길 86 구로3파출소,37.4866606515713,126.891399918226,구로구
police,서울구로 가리봉 파출소,서울특별시 구로구 남부순환로 1275 가리봉파출소,37.4792089328892,126.892660335738,구로구
police,서울구로 천왕 파출소,서울특별시 구로구 오리로 1102-8,37.4838544428815,126.842564336077,구로구
police,서울은평 불광 지구대,서울특별시 은평구 연서로 290,37.6214183477987,126.926581355932,은평구
police,서울은평 연신내 지구대,서울특별시 은평구 갈현로 195,37.6152127182381,126.912708898719,은평구
police,서울은평 진관 파출소,서울특별시 은평구 진관3로 38 진관파출소,37.6399452531738,126.920899644798,은평구
police,서울은평 대조 파출소,서울특별시 은평구 진흥로13길3-33 (대조동),37.6086729484427,126.924270934554,은평구
subway,구산역,서울 은평구 연서로 지하 137-1,37.6112122196295,126.917182386796,은평구
subway,구파발역,서울 은평구 진관2로 지하 15-25,37.6368417889316,126.918745426412,은평구
subway,녹번역,서울 은평구 통일로 지하 602-1,37.6007672113884,126.936154179023,은평구
subway,독바위역,서울 은평구 불광로 지하 129-1,37.6183988849915,126.932810138476,은평구
subway,디지털미디어시티역,서울 은평구 수색로 193,37.577876499679,126.900250572829,은평구
subway,불광역,서울 은평구 통일로 지하 723-1,37.6102072578868,126.92998576213,은평구
subway,새절역,서울 은평구 증산로 지하 400,37.5918270544017,126.913911983591,은평구
subway,수색역,서울 은평구 수색로 261-1,37.5808147253405,126.895659201671,은평구
subway,역촌역,서울 은평구 서오릉로 지하 63,37.6060390534435,126.922967946327,은평구
subway,연신내역,서울 은평구 통일로 지하 849,37.618962003178,126.921162124977,은평구
subway,응암역,서울 은평구 증산로 지하 477,37.5987423282207,126.915512801302,은평구
subway,증산역,서울 은평구 증산로 지하 306,37.5841954778004,126.910057587886,은평구
subway,개봉역,서울 구로구 경인로 40길 47,37.4945222528654,126.859102583368,구로구
subway,구로디지털단지역,서울 구로구 도림천로 477,37.4853149237865,126.901494378412,구로구
subway,구로역,서울 구로구 구로중앙로 174,37.5024345090279,126.881491595821,구로구
subway,구일역,서울 구로구 구일로 133,37.4963911827294,126.869920428658,구로구
subway,남구로역,서울 구로구 도림로 지하 7,37.4861618372855,126.887341021559,구로구
subway,대림역,서울 구로구 도림천로 351,37.4933105886136,126.8949461878,구로구
subway,도림천역,서울 구로구 경인로 67길 160,37.5144420510515,126.882702584468,구로구
subway,신도림역,서울 구로구 새말로 지하 117-21,37.5087701449787,126.891080501385,구로구
subway,오류동역,서울 구로구 경인로20길 13,37.4943157045741,126.844492460222,구로구
subway,온수역,서울 구로구 부일로 872,37.4924739158747,126.824038632379,구로구
subway,천왕역,서울 구로구 오리로 지하 1154,37.4868219430207,126.838713741162,구로구
bus,덕은교.은평차고지앞,,37.5895807424,126.8840903371,은평구
bus,덕은교.은평차고지앞,,37.5891989861,126.8848376007,은평구
bus,수색교,,37.585759,126.888672,은평구
bus,수색교,,37.584698,126.89018,은평구
bus,수색역앞,,37.5832230348,126.8932380184,은평구
bus,수색역앞,,37.583047,126.894103,은평구
bus,디지털미디어시티역,,37.5794195375926,126.900673276716,은평구
bus,디지털미디어시티역,,37.5788284637781,126.901399390008,은평구
bus,은평뉴타운10단지,,37.642948,126.915165,은평구
bus,은평뉴타운10단지,,37.643407,126.91373,은평구
bus,구파발역입구,,37.636164,126.917023,은평구
bus,구파발역입구,,37.637116,126.916837,은평구
bus,박석고개.신도고등학교,,37.629919,126.919374,은평구
bus,박석고개.신도고등학교,,37.6310872697,126.9190609605,은평구
bus,세명컴퓨터고등학교,,37.6242147932,126.9199734902,은평구
bus,세명컴퓨터고등학교,,37.6252825924,126.9199961366,은평구
bus,연신내역.연서시장,,37.6183598996,126.9218398322,은평구
bus,연신내역.연서시장,,37.6192580456,126.9210382474,은평구
bus,동명여고.천주교불광동성당,,37.6156029897,126.9250457359,은평구
bus,동명여고.천주교불광동성당,,37.6161853499,126.9240393187,은평구
bus,불광역3.6호선,,37.6119112959,126.9287979055,은평구
bus,불광역3.6호선,,37.6124473901,126.9281552459,은평구
bus,불광역3호선.서울혁신파크,,37.60865,126.931625,은평구
bus,불광역3호선.서울혁신파크,,37.609067,126.931067,은평구
bus,한전서대문은평.북한산푸르지오,,37.6055532703,126.9343058909,은평구
bus,한전서대문은평.북한산푸르지오,,37.606093,126.933807,은평구
bus,녹번역,,37.6018619707,126.935322042,은평구
bus,녹번역,,37.6024349118,126.9350485981,은평구
bus,신사1동주민센터,,37.5979781452954,126.911386490471,은평구
bus,불광역1번출구,,37.6100879267,126.9304602536,은평구
bus,불광역3.6호선,,37.6124835753,126.9283885506,은평구
bus,동명여고,,37.616295,126.924228,은평구
bus,연신내역,,37.6181925106,126.9221617234,은평구
bus,선일하이츠빌라,,37.62279,126.919943,은평구
bus,세명컴퓨터고등학교,,37.6257486454,126.9202811322,은평구
bus,구파발역2번출구,,37.6367680033,126.9189889746,은평구
bus,구파발역.롯데몰,,37.637248,126.918577,은평구
bus,구파발역.롯데몰,,37.637246,126.918533,은평구
bus,박석고개,,37.6262373755,126.9198715831,은평구
bus,신한은행갈현지점,,37.6238469574,126.9196883967,은평구
bus,연신내역,,37.617346,126.92256,은평구
bus,동명여고,,37.6159770824,126.9240648193,은평구
bus,불광역3.6호선,,37.612663,126.927845,은평구
bus,불광역4번출구,,37.609758,126.930336,은평구
bus,녹번역,,37.601187,126.933176,은평구
bus,은평구청,,37.6014275543,126.930407158,은평구
bus,응암지구대,,37.6013998544,126.926337939,은평구
bus,본서부병원,,37.6009,126.9238,은평구
bus,신진과학기술고교.이마트은평점,,37.5998598128,126.918510745,은평구
bus,응암역.신사오거리,,37.599036,126.914866,은평구
bus,응암역.신사오거리,,37.5987592495,126.9149894161,은평구
bus,신진과학기술고교.이마트은평점,,37.5995376513,126.9186295811,은평구
bus,본서부병원,,37.6005501772,126.9235787889,은평구
bus,응암지구대,,37.6012216354,126.9266529623,은평구
bus,은평구청,,37.601197,126.930393,은평구
bus,녹번초등학교,,37.6028391102,126.92615785,은평구
bus,역촌역.역촌오거리,,37.606957085,126.9224758463,은평구
bus,삼성타운,,37.6087032927,126.9209709958,은평구
bus,구산역1번출구.예일여고,,37.6108522823,126.918180036,은평구
bus,역촌중앙시장,,37.612813,126.914718,은평구
bus,구산사거리,,37.613613,126.912487,은평구
bus,선진운수종점,,37.614342,126.910458,은평구
bus,선정중고등학교,,37.615836,126.908392,은평구
bus,서울경찰청86.87기동대.우남아파트,,37.618049,126.906434,은평구
bus,서울경찰청86.87기동대.우남아파트,,37.6185284274,126.9058308185,은평구
bus,선정중고등학교,,37.615714,126.90808,은평구
bus,선진운수종점,,37.613895,126.910862,은평구
bus,구산사거리,,37.6132406179,126.9125387021,은평구
bus,역촌중앙시장,,37.612525,126.914677,은평구
bus,구산역2번출구.예일여고,,37.6107737973,126.9177586143,은평구
bus,하나은행역촌동지점,,37.6092676452,126.9200382135,은평구
bus,역촌역.역촌오거리,,37.6065740745,126.9224014904,은평구
bus,녹번초등학교,,37.603666166,126.9250309695,은평구
bus,응암초등학교,,37.5870793679,126.9211239608,은평구
bus,은평문화예술정보학교,,37.588893,126.918898,은평구
bus,응암오거리,,37.5907361763,126.9165521769,은평구
bus,신사초등학교,,37.5931399182,126.9135451755,은평구
bus,신사동고개사거리,,37.596033,126.909871,은평구
bus,신사동고개사거리,,37.5956071263,126.9099682771,은평구
bus,신사초등학교,,37.5933583703,126.9128484808,은평구
bus,응암오거리,,37.5907322847,126.916146787,은평구
bus,은평문화예술정보학교,,37.588822,126.918622,은평구
bus,응암초등학교,,37.587477,126.920307,은평구
bus,대림시장,,37.5878268986,126.9165435736,은평구
bus,대림시장,,37.5886847389,126.9170368506,은평구
bus,응암역.신사오거리,,37.5979358249,126.9152247795,은평구
bus,신흥시장,,37.5954014899,126.9145640351,은평구
bus,새절역,,37.5911871934,126.9134545782,은평구
bus,와산교,,37.587889553,126.9126985944,은평구
bus,증산종합시장.증산중학교입구,,37.580827,126.90615,은평구
bus,증산종합시장.증산중학교입구,,37.5805912987,126.9063881275,은평구
bus,증산역.증산동주민센터,,37.5836809982,126.909681456,은평구
bus,와산교,,37.5880943849,126.9130844852,은평구
bus,새절역.숭실고입구,,37.591681,126.913892,은평구
bus,신흥시장,,37.5954017296,126.9148958447,은평구
bus,응암역.신사오거리,,37.5981073049,126.9156062368,은평구
bus,역촌초등학교,,37.6021814396,126.9160546584,은평구
bus,역말사거리,,37.6061494708,126.9155586421,은평구
bus,구산역2번출구.예일여고,,37.6099512058,126.9169033629,은평구
bus,구산역1번출구,,37.6116583062,126.91753691,은평구
bus,대조동주민센터,,37.6140725919,126.9179363667,은평구
bus,연신내역.로데오거리,,37.6178207167,126.9199962033,은평구
bus,연서시장,,37.6192425563,126.9225910997,은평구
bus,종로약국,,37.6203765441,126.9246380909,은평구
bus,불광지구대,,37.6217745784,126.9267891079,은평구
bus,북한산대창센시티아파트,,37.6248070601,126.9288094985,은평구
bus,은평경찰서,,37.6276323558,126.9294752418,은평구
bus,폭포동,,37.630715,126.931032,은평구
bus,신도중학교,,37.6333482679,126.9315290754,은평구
bus,은평노인종합복지관.신도중학교,,37.632495,126.931533,은평구
bus,폭포동.은평노인종합복지관,,37.6313826666,126.9310069167,은평구
bus,은평경찰서,,37.628117,126.929277,은평구
bus,연신초등학교,,37.6256234179,126.9287702008,은평구
bus,불광지구대,,37.6218554999,126.926505814,은평구
bus,새장골유래비,,37.6205196512,126.9243796594,은평구
bus,연서시장,,37.619596645,126.9225340914,은평구
bus,연신내역.로데오거리,,37.618013317,126.9196550241,은평구
bus,은평연세병원,,37.61474,126.917738,은평구
bus,구산역4번출구,,37.611892,126.917187,은평구
bus,구산역3번출구.예일여고,,37.610497,126.916776,은평구
bus,역말사거리,,37.6062104465,126.9151429014,은평구
bus,역촌초등학교,,37.6027929337,126.9155726294,은평구
bus,응암역2번출구,,37.6004214787,126.9158607077,은평구
bus,신사동고개.은평지역자활센터,,37.5984133304,126.910253684,은평구
bus,서울기독대학교입구,,37.6014374785,126.9103848244,은평구
bus,시립서북병원세현교회앞,,37.6061458636,126.910658933,은평구
bus,구산중학교.구산교회,,37.608955,126.91102,은평구
bus,구산동주민센터,,37.61138,126.911363,은평구
bus,구산동주민센터,,37.612207,126.91129,은평구
bus,구산중학교.구산교회,,37.6088023972,126.9108335829,은평구
bus,시립서북병원세현교회앞,,37.6060168573,126.9104597465,은평구
bus,서울기독대학교입구,,37.6020320757,126.9102266857,은평구
bus,우남교통,,37.5997666658,126.9101252157,은평구
bus,신사동고개.은평지역자활센터,,37.5986006142,126.9100665956,은평구
bus,갈현1동주민센터,,37.623967591,126.9169240149,은평구
bus,한일탕,,37.6260825696,126.9184103208,은평구
bus,한일탕,,37.6261494835,126.9187489917,은평구
bus,갈현1동주민센터,,37.6232468092,126.9170449022,은평구
bus,불광롯데캐슬아파트,,37.6130745033,126.9320721326,은평구
bus,진관초교입구,,37.6469051663,126.9258465241,은평구
bus,푸르지오625동앞.관음사입구,,37.648985,126.928667,은평구
bus,삼천리골입구56사단북한산부대,,37.650344644,126.9351168233,은평구
bus,백화사,,37.653550933,126.9389594548,은평구
bus,흥국사,,37.656762115,126.9420101744,은평구
bus,북한산성입구,,37.6580874009,126.9453651665,은평구
bus,북한산성입구,,37.6581874095,126.9453412916,은평구
bus,흥국사,,37.657265,126.94219,은평구
bus,백화사,,37.6537446878,126.9390034965,은평구
bus,삼천리골입구56사단북한산부대,,37.650083,126.933315,은평구
bus,진관초교관음사입구,,37.6477735446,126.926868987,은평구
bus,푸르지오618동앞.관음사입구,,37.649682,126.929232,은평구
bus,진관중고교약수사입구,,37.6457026484,126.9236855353,은평구
bus,응암2동주민센터,,37.5959245549,126.9236015835,은평구
bus,응암2동주민센터,,37.595649,126.923082,은평구
bus,이마트은평점,,37.600054,126.918586,은평구
bus,서부경찰서,,37.601367,126.920592,은평구
bus,해주드림빌APT,,37.604167052,126.9220664791,은평구
bus,역촌역.역촌오거리,,37.6068015906,126.923243231,은평구
bus,대조시장앞,,37.6086555139,126.9265165396,은평구
bus,양광교회앞,,37.6084619409,126.9282417636,은평구
bus,불광역.불광1동주민센터,,37.6090959943,126.9322904306,은평구
bus,독박골.북한산래미안APT앞,,37.610512964,126.9397954573,은평구
bus,구기터널입구,,37.610411,126.944938,은평구
bus,구기터널입구,,37.6107519472,126.9457747343,은평구
bus,독박골.북한산래미안APT,,37.6107435434,126.9396027141,은평구
bus,불광역.불광1동주민센터,,37.6095286975,126.9326083189,은평구
bus,양광교회,,37.6085452704,126.9289518591,은평구
bus,대조시장,,37.608786,126.926162,은평구
bus,역촌오거리,,37.6076554963,126.9239679445,은평구
bus,역촌역1번출구,,37.6052406679,126.9221735304,은평구
bus,서부경찰서,,37.602018,126.920548,은평구
bus,이마트은평점,,37.600238,126.918138,은평구
bus,응암1동주민센터,,37.600152,126.926767,은평구
bus,영락중학교입구,,37.597337,126.92434,은평구
bus,시립은평병원,,37.5932,126.922968,은평구
bus,백련산힐스테이트4차,,37.590011,126.922674,은평구
bus,충암고교앞.대주피오레아파트,,37.5868458253,126.9226529706,은평구
bus,충암고교앞.대주피오레아파트,,37.5869567896,126.9228521457,은평구
bus,백련산힐스테이트2차,,37.5903133577,126.9228701963,은평구
bus,시립은평병원,,37.593283,126.923127,은평구
bus,영락중학교입구,,37.5969092616,126.92416574,은평구
bus,응암1동주민센터,,37.600396483,126.9270456288,은평구
bus,한솔아파트입구선정중학교후문,,37.6157960537,126.9137069892,은평구
bus,갈현동미미아파트,,37.6182029973,126.9151519292,은평구
bus,선일여고입구,,37.6193423695,126.9157125131,은평구
bus,갈현동성당앞,,37.6207946411,126.9165922246,은평구
bus,갈현동성당앞,,37.62054,126.916227,은평구
bus,선일여고입구,,37.619392,126.915519,은평구
bus,갈현동미미아파트,,37.6181857266,126.9149435132,은평구
bus,한솔아파트입구선정중학교후문,,37.6160781278,126.9137542396,은평구
bus,불광역9번출구.불광초등학교,,37.611288,126.930517,은평구
bus,불광대호아파트,,37.614479,126.93247,은평구
bus,불광1동공동주차장앞,,37.615697,126.933002,은평구
bus,불광1치안센터.독바위역,,37.617356,126.933141,은평구
bus,수리초등학교입구,,37.619248,126.932557,은평구
bus,북한산수자인아파트,,37.6216806133,126.931665598,은평구
bus,불광중학교,,37.622872,126.930952,은평구
bus,북한산대창센시티아파트,,37.6237282359,126.9299354838,은평구
bus,북한산대창센시티아파트,,37.6238488301,126.9296816036,은평구
bus,불광중학교,,37.6225007168,126.9310525109,은평구
bus,북한산수자인아파트,,37.621045,126.931655,은평구
bus,수리초등학교입구,,37.619092,126.932512,은평구
bus,불광1치안센터.독바위역,,37.617938,126.933077,은평구
bus,불광1동공동주차장앞,,37.6163,126.932728,은평구
bus,불광대호아파트,,37.614533,126.932333,은평구
bus,불광초등학교,,37.6115701913,126.9304574428,은평구
bus,신사동고개사거리,,37.5956194245,126.9103318553,은평구
bus,백련산SK뷰아이파크아파트,,37.595846,126.919156,은평구
bus,서부경찰서후문,,37.6024326383,126.9223367061,은평구
bus,신진과학기술고등학교,,37.59791,126.920325,은평구
bus,응암시장,,37.5943144974,126.9179795859,은평구
bus,서서울농협본점,,37.5934441515,126.918131154,은평구
bus,신진과학기술고등학교,,37.5978224711,126.9206733351,은평구
bus,서부경찰서후문,,37.6018695323,126.9226455849,은평구
bus,수색역,,37.581891,126.896196,은평구
bus,덕은교.은평차고지앞,,37.5885944751,126.8856592313,은평구
bus,덕은교.은평차고지앞,,37.589961128,126.8834469451,은평구
bus,수색교,,37.585563,126.88869,은평구
bus,수색119안전센터,,37.583469198,126.8924280896,은평구
bus,수색역,,37.5807252119,126.8972983814,은평구
bus,디지털미디어시티역,,37.5782509235095,126.901072414948,은평구
bus,수색초등학교,,37.5838964478,126.8976450323,은평구
bus,e편한세상수색에코포레,,37.585871126,126.9002070161,은평구
bus,은평터널앞,,37.5916129815,126.905834169,은평구
bus,e편한세상수색에코포레,,37.5861018572,126.9002689854,은평구
bus,수색초등학교,,37.5844411022,126.897867645,은평구
bus,DMC파인시티자이,,37.5846837509466,126.894019845962,은평구
bus,새마을금고앞,,37.588999,126.911854,은평구
bus,새마을금고앞,,37.5887219151,126.9123692391,은평구
bus,미성아파트앞,,37.589962,126.910122,은평구
bus,미성아파트앞,,37.5897240784,126.9101746617,은평구
bus,상신중학교앞,,37.590611,126.906454,은평구
bus,상신중학교앞,,37.590528,126.906192,은평구
bus,숭실고입구,,37.591947,126.906391,은평구
bus,현대아파트앞,,37.593711,126.907944,은평구
bus,현대아파트앞,,37.593637,126.907713,은평구
bus,신사사거리,,37.5956793509,126.9089727568,은평구
bus,신사사거리,,37.595726085,126.9088141552,은평구
bus,동명여고후문,,37.613396539,126.9243200422,은평구
bus,동명탕앞,,37.6113775306,126.922048761,은평구
bus,하나은행역촌동지점,,37.6083362023,126.9204238095,은평구
bus,충북슈퍼앞,,37.6059843928,126.9178318079,은평구
bus,역촌동주민센터,,37.605725,126.914828,은평구
bus,제각말5단지.은평뉴타운도서관,,37.638398,126.93551,은평구
bus,제각말5단지.은평뉴타운도서관,,37.636736149,126.9344374778,은평구
bus,연신초등학교,,37.625899,126.92919,은평구
bus,증산역.증산동주민센터,,37.5837546123,126.9093224341,은평구
bus,연신초등학교.연신내성당,,37.626872,126.929043,은평구
bus,신사동고개,,37.5981632618,126.9108258962,은평구
bus,시립서북병원,,37.6046894448,126.9103118348,은평구
bus,신사동고개,,37.5977669942,126.9099169775,은평구
bus,녹번역,,37.600877,126.934225,은평구
bus,시립서북병원,,37.605176,126.910563,은평구
bus,구산동사거리,,37.6142712329,126.9122339199,은평구
bus,구산동사거리,,37.614367,126.912121,은평구
bus,역촌동성당,,37.60556,126.912148,은평구
bus,역촌동성당,,37.6057372754,126.9125361624,은평구
bus,호림아파트앞,,37.6091519314,126.9208187439,은평구
bus,은평권역공영차고지,,37.591459,126.884374,은평구
bus,응암정보도서관,,37.586568,126.919898,은평구
bus,응암정보도서관,,37.5867495708,126.9201891291,은평구
bus,서울중앙교회앞,,37.5852370433,126.9181435403,은평구
bus,우성공인중개사,,37.5850429138,126.918876351,은평구
bus,응암오거리,,37.5908592237,126.9159858454,은평구
bus,갈현노인복지센터,,37.6247220019,126.917214331,은평구
bus,녹번동대림JR아파트앞,,37.599268,126.937212,은평구
bus,연서중학교입구,,37.5862294351,126.9122781788,은평구
bus,연서중학교입구,,37.5861713747,126.9117539841,은평구
bus,지축교앞,,37.645043,126.917493,은평구
bus,지축교앞,,37.6448504011,126.9196860466,은평구
bus,진관중고교약수사입구,,37.6451606289,126.9229619673,은평구
bus,응암3동주민센터,,37.5911611009,126.9173132277,은평구
bus,롯데캐슬823동앞,,37.6420727334,126.9217560692,은평구
bus,진관중고교.약수사앞,,37.6434108442,126.9231360187,은평구
bus,아이파크701동앞,,37.6460451246,126.9280934321,은평구
bus,푸르지오621동앞,,37.648436,126.930478,은평구
bus,진관초교앞,,37.64627,126.9294,은평구
bus,생태공원앞.구립상림도서관,,37.6440749929,126.9289701583,은평구
bus,진관중고교.약수사앞,,37.643627,126.924132,은평구
bus,래미안909동앞,,37.6411534924,126.9215474004,은평구
bus,하나고.삼천사.진관사입구,,37.641815,126.938408,은평구
bus,응암3동주민센터,,37.5916290571,126.9176960361,은평구
bus,입곡삼거리,,37.649733,126.936408,은평구
bus,입곡삼거리,,37.651691,126.937378,은평구
bus,아이파크709동앞,,37.64485753,126.9266769344,은평구
bus,은진초교입구.은뜨락도서관,,37.63076,126.9208,은평구
bus,은진초교입구.은뜨락도서관,,37.6310195075,126.9209179115,은평구
bus,은평구민체육센터앞,,37.631421,126.922569,은평구
bus,은평구민체육센터앞,,37.631655,126.923248,은평구
bus,신도초중교입구.한국고전번역원,,37.631487,126.925337,은평구
bus,신도초중교입구.한국고전번역원,,37.6315631161,126.9269041367,은평구
bus,은평성모병원,,37.633809,126.917492,은평구
bus,아이파크714동앞,,37.644767,126.926202,은평구
bus,푸르지오604동앞,,37.647765,126.930083,은평구
bus,푸르지오614동앞,,37.649745,126.931495,은평구
bus,아이파크708동앞,,37.645634,126.92713,은평구
bus,진관동주민센터.은평우체국,,37.634545,126.919781,은평구
bus,진관동주민센터.은평우체국,,37.634698,126.91982,은평구
bus,동부센트레빌324동앞,,37.634163,126.924645,은평구
bus,두산위브253동앞,,37.634275,126.923168,은평구
bus,동부센트레빌320동앞,,37.6340897602,126.9278046811,은평구
bus,신도초교.은평메디텍고등학교,,37.634313,126.929245,은평구
bus,하나고.삼천사.진관사입구,,37.6417643622,126.9381067653,은평구
bus,두산위브205동앞,,37.6342668645,126.9262624499,은평구
bus,래미안922동앞,,37.64408,126.921341,은평구
bus,롯데캐슬820동앞,,37.6440018231,126.921569335,은평구
bus,진관공영차고지,,37.646727264,126.9079338724,은평구
bus,진관공영차고지,,37.6466658339,126.9081159578,은평구
bus,기자촌11단지앞,,37.634757,126.93258,은평구
bus,수국사입구,,37.616775,126.906785,은평구
bus,응암초교.백련산힐스테이트3차,,37.5887750972,126.9227143861,은평구
bus,신도초교.은평메디텍고등학교,,37.634092,126.930538,은평구
bus,응암초교.백련산힐스테이트3차,,37.588335,126.922555,은평구
bus,녹번센트레빌아파트,,37.5987999451,126.9259022216,은평구
bus,녹번센트레빌아파트,,37.5991595285,126.925981141,은평구
bus,선진운수종점,,37.614378,126.909608,은평구
bus,기자촌사거리,,37.634432,126.932131,은평구
bus,갈현중앙시장,,37.623464,126.918397,은평구
bus,갈현중앙시장,,37.6232841899,126.9189696235,은평구
bus,덕산중학교.씨티아파트,,37.6001887986,126.9045107403,은평구
bus,덕산중학교.두산위브아파트,,37.6003715553,126.9045804777,은평구
bus,녹번전철역,,37.601652,126.935223,은평구
bus,상신초등학교입구,,37.5966,126.90848,은평구
bus,신도림역,,37.5097162979,126.8891800847,구로구
bus,신도림역,,37.509108047,126.8884638807,구로구
bus,신도림동.구로역,,37.506145,126.884125,구로구
bus,신도림동.구로역,,37.5053435935,126.883227988,구로구
bus,구일역.중앙유통상가,,37.499883,126.874701,구로구
bus,구일역.제일제당,,37.49971,126.87453,구로구
bus,동양미래대학.구로성심병원,,37.4996343963,126.8679976691,구로구
bus,동양미래대학.구로성심병원,,37.4993764843,126.8670186731,구로구
bus,개봉역.영화아파트,,37.4969418239,126.8602005359,구로구
bus,개봉역.한마을아파트,,37.4964773551,126.8620566339,구로구
bus,경인중학교.개봉사거리,,37.4974485938,126.8554373749,구로구
bus,경인중학교.개봉사거리,,37.4973068647,126.8551547189,구로구
bus,구로디지털단지역,,37.4830994287,126.9015481288,구로구
bus,신도림역,,37.506549,126.892103,구로구
bus,신도림역,,37.5070158798,126.8915707873,구로구
bus,서울미래초등학교,,37.505102,126.889452,구로구
bus,서울미래초등학교,,37.5052539407,126.8893190662,구로구
bus,한국SGI,,37.502477,126.889783,구로구
bus,거리공원.구로신협본점앞,,37.502787,126.888566,구로구
bus,거리공원,,37.499974,126.891835,구로구
bus,구로도서관.대성스카이렉스,,37.499565,126.891075,구로구
bus,구로고등학교,,37.496567,126.891578,구로구
bus,영림중학교,,37.496915,126.891622,구로구
bus,구로구청,,37.4945619511,126.8879268367,구로구
bus,구로구청,,37.4947508763,126.8876042378,구로구
bus,고대구로병원후문,,37.493233,126.884567,구로구
bus,대림역,,37.490945,126.893978,구로구
bus,대림역,,37.491138,126.893798,구로구
bus,영서중학교,,37.489831,126.892204,구로구
bus,영서중학교,,37.490202,126.89234,구로구
bus,구로두산아파트,,37.488807,126.890072,구로구
bus,구로종합사회복지관,,37.487893,126.889168,구로구
bus,남구로역2번출구,,37.485278,126.886787,구로구
bus,남구로역5번출구.구로4동자치회관,,37.48531,126.886453,구로구
bus,한국산업단지공단.이마트구로점,,37.484138,126.896751,구로구
bus,고용노동부관악지청.이마트구로점,,37.48365,126.89805,구로구
bus,디지털산업1단지,,37.483846,126.895035,구로구
bus,디지털산업1단지,,37.483965,126.894763,구로구
bus,하이엔드1차·보건지소·치매센터,,37.481748,126.89293,구로구
bus,지하이시티·보건지소·치매센터,,37.4816976566,126.8926352264,구로구
bus,디지털단지오거리,,37.4798962168,126.8906988158,구로구
bus,디지털단지오거리,,37.479933,126.890398,구로구
bus,퀸즈빌,,37.487314,126.832802,구로구
bus,가리봉시장,,37.48301,126.887123,구로구
bus,가리봉시장,,37.4824285977,126.8869928718,구로구
bus,남구로역3번출구,,37.48418,126.886268,구로구
bus,남구로역,,37.4860984011,126.8856450789,구로구
bus,구로시장,,37.487987,126.88486,구로구
bus,구로시장,,37.48798,126.88461,구로구
bus,구로4동우체국.고대구로병원정문,,37.4902484188,126.8842398696,구로구
bus,구로4동우체국.고대구로병원정문,,37.4899022236,126.8840651203,구로구
bus,구로119안전센터,,37.4937842571,126.8832312859,구로구
bus,구로119안전센터,,37.4938362491,126.8829563911,구로구
bus,우리유앤미아파트,,37.4967741772,126.8823840611,구로구
bus,구로변전소.구로초등학교,,37.4977886895,126.8840766793,구로구
bus,구로2동성당,,37.4995738531,126.8823344295,구로구
bus,구로역·NC신구로점,,37.5000384326,126.8828494432,구로구
bus,구로역·NC신구로점,,37.500848,126.88258,구로구
bus,구로역.구로기계공구상가,,37.5035680895,126.8793093405,구로구
bus,구로역.구로기계공구상가,,37.5034172875,126.8789985402,구로구
bus,기업은행구로중앙지점,,37.5051655805,126.8774020097,구로구
bus,기업은행구로중앙지점,,37.5048734598,126.8772441351,구로구
bus,두암빌라,,37.495086,126.825715,구로구
bus,항동우남퍼스트빌,,37.4762006225719,126.817434441913,구로구
bus,신도림중학교,,37.5064944251,126.8849526908,구로구
bus,신도림중학교,,37.506772,126.884705,구로구
bus,구로역,,37.50455,126.882277,구로구
bus,구로역,,37.5048451046,126.8821395273,구로구
bus,초롱타운회전교차로,,37.495703,126.879839,구로구
bus,솔길공원,,37.489291,126.880367,구로구
bus,GS25,,37.492841,126.880194,구로구
bus,한일유앤아이아파트,,37.4856462135,126.8760349245,구로구
bus,항동우남퍼스트빌,,37.4773626520071,126.817959244434,구로구
bus,구로SKV1.제일풍경채포레스트,,37.4771617306403,126.816795603984,구로구
bus,개봉사거리,,37.4972517923,126.8573774345,구로구
bus,경인중학교,,37.496893,126.8563,구로구
bus,개봉치안센터,,37.4981960239,126.8518576272,구로구
bus,오류1동주민센터.오류문화센터,,37.4968379665,126.8461421452,구로구
bus,오류1동주민센터.오류문화센터,,37.4965241154,126.84458597,구로구
bus,오류동역,,37.495698,126.843351,구로구
bus,오류동역,,37.4956023105,126.842536958,구로구
bus,씨티월드,,37.494463,126.840682,구로구
bus,오류지구대.신오류주유소,,37.4942645442,126.8394647757,구로구
bus,서울가든빌라앞,,37.4911327081,126.8313415833,구로구
bus,서울가든빌라앞,,37.4915630038,126.8316708345,구로구
bus,성공회대학교.유한공고앞,,37.4894827176,126.8251819712,구로구
bus,영풍마드레빌아파트.소공원사거리,,37.4911309317,126.8395380549,구로구
bus,연세중앙교회,,37.4931082751,126.8354231175,구로구
bus,궁동청소년문화의집,,37.493319,126.832823,구로구
bus,궁동청소년문화의집.구로검사소,,37.493133,126.833633,구로구
bus,우신고등학교,,37.4933,126.830847,구로구
bus,우신고등학교,,37.4930633974,126.8304506092,구로구
bus,온수역,,37.4928265566,126.8238226092,구로구
bus,온수역,,37.492777021,126.8244009171,구로구
bus,온수동새마을금고,,37.4960559471,126.8243871935,구로구
bus,정진학교.온수힐스테이트아파트,,37.4969745872,126.8221461174,구로구
bus,수궁동주민센터,,37.494651,126.830866,구로구
bus,수궁동주민센터,,37.494359,126.830852,구로구
bus,수궁119안전센터,,37.496815,126.829596,구로구
bus,수궁119안전센터,,37.4967842434,126.8293338512,구로구
bus,예림디자인고.오류고.서울공연예술고,,37.498605,126.829242,구로구
bus,예림디자인고.오류고.서울공연예술고,,37.4984,126.82904,구로구
bus,서서울생활과학고.궁동도서관,,37.502837,126.828968,구로구
bus,서서울생활과학고.궁동도서관,,37.502207,126.829187,구로구
bus,오남중학교.삼미주택,,37.4885327485,126.8367978524,구로구
bus,오남중학교,,37.488103,126.837161,구로구
bus,구로2동지하차도입구,,37.4902172822,126.8812188135,구로구
bus,구로우체국.이펜하우스5단지후문,,37.481946,126.842284,구로구
bus,천왕역4번출구,,37.4859413996,126.8393714866,구로구
bus,오류2동주민센터,,37.488647,126.839775,구로구
bus,오류2동주민센터,,37.488887,126.839681,구로구
bus,오류2동새마을금고,,37.4905229687,126.8406511512,구로구
bus,오류2동새마을금고,,37.49062,126.840575,구로구
bus,대원주유소,,37.4869343975,126.8565297879,구로구
bus,대원주유소,,37.4873583985,126.8561852068,구로구
bus,현대아파트.개봉중앙시장,,37.490752,126.856119,구로구
bus,현대아파트.개봉중앙시장,,37.490533,126.855865,구로구
bus,덕의초등학교,,37.5063377311,126.8594403333,구로구
bus,덕의초등학교,,37.5061580205,126.858358201,구로구
bus,고척근린공원,,37.5047224619,126.8552979346,구로구
bus,고척근린공원.고척도서관,,37.5046337292,126.854469381,구로구
bus,세곡초등학교,,37.5026683511,126.8498423009,구로구
bus,세곡초등학교,,37.5031820473,126.8506070009,구로구
bus,개봉푸르지오아파트,,37.5021368312,126.8478312344,구로구
bus,개봉푸르지오아파트,,37.5019938418,126.8480532092,구로구
bus,고척근린시장,,37.5011232856,126.8508090334,구로구
bus,용두연립,,37.4990015306,126.8517949619,구로구
bus,우리유엔미아파트,,37.497217,126.882629,구로구
bus,구로2동성당,,37.4998375728,126.8825792166,구로구
bus,고척파크푸르지오아파트,,37.507543,126.859315,구로구
bus,고척시장,,37.503852,126.861938,구로구
bus,고척시장,,37.503137,126.86199,구로구
bus,고척중학교,,37.500468,126.863863,구로구
bus,고척중학교,,37.500962,126.863243,구로구
bus,구로디지털단지역,,37.4834896886,126.9016459933,구로구
bus,삼부르네상스.효성아파트,,37.478747,126.894635,구로구
bus,구일우성아파트,,37.489495,126.8757,구로구
bus,구일우성아파트,,37.49013,126.875812,구로구
bus,개봉역,,37.493978,126.85672,구로구
bus,개봉역,,37.493481,126.857569,구로구
bus,개봉1동사거리.개봉푸르지오아파트,,37.501413,126.846791,구로구
bus,개봉1동사거리,,37.5004695107,126.8469150982,구로구
bus,구로1동우체국,,37.491568,126.874502,구로구
bus,구일우성아파트,,37.4887147629,126.8762607392,구로구
bus,디지털단지입구,,37.486425,126.876458,구로구
bus,구로보건소,,37.50023,126.889167,구로구
bus,궁동삼거리,,37.5064013211,126.8284511846,구로구
bus,구일우성아파트,,37.4897430284,126.8758256916,구로구
bus,개봉역,,37.4934472423,126.8570002311,구로구
bus,웰크론,,37.4827320851,126.893697169,구로구
bus,남구로역2번출구,,37.484932,126.88737,구로구
bus,개봉고가,,37.493655,126.855587,구로구
bus,구로남초등학교,,37.48399,126.89101,구로구
bus,연세중앙교회,,37.4933027885,126.8359813615,구로구
bus,가리봉파출소,,37.479247,126.891739,구로구
bus,동양빌라,,37.4951898369,126.8315970998,구로구
bus,남구로역6번출구,,37.487735,126.888568,구로구
bus,궁동입구,,37.4934389034,126.8340799962,구로구
bus,현대아파트,,37.504635,126.886618,구로구
bus,롯데아파트,,37.502823,126.884727,구로구
bus,구로역·NC신구로점,,37.5021312873,126.8832785142,구로구
bus,롯데아파트,,37.5027211681,126.8847503711,구로구
bus,제중병원,,37.5036149757,126.8866148382,구로구
bus,구로역,,37.5020712449,126.8827750112,구로구
bus,구로중앙하이츠아파트.화원복지관,,37.498288,126.87982,구로구
bus,신동아미래지움아파트,,37.50012,126.880378,구로구
bus,초롱타운아파트,,37.4958292381,126.8800116763,구로구
bus,한양수자인아파트앞,,37.478107,126.824632,구로구
bus,온수동종점,,37.491642,126.821273,구로구
bus,온수동종점,,37.491968,126.82122,구로구
bus,구로구청,,37.4959285478,126.8884812232,구로구
bus,대림역,,37.4935009845,126.8943735141,구로구
bus,구로중학교,,37.4930931479,126.8908083287,구로구
bus,우신고등학교후문,,37.4960440674,126.8249030466,구로구
bus,동양빌라,,37.49532,126.831304,구로구
bus,궁동입구,,37.4934553153,126.8342168006,구로구
bus,동부골든아파트,,37.49873,126.840162,구로구
bus,거성푸르뫼아파트,,37.5003224419,126.8433197716,구로구
bus,거성푸르뫼아파트,,37.500614,126.843553,구로구
bus,오류동삼거리,,37.4953703071,126.8408783505,구로구
bus,오류동삼거리,,37.4957851203,126.840365622,구로구
bus,동부골든.한신플러스타운,,37.49863,126.840383,구로구
bus,구로역.나인스애비뉴,,37.4998227914,126.8834797536,구로구
bus,개봉1동사거리,,37.5012109084,126.8453708568,구로구
bus,개봉1동사거리,,37.5010678452,126.8455328891,구로구
bus,동부골든아파트후문,,37.499917,126.842048,구로구
bus,동부골든아파트후문,,37.4995684704,126.8419150635,구로구
bus,항동하버라인3단지,,37.478746,126.822944,구로구
bus,항동하버라인3단지,,37.4791611089,126.8230450799,구로구
bus,푸른수목원,,37.481497,126.824438,구로구
bus,항동복합행정센터,,37.479629,126.822093,구로구
bus,푸른수목원,,37.4811903562,126.8245517616,구로구
bus,항동복합행정센터,,37.479519,126.822276,구로구
bus,푸른수목원후문.저수지앞,,37.4842895838,126.8224245449,구로구
bus,매화빌라,,37.476655,126.823154,구로구
bus,그린빌라정문,,37.486043,126.823435,구로구
bus,매화빌라,,37.476712,126.82332,구로구
bus,푸른수목원후문.저수지앞,,37.483782,126.822295,구로구
bus,항동중흥S클래스,,37.4810835927,126.8216009197,구로구
bus,항동하버라인2단지,,37.481273,126.821658,구로구
bus,디지털단지오거리,,37.4801153252,126.8887534687,구로구
bus,연지타운2단지,,37.4837306939,126.8408329321,구로구
bus,연지타운2단지,,37.4838,126.84123,구로구
bus,원각사입구,,37.5005565854,126.8295257073,구로구
bus,삼각공원,,37.50185,126.892516,구로구
bus,연지마을,,37.4827630327,126.8422699115,구로구
bus,경남아너스빌아파트,,37.4908457534,126.8394522242,구로구
bus,오류남초등학교후문,,37.489316,126.837192,구로구
bus,그린빌라정문,,37.4858461022,126.8234378684,구로구
bus,천왕역3번출구,,37.4871929928,126.8386190723,구로구
bus,신도림중학교,,37.5107407265629,126.884807054238,구로구
bus,1호선구일역,,37.495307,126.872227,구로구
bus,경북슈퍼마켓,,37.4881783244,126.856838177,구로구
bus,경북슈퍼마켓,,37.48811,126.856917,구로구
bus,천왕역1번출구,,37.485768,126.839171,구로구
bus,천왕이펜하우스6단지후문,,37.4779067636,126.8427844029,구로구
bus,천왕이펜하우스6단지후문,,37.4782066848,126.8426740981,구로구
bus,연지타운2단지,,37.4819347512,126.8448667042,구로구
bus,연지타운2단지,,37.482105537,126.8452304506,구로구
bus,남부교도소,,37.4764324674,126.840700296,구로구
bus,남부교도소,,37.4762796029,126.8409403196,구로구
bus,유한공고.성공회대앞,,37.488482,126.824599,구로구
bus,동삼빌라,,37.4872651448,126.8239106044,구로구
bus,천왕이펜하우스2단지,,37.4856524684,126.8379747224,구로구
bus,구로우체국.이펜하우스3단지후문,,37.481893,126.842149,구로구
bus,금강수목원아파트,,37.489298,126.834398,구로구
bus,항동하버라인10단지,,37.479763,126.825695,구로구
bus,구로중학교,,37.4932861016,126.8901809694,구로구
bus,금강수목원아파트,,37.489458,126.834458,구로구
bus,항동하버라인4단지,,37.481904,126.825394,구로구
bus,별장쉐르빌앞,,37.487297,126.83341,구로구
bus,덕일전자공업고등학교,,37.489847,126.83753,구로구
bus,항동하버라인4단지.푸른수목원,,37.482717,126.825953,구로구
bus,항동하버라인3단지아파트,,37.479718,126.825543,구로구
bus,신도림역,,37.5104826397728,126.889481191271,구로구
bus,도림천역2번출구,,37.5140629233737,126.88208378322,구로구
bus,동삼빌라,,37.4871985611,126.8239763483,구로구
bus,천왕이펜하우스3단지입구,,37.482418,126.838209,구로구
bus,구로보건소,,37.5003597239,126.8889643647,구로구
bus,보성운수기종점,,37.490156,126.892827,구로구
bus,구로구청후문,,37.496042,126.888052,구로구
bus,동아1차아파트102동,,37.5112029731186,126.884470304555,구로구
bus,천왕이펜하우스3단지입구,,37.482726,126.838378,구로구
bus,천왕역2번출구,,37.486362,126.83834,구로구
bus,천왕이펜하우스4단지,,37.481043,126.838628,구로구
bus,천왕이펜하우스6단지,,37.4793763374,126.8406703019,구로구
bus,천왕이펜하우스5단지,,37.479894,126.840309,구로구
bus,천왕이펜하우스3.4단지,,37.481169506,126.8386560567,구로구
bus,온수남부역,,37.4918431942,126.8242097211,구로구
bus,온수남부,,37.4919749011,126.8243078,구로구
bus,궁동사거리,,37.5060968631,126.8279100818,구로구
bus,유한공고.성공회대학교,,37.4895452697,126.8247409544,구로구
mart,(주)이마트 수색점,서울특별시 은평구 수색로 217 (수색동),453037.787995874,190977.850603548,은평구
mart,(주)이마트 에브리데이 불광동점,서울특별시 은평구 불광로 60 (불광동),456673.805557751,193936.125681025,은평구
mart,(주)이마트 은평점,서울특별시 은평구 은평로 111 (응암동),455340.54056388,192882.837727443,은평구
mart,GS THE FRESH 은평가좌점,"서울특별시 은평구 가좌로 331, 1층 (신사동)",454908.495429711,191844.913712646,은평구
mart,갈현시장,서울특별시 은평구 갈현로 300 (갈현동),457921.381332144,192640.605262496,은평구
mart,녹번시장,,455366.047017379,193793.666788377,은평구
mart,대호프라자상가,서울특별시 은평구 불광로 90-0 (불광동),456937.542510222,194002.701726955,은평구
mart,롯데몰 은평,"서울특별시 은평구 통일로 1050 (진관동, 롯데몰은평점)",459461.236119623,192694.92374224,은평구
mart,롯데쇼핑(주) 롯데슈퍼 역촌점,서울특별시 은평구 진흥로 103 (역촌동),455978.010581693,193083.765685506,은평구
mart,롯데쇼핑(주)롯데슈퍼갈현점,서울특별시 은평구 연서로 215 (갈현동),457275.285596868,192809.366974137,은평구
mart,롯데쇼핑(주)롯데슈퍼범서점,서울특별시 은평구 통일로 842 (불광동),457365.911737494,193035.279146132,은평구
mart,롯데쇼핑(주)롯데슈퍼연신내점,서울특별시 은평구 통일로 867 (갈현동),457545.793599332,192859.341264055,은평구
mart,메트로,서울특별시 은평구 통일로 856 (불광동),457479.99522553,192998.202204135,은평구
mart,범서쇼핑,서울특별시 은평구 통일로 842 (불광동),457365.911737494,193035.279146132,은평구
mart,불광미성상가,서울특별시 은평구 통일로 780 (불광동),456957.233580498,193600.888431741,은평구
mart,서부종합시장,서울특별시 은평구 진흥로1길 28 (역촌동),455630.884111772,192773.974598512,은평구
mart,서부종합시장,"서울특별시 은평구 진흥로1길 28(역촌동, 아그네스 풍림아이원)",455630.884111772,192773.974598512,은평구
mart,신세계이마트 은평점,서울특별시 은평구 은평로 111 (응암동),455340.54056388,192882.837727443,은평구
mart,엔씨백화점 불광점,서울특별시 은평구 불광로 20 (대조동),456379.193899276,193661.732383169,은평구
mart,역촌중앙시장,서울특별시 은평구 연서로17길 18-6 (갈현동),456773.714884876,192534.656897366,은평구
mart,연서시장,서울특별시 은평구 통일로 850 (불광동),457459.367971725,193042.519283201,은평구
mart,응암시장,서울특별시 은평구 응암로 252 (응암동),454678.898500315,192738.381117433,은평구
mart,증산시장,서울특별시 은평구 증산로3길 12 (증산동),453244.229758597,191545.050373675,은평구
mart,팜스퀘어,서울특별시 은평구 불광로 20 (대조동),456379.193899276,193661.732383169,은평구
mart,홈플러스 익스프레스 갈현점,서울특별시 은평구 서오릉로 222 (갈현동),456960.687756827,191953.940215578,은평구
mart,홈플러스(주) 익스프레스 역촌점,서울특별시 은평구 서오릉로 95 (역촌동),456218.215950436,192920.728012559,은평구
mart,홈플러스(주)익스프레스 불광점,서울특별시 은평구 불광로 121 (불광동),457260.736492005,194003.88391829,은평구
mart,홈플러스(주)익스프레스 신사점,서울특별시 은평구 갈현로 10 (신사동),455177.704494531,192012.208564616,은평구
mart,홈플러스(주)익스프레스구산점,서울특별시 은평구 서오릉로 145 (구산동),456570.084566278,192563.874496397,은평구
mart,홈플러스(주)익스프레스응암점,서울특별시 은평구 응암로 247 (응암동),454664.166810326,192674.132684249,은평구
mart,(주) 이마트 신도림점,"서울특별시 구로구 새말로 97 (구로동,외 31필지)",444978.682746138,190232.524534335,구로구
mart,(주)신세계이마트구로점,서울특별시 구로구 디지털로32길 43 (구로동),442466.813410528,190901.977946718,구로구
mart,(주)이마트 구로점,서울특별시 구로구 디지털로32길 43 (구로동),442466.813410528,190901.977946718,구로구
mart,(주)이마트에브리데이 개봉동점,서울특별시 구로구 개봉로17길 34 (개봉동),443285.606966752,187009.804317689,구로구
mart,AK PLAZA,서울특별시 구로구 구로중앙로 152 (구로동),444336.051330144,189570.360930049,구로구
mart,개봉제일시장,서울특별시 구로구 개봉로3길 51 (개봉동),442651.907780511,186968.288544829,구로구
mart,개봉프라자,서울특별시 구로구 고척로40길 19 (고척동),444433.221606826,186769.616926353,구로구
mart,고척산업용품상가,"서울특별시 구로구 경인로43길 42 (고척동, 고척산업용품상가)",444186.923109714,187619.596959162,구로구
mart,고척산업용품상가,"서울특별시 구로구 중앙로3길 50 (고척동, 고척산업용품종합상가)",444186.923109714,187619.596959162,구로구
mart,고척스카이프라자,서울특별시 구로구 중앙로 64 (고척동),444629.704821749,187798.86926511,구로구
mart,고척아이파크쇼핑센터,,444045.294921843,187477.579440706,구로구
mart,공구상가일번지관리단,서울특별시 구로구 경인로54길 4 (구로동),444274.729874348,189134.15447044,구로구
mart,나인스에비뉴,서울특별시 구로구 구로중앙로 134 (구로동),444193.860003095,189682.799434964,구로구
mart,동국종합상가,서울특별시 구로구 중앙로3길 49 (고척동),444056.996752313,187718.801171032,구로구
mart,라이프공구상가,서울특별시 구로구 구로중앙로 237 (구로동),444898.367647601,188907.966108621,구로구
mart,롯데마트 구로점,서울특별시 구로구 경인로 482 (구로동),444010.738380277,188669.484398215,구로구
mart,롯데쇼핑(주) TRU구로점,"서울특별시 구로구 경인로 482 (구로동,롯데마트 지하1층)",444010.738380277,188669.484398215,구로구
mart,롯데쇼핑(주) 롯데마트 구로점,서울특별시 구로구 경인로 482 (구로동),444010.738380277,188669.484398215,구로구
mart,비엔큐홈(구로점),서울특별시 구로구 경인로 482 (구로동),444010.738380277,188669.484398215,구로구
mart,사모아종합상가,서울특별시 구로구 구일로10길 93 (구로동),443748.279289935,189052.101789082,구로구
mart,삼익쇼핑센타,서울특별시 구로구 경인로 192 (오류동),443657.614265375,186015.738369848,구로구
mart,삼익쇼핑센터,,443657.614265375,186015.738369848,구로구
mart,서울구로기계공구상가,서울특별시 구로구 구로중앙로 198 (구로동),444671.551731639,189277.761702183,구로구
mart,신도림 테크노마트,"서울특별시 구로구 새말로 97 (구로동,외 31필지)",444978.682746138,190232.524534335,구로구
mart,애경백화점,서울특별시 구로구 구로중앙로 152 (구로동),444336.051330144,189570.360930049,구로구
mart,이랜드리테일 NC구로점,서울특별시 구로구 구로중앙로 152 (구로동),444336.051330144,189570.360930049,구로구
mart,이천일 아울렛 구로점,서울특별시 구로구 중앙로1길 36 (고척동),443997.135869884,187785.840457798,구로구
mart,이천일아울렛구로점,서울특별시 구로구 중앙로1길 36 (고척동),443997.135869884,187785.840457798,구로구
mart,일이삼전자타운,서울특별시 구로구 경인로 393-7 (고척동),443925.52468616,187826.698183821,구로구
mart,일이삼전자타운,"서울특별시 구로구 경인로 393-7 (고척동, 123전자타운)",443925.52468616,187826.698183821,구로구
mart,일이삼전자타운,서울특별시 구로구 중앙로1길 42 (고척동),443962.832747371,187756.919450472,구로구
mart,주식회사 현대백화점 디큐브시티,서울특별시 구로구 경인로 662 (신도림동),445157.626366229,190107.045415333,구로구
mart,중앙유통단지,서울특별시 구로구 경인로53길 15 (구로동),444306.771104527,188840.515865617,구로구
mart,홈플러스 익스프레스 개봉점,"서울특별시 구로구 경인로 319 (개봉동,외 1필지 대림프라자 101호)",443952.561879682,187158.443830013,구로구
mart,홈플러스 익스프레스 서울오류점,"서울특별시 구로구 서해안로 2293 (오류동,외 2필지)",443268.099008657,185756.174922711,구로구
mart,홈플러스(주) 신도림점,"서울특별시 구로구 경인로 661, 신도림1차푸르지오 (신도림동)",445250.538868558,190005.132500398,구로구
mart,(주)이마트 수색점,서울특별시 은평구 수색로 217 (수색동),37.5768441544134,126.897864109179,은평구
mart,(주)이마트 에브리데이 불광동점,서울특별시 은평구 불광로 60 (불광동),37.6096285777189,126.931323348766,은평구
mart,(주)이마트 은평점,서울특별시 은평구 은평로 111 (응암동),37.5976084568585,126.919407264288,은평구
mart,GS THE FRESH 은평가좌점,"서울특별시 은평구 가좌로 331, 1층 (신사동)",37.5937071613927,126.907658929347,은평구
mart,갈현시장,서울특별시 은평구 갈현로 300 (갈현동),37.6208596294602,126.916638346043,은평구
mart,녹번시장,,37.5978448596467,126.929721011577,은평구
mart,대호프라자상가,서울특별시 은평구 불광로 90-0 (불광동),37.6120052538064,126.932075196847,은평구
mart,롯데몰 은평,"서울특별시 은평구 통일로 1050 (진관동, 롯데몰은평점)",37.6347339328868,126.917238241913,은평구
mart,롯데쇼핑(주) 롯데슈퍼 역촌점,서울특별시 은평구 진흥로 103 (역촌동),37.6033535290856,126.921676492941,은평구
mart,롯데쇼핑(주)롯데슈퍼갈현점,서울특별시 은평구 연서로 215 (갈현동),37.6150397247482,126.918556299083,은평구
mart,롯데쇼핑(주)롯데슈퍼범서점,서울특별시 은평구 통일로 842 (불광동),37.6158579932387,126.921114196904,은평구
mart,롯데쇼핑(주)롯데슈퍼연신내점,서울특별시 은평구 통일로 867 (갈현동),37.6174773571601,126.919119685504,은평구
mart,메트로,서울특별시 은평구 통일로 856 (불광동),37.6168855896792,126.920693154169,은평구
mart,범서쇼핑,서울특별시 은평구 통일로 842 (불광동),37.6158579932387,126.921114196904,은평구
mart,불광미성상가,서울특별시 은평구 통일로 780 (불광동),37.612179960895,126.92752413053,은평구
mart,서부종합시장,서울특별시 은평구 진흥로1길 28 (역촌동),37.6002235752122,126.918171665234,은평구
mart,서부종합시장,"서울특별시 은평구 진흥로1길 28(역촌동, 아그네스 풍림아이원)",37.6002235752122,126.918171665234,은평구
mart,신세계이마트 은평점,서울특별시 은평구 은평로 111 (응암동),37.5976084568585,126.919407264288,은평구
mart,엔씨백화점 불광점,서울특별시 은평구 불광로 20 (대조동),37.6069723101583,126.928218249705,은평구
mart,역촌중앙시장,서울특별시 은평구 연서로17길 18-6 (갈현동),37.6105184449773,126.915449953301,은평구
mart,연서시장,서울특별시 은평구 통일로 850 (불광동),37.6167000770007,126.921195313493,은평구
mart,응암시장,서울특별시 은평구 응암로 252 (응암동),37.591645994962,126.91777803926,은평구
mart,증산시장,서울특별시 은평구 증산로3길 12 (증산동),37.5787095609951,126.904282745529,은평구
mart,팜스퀘어,서울특별시 은평구 불광로 20 (대조동),37.6069723101583,126.928218249705,은평구
mart,홈플러스 익스프레스 갈현점,서울특별시 은평구 서오릉로 222 (갈현동),37.6121981526779,126.908870896963,은평구
mart,홈플러스(주) 익스프레스 역촌점,서울특별시 은평구 서오릉로 95 (역촌동),37.6055165139263,126.91982783739,은평구
mart,홈플러스(주)익스프레스 불광점,서울특별시 은평구 불광로 121 (불광동),37.614917200935,126.932085938094,은평구
mart,홈플러스(주)익스프레스 신사점,서울특별시 은평구 갈현로 10 (신사동),37.5961341762311,126.90955029209,은평구
mart,홈플러스(주)익스프레스구산점,서울특별시 은평구 서오릉로 145 (구산동),37.6086839960778,126.915782930759,은평구
mart,홈플러스(주)익스프레스응암점,서울특별시 은평구 응암로 247 (응암동),37.5915127547374,126.917050714204,은평구
mart,(주) 이마트 신도림점,"서울특별시 구로구 새말로 97 (구로동,외 31필지)",37.50422415581,126.8895337845,구로구
mart,(주)신세계이마트구로점,서울특별시 구로구 디지털로32길 43 (구로동),37.4815989061234,126.897136064366,구로구
mart,(주)이마트 구로점,서울특별시 구로구 디지털로32길 43 (구로동),37.4815989061234,126.897136064366,구로구
mart,(주)이마트에브리데이 개봉동점,서울특별시 구로구 개봉로17길 34 (개봉동),37.4889297742809,126.853116092769,구로구
mart,AK PLAZA,서울특별시 구로구 구로중앙로 152 (구로동),37.4984267805438,126.882054102895,구로구
mart,개봉제일시장,서울특별시 구로구 개봉로3길 51 (개봉동),37.4832195266789,126.852657877173,구로구
mart,개봉프라자,서울특별시 구로구 고척로40길 19 (고척동),37.4992664197813,126.850379606907,구로구
mart,고척산업용품상가,"서울특별시 구로구 경인로43길 42 (고척동, 고척산업용품상가)",37.497059044427,126.859996017962,구로구
mart,고척산업용품상가,"서울특별시 구로구 중앙로3길 50 (고척동, 고척산업용품종합상가)",37.497059044427,126.859996017962,구로구
mart,고척스카이프라자,서울특별시 구로구 중앙로 64 (고척동),37.5010509089943,126.8620159755,구로구
mart,고척아이파크쇼핑센터,,37.495781054703,126.858392424611,구로구
mart,공구상가일번지관리단,서울특별시 구로구 경인로54길 4 (구로동),37.4978692435202,126.877122080467,구로구
mart,나인스에비뉴,서울특별시 구로구 구로중앙로 134 (구로동),37.4971468928209,126.883327629581,구로구
mart,동국종합상가,서울특별시 구로구 중앙로3길 49 (고척동),37.4958897269247,126.861120035182,구로구
mart,라이프공구상가,서울특별시 구로구 구로중앙로 237 (구로동),37.5034855556487,126.874554803599,구로구
mart,롯데마트 구로점,서울특별시 구로구 경인로 482 (구로동),37.4954850859919,126.871871370213,구로구
mart,롯데쇼핑(주) TRU구로점,"서울특별시 구로구 경인로 482 (구로동,롯데마트 지하1층)",37.4954850859919,126.871871370213,구로구
mart,롯데쇼핑(주) 롯데마트 구로점,서울특별시 구로구 경인로 482 (구로동),37.4954850859919,126.871871370213,구로구
mart,비엔큐홈(구로점),서울특별시 구로구 경인로 482 (구로동),37.4954850859919,126.871871370213,구로구
mart,사모아종합상가,서울특별시 구로구 구일로10길 93 (구로동),37.493124930182,126.876202008319,구로구
mart,삼익쇼핑센타,서울특별시 구로구 경인로 192 (오류동),37.4922670663158,126.841868873048,구로구
mart,삼익쇼핑센터,,37.4922670663158,126.841868873048,구로구
mart,서울구로기계공구상가,서울특별시 구로구 구로중앙로 198 (구로동),37.50144630298,126.878740297854,구로구
mart,신도림 테크노마트,"서울특별시 구로구 새말로 97 (구로동,외 31필지)",37.50422415581,126.8895337845,구로구
mart,애경백화점,서울특별시 구로구 구로중앙로 152 (구로동),37.4984267805438,126.882054102895,구로구
mart,이랜드리테일 NC구로점,서울특별시 구로구 구로중앙로 152 (구로동),37.4984267805438,126.882054102895,구로구
mart,이천일 아울렛 구로점,서울특별시 구로구 중앙로1길 36 (고척동),37.4953512666561,126.861879129473,구로구
mart,이천일아울렛구로점,서울특별시 구로구 중앙로1길 36 (고척동),37.4953512666561,126.861879129473,구로구
mart,일이삼전자타운,서울특별시 구로구 경인로 393-7 (고척동),37.4947065861049,126.862342342241,구로구
mart,일이삼전자타운,"서울특별시 구로구 경인로 393-7 (고척동, 123전자타운)",37.4947065861049,126.862342342241,구로구
mart,일이삼전자타운,서울특별시 구로구 중앙로1길 42 (고척동),37.4950418112552,126.861552654672,구로구
mart,주식회사 현대백화점 디큐브시티,서울특별시 구로구 경인로 662 (신도림동),37.5058351087348,126.888112262504,구로구
mart,중앙유통단지,서울특별시 구로구 경인로53길 15 (구로동),37.4981544357269,126.873800949075,구로구
mart,홈플러스 익스프레스 개봉점,"서울특별시 구로구 경인로 319 (개봉동,외 1필지 대림프라자 101호)",37.4949411453658,126.85478516434,구로구
mart,홈플러스 익스프레스 서울오류점,"서울특별시 구로구 서해안로 2293 (오류동,외 2필지)",37.4887535531926,126.838941329581,구로구
mart,홈플러스(주) 신도림점,"서울특별시 구로구 경인로 661, 신도림1차푸르지오 (신도림동)",37.5066711561831,126.886958383467,구로구
mart,녹번시장,서울시 은평구 은평로 204-4,37.5978448596467,126.929721011577,은평구
mart,대림시장,서울특별시 은평구 응암로4길 22,37.5867972937404,126.917742147878,은평구
mart,대조시장,서울 은평구 불광로 13,37.6098657792506,126.927737502693,은평구
mart,"불광시장(법인, 대표자, 관리자변경)",서울 은평구 불광로 12,37.6094967340628,126.927884751724,은평구
mart,수일시장,서울 은평구 수색로 262,37.5824978346226,126.895313021041,은평구
mart,개봉중앙시장,서울 구로구 개봉로17길 34,37.4917839337419,126.854071610666,구로구
mart,고척시장,서울 구로구 중앙로10길 7,37.5034895022417,126.862614065124,구로구
mart,고척아이파크쇼핑센터,서울 구로구 경인로43길 49,37.495781054703,126.858392424611,구로구
mart,구로시장,서울 구로구 구로동로22길 17-4,37.4896300535003,126.885619803142,구로구
mart,오류시장,서울 구로구 경인로19가길 14-1,37.496686944218,126.843788454934,구로구
mart,이마트구로점,서울 구로구 디지털로32길 43,37.4843992290119,126.897885833718,구로구
hospital,(의)열린의료재단연신내열린의원,"서울특별시 은평구 통일로 861, 범일빌딩 6층 (갈현동)",37.61980506305,126.920232187544,은평구
hospital,(의)열린의료재단은평열린의원,"서울특별시 은평구 서오릉로 145, 상원빌딩 2층 201호 (구산동)",37.611286414672,126.916477274153,은평구
hospital,21C메트로한방병원,"서울특별시 은평구 갈현로 24, 2층 201,202호 (신사동)",37.6000387980095,126.91042750122,은평구
hospital,365봄한의원,"서울특별시 은평구 통일로 626, 유림빌딩 2층 (녹번동)",37.602472019451,126.935407233318,은평구
hospital,365역촌으뜸본재활의학과의원,"서울특별시 은평구 서오릉로 64, 101,201,202호 (녹번동, 한경S타워)",37.6062367456819,126.923267742338,은평구
hospital,365이화웃는세상의원,"서울특별시 은평구 진관3로 11, 208호, 301호 (진관동, 은평뉴타운 힐데스하임)",37.6394630545503,126.918268068589,은평구
hospital,365이화웃는세상의원,"서울특별시 은평구 진관3로 11, 3층 301호 (진관동, 은평뉴타운 힐데스하임)",37.6394630545503,126.918268068589,은평구
hospital,365청추나한의원,"서울특별시 은평구 은평로 170, 상현빌딩 2층 205호 (응암동)",37.6010893852841,126.926662375326,은평구
hospital,99마취통증의학과의원,"서울특별시 은평구 연서로 265, 4층 (불광동)",37.6205082038546,126.924071579646,은평구
hospital,DMC수색신경외과의원,"서울특별시 은평구 수색로 191, 두빌191 2층 (증산동)",37.5782509235095,126.901072414948,은평구
hospital,OK부부치과의원,"서울특별시 은평구 통일로 901, 3층 (갈현동)",37.6234739751002,126.919571037774,은평구
hospital,가나다한의원,"서울특별시 은평구 연서로 265, 3층 (불광동)",37.6205098256364,126.924071577996,은평구
hospital,가로세로한의원,"서울특별시 은평구 갈현로 300, 2층 203호 (갈현동, (유)갈현상가)",37.6236089884632,126.917419430143,은평구
hospital,가인치과의원,"서울특별시 은평구 진흥로 150, 3층 (녹번동)",37.608644443479,126.926642499915,은평구
hospital,가지런한치과교정과치과의원,"서울특별시 은평구 은평로 121, 11층 (응암동)",37.6004493355977,126.921096166394,은평구
hospital,가톨릭대학교은평성모병원,서울특별시 은평구 통일로 1021 (진관동),37.6336084097269,126.916150487397,은평구
hospital,가톨릭정형외과의원,"서울특별시 은평구 응암로 308, 1층, 2층 (응암동, CM빌딩)",37.5986991732052,126.921384169108,은평구
hospital,감동플러스치과의원,"서울특별시 은평구 은평로 213, 2층 (녹번동)",37.6014356230654,126.931437038262,은평구
hospital,강변내과의원,"서울특별시 은평구 가좌로 271, 3,4층 (신사동)",37.5928477862044,126.913416898807,은평구
hospital,강변정형외과의원,"서울특별시 은평구 가좌로 271 (신사동, 2,5,6,7층)",37.5928477862044,126.913416898807,은평구
hospital,강북삼성내과의원,"서울특별시 은평구 은평로 200-1, 가동 201호 (응암동, 삼영빌딩)",37.6011336684453,126.929999928224,은평구
hospital,강북제일의원,"서울특별시 은평구 역말로 101, 토마스빌딩 2,3층 (역촌동)",37.6084440907806,126.920160287993,은평구
hospital,강석경소아과의원,서울특별시 은평구 불광로 54 (불광동),37.6118185632412,126.931481078648,은평구
hospital,강인한소아청소년과의원,"서울특별시 은평구 수색로 322, 상가2층 205, 206호 (수색동)",37.5852392546732,126.893266156093,은평구
hospital,강창원내과의원,서울특별시 은평구 통일로 721 (대조동),37.6100077607291,126.929955143523,은평구
hospital,강플란트치과의원,서울특별시 은평구 서오릉로 202 (갈현동),37.6140991395137,126.91143622773,은평구
hospital,거북이한의원,"서울특별시 은평구 연서로3길 48, 1층 (역촌동)",37.6033321175724,126.910691492288,은평구
hospital,건강그린내과의원,서울특별시 은평구 연서로 216 (대조동),37.6178000192821,126.920120155706,은평구
hospital,건강드림의원,"서울특별시 은평구 진관4로 77, 702동 114호,113호 (진관동, 상림마을)",37.646668707628,126.928443600221,은평구
hospital,경락한의원,서울특별시 은평구 통일로 912 (불광동),37.6243608115625,126.920229832558,은평구
hospital,경서외과의원,"서울특별시 은평구 은평로 11, (신사동)",37.5972329500771,126.909505495472,은평구
hospital,경희365한의원,"서울특별시 은평구 통일로 735-1, 2층 (대조동)",37.6111098550889,126.929057789017,은평구
hospital,경희다솜한의원,"서울특별시 은평구 통일로 854, 1층 (불광동)",37.6194273139588,126.921223139386,은평구
hospital,경희소금빛한의원,"서울특별시 은평구 진관2로 19, 406호 (진관동)",37.6348535294175,126.919584718281,은평구
hospital,경희솔한의원,"서울특별시 은평구 은평로 55, 2층 가호 (신사동)",37.5988873622692,126.913980738875,은평구
hospital,경희수한의원,서울특별시 은평구 진흥로 158 (녹번동),37.6088024120643,126.927119371165,은평구
hospital,경희아소한의원,"서울특별시 은평구 통일로87길 14, 2층 (갈현동)",37.6235509524309,126.918177540654,은평구
hospital,경희아이한의원,"서울특별시 은평구 진관2로 15-46, 505호 (진관동, 메트로프라자)",37.6386515578411,126.919081540985,은평구
hospital,경희약손한의원,"서울특별시 은평구 연서로 1, 2층 205호 (역촌동, 리더스파크)",37.5992561452512,126.915361951282,은평구
hospital,경희이루리한의원,"서울특별시 은평구 은평터널로 15, DMC파인시티자이 상가동 1층 203호 (수색동)",37.5846837509466,126.894019845962,은평구
hospital,경희자인한의원,"서울특별시 은평구 연서로 222 (대조동, 유니온빌딩3층)",37.6181350027991,126.920381220522,은평구
hospital,경희장수한의원,서울특별시 은평구 응암로 190 (응암동),37.5888095160902,126.917149357989,은평구
hospital,경희정한의원,"서울특별시 은평구 응암로 215, 305호 (응암동, 명남더블레스아파트2차)",37.5912237488191,126.917055760123,은평구
hospital,경희진한의원,서울특별시 은평구 갈현로 299 (갈현동),37.6234817977729,126.916818866145,은평구
hospital,경희청담한의원,"서울특별시 은평구 통일로 796 (불광동, 북한산힐스테이트7차)",37.616343199117,126.925757582129,은평구
hospital,경희청한의원,"서울특별시 은평구 은평로 93, 3층 (응암동)",37.5997853553252,126.91812679692,은평구
hospital,경희태초한의원,서울특별시 은평구 불광로 52 (불광동),37.6117919634882,126.931290715233,은평구
hospital,경희튼튼한의원,"서울특별시 은평구 은평로 200-1, 가동 3층 (응암동, 삼영빌딩)",37.601138002042,126.929711608725,은평구
hospital,경희한의원,"서울특별시 은평구 불광로 128, 배진하우스 1층 (불광동)",37.6176460421609,126.932877497548,은평구
hospital,경희허준한의원,"서울특별시 은평구 불광로 17, 2층 (대조동, 대흥빌딩)",37.6100567151863,126.928059191604,은평구
hospital,경희효인한의원,"서울특별시 은평구 연서로 274, 2층 (불광동)",37.6205752618862,126.925096849461,은평구
hospital,고경당한의원,"서울특별시 은평구 서오릉로 217, 2층 (구산동)",37.6144745945993,126.909553016243,은평구
hospital,고려마취통증의학과의원,"서울특별시 은평구 은평로 123, 203호 (응암동, 응암아네스트)",37.6005519701322,126.921519128693,은평구
hospital,고른e치과교정과치과의원,서울특별시 은평구 통일로 742 (불광동),37.6118291183667,126.929364603214,은평구
hospital,고운치과의원,"서울특별시 은평구 통일로87길 6, 2층 (갈현동)",37.6235032758682,126.919202744549,은평구
hospital,골드플러스치과의원,서울특별시 은평구 은평로 68 (신사동),37.5987638005334,126.915301473226,은평구
hospital,광재의원,"서울특별시 은평구 응암로 226-1, 1,2층 (응암동)",37.5921676953112,126.91792555607,은평구
hospital,구민내과의원,"서울특별시 은평구 서오릉로 204, 2층 (갈현동)",37.6141988951157,126.911337797744,은평구
hospital,구산메트로정형외과의원,"서울특별시 은평구 서오릉로 145, 상원빌딩 2층 의원1,의원2호 (구산동)",37.611286414672,126.916477274153,은평구
hospital,구산보건지소,서울특별시 은평구 연서로13길 29-7 (구산동),37.609737015371,126.912784158139,은평구
hospital,구산탑정형외과의원,"서울특별시 은평구 서오릉로 139, 5층 7층 (역촌동)",37.6108381553336,126.917477157083,은평구
hospital,구산한의원,"서울특별시 은평구 연서로 159, 2층 (갈현동)",37.6130540496366,126.917223496574,은평구
hospital,구세산부인과의원,서울특별시 은평구 통일로 683-1 (녹번동),37.6072494106481,126.932477922056,은평구
hospital,구자성정형외과의원,서울특별시 은평구 응암로 179 (응암동),37.588055746965,126.916384242043,은평구
hospital,구파발경희한의원,"서울특별시 은평구 진관4로 47, 708동 115호 (진관동,은평뉴타운상림마을)",37.6458511153,126.9272003501,은평구
hospital,구파발연세내과의원,"서울특별시 은평구 진관2로 29-21, 4층 401호,402호 (진관동, 드림스퀘어)",37.635741734904,126.919341649662,은평구
hospital,구파발이한의원,"서울특별시 은평구 진관2로 29-21, 309호 (진관동, 드림스퀘어)",37.6356352390345,126.919179579913,은평구
hospital,구파발정형외과의원,"서울특별시 은평구 진관2로 15-46, 9층 (진관동, 메트로프라자)",37.6386515578411,126.919081540985,은평구
hospital,굿모닝치과의원,"서울특별시 은평구 통일로 861, 5층 (갈현동, 범일빌딩)",37.61980506305,126.920232187544,은평구
hospital,굿모닝한의원,"서울특별시 은평구 통일로 741, 신흥빌딩 4층 404호 (대조동)",37.6114162444539,126.928552274386,은평구
hospital,권소아청소년과의원,"서울특별시 은평구 응암로 308, 301호 (응암동)",37.5986991732052,126.921384169108,은평구
hospital,그린미소마취통증의학과의원,"서울특별시 은평구 통일로 825, 2층 (대조동)",37.6170577040441,126.922703769186,은평구
hospital,그린치과의원,"서울특별시 은평구 갈현로 81, 3층 (역촌동)",37.6053085057319,126.910304423213,은평구
hospital,금강한의원,"서울특별시 은평구 서오릉로 196, 2층 (갈현동, 구산빌딩)",37.6138557843,126.9120408812,은평구
hospital,금두꺼비한의원,"서울특별시 은평구 통일로 721, 3층 (대조동)",37.6100115358,126.9299398504,은평구
hospital,기독한의원,"서울특별시 은평구 갈현로1길 3-1, 2층 (신사동)",37.5991168943951,126.909704893195,은평구
hospital,기분좋은연세365의원,"서울특별시 은평구 응암로 223, 2층 3층 (응암동)",37.5919761415152,126.917404688317,은평구
hospital,기쁨이샘솟는치과의원,"서울특별시 은평구 진관3로 70, 821동 2층 201, 202호 (진관동, 은평뉴타운상림마을)",37.6422598317106,126.923141080933,은평구
hospital,김가정의학과의원,"서울특별시 은평구 은평로 5, 1층 (신사동)",37.5967659204537,126.909210968391,은평구
hospital,김근만치과의원,"서울특별시 은평구 연서로 146, 601호 (대조동, 수메디컬빌딩)",37.6118256229728,126.917712097114,은평구
hospital,김기창안과의원,"서울특별시 은평구 통일로 731 , 2층  (대조동)",37.6106226649216,126.929466316371,은평구
hospital,김두천비뇨기과의원,서울특별시 은평구 수색로 264-1 (수색동),37.5826687054056,126.895056464137,은평구
hospital,김미경소아과의원,"서울특별시 은평구 진흥로 150, 2층 (녹번동)",37.6086436330171,126.926643180234,은평구
hospital,김선태치과의원,"서울특별시 은평구 응암로 215, 202호 (응암동, 명남더블레스아파트2차)",37.5912237488191,126.917055760123,은평구
hospital,김성우내과의원,"서울특별시 은평구 통일로82길 11, 2층 (불광동)",37.6208256224926,126.920381749396,은평구
hospital,김성훈가정의학과의원,서울특별시 은평구 갈현로41길 10-1 (갈현동),37.6246305120298,126.916247117462,은평구
hospital,김세영치과의원,"서울특별시 은평구 수색로14길 5-3, 3층 (수색동)",37.5818992898928,126.896625096056,은평구
hospital,김앤리내과정형외과의원,서울특별시 은평구 응암로 213 (응암동),37.591007649297,126.917124728829,은평구
hospital,김앤박마취통증의학과의원,"서울특별시 은평구 갈현로 8, 2층 (신사동)",37.5985454785523,126.910404378951,은평구
hospital,김앤유이비인후과가정의학과연합의원,서울특별시 은평구 진관4로 17   (진관동),37.6436459287601,126.922900461734,은평구
hospital,김영환내과의원,"서울특별시 은평구 은평로 219, 2층 (녹번동)",37.6014150884913,126.932074161855,은평구
hospital,김옥진치과의원,서울특별시 은평구 역말로 103 (역촌동),37.6085526275535,126.920245565301,은평구
hospital,김우요내과의원,"서울특별시 은평구 응암로 187, 2층 (응암동)",37.5887912735113,126.916704861588,은평구
hospital,김원중내과의원,서울특별시 은평구 응암로 248 (응암동),37.593986165368,126.918313189116,은평구
hospital,김윤수한의원,"서울특별시 은평구 응암로12길 8, 2층 (응암동)",37.5879145314909,126.917579139077,은평구
hospital,김일진의연세치과의원,"서울특별시 은평구 은평로 240, B107,B108호 (응암동)",37.6004214734002,126.934948113512,은평구
hospital,김장식치과의원,"서울특별시 은평구 불광로 42, 2층 (불광동)",37.6111900875374,126.930495180207,은평구
hospital,김재만내과의원,"서울특별시 은평구 응암로 179, 2층 (응암동)",37.588055746965,126.916384242043,은평구
hospital,김정균치과의원,서울특별시 은평구 은평로 152 (응암동),37.6007622093084,126.924477579992,은평구
hospital,김정일안과의원,"서울특별시 은평구 서오릉로 138, 3층 (대조동)",37.611182200293,126.917806604219,은평구
hospital,김종민치과의원,"서울특별시 은평구 통일로 821, 3층 (대조동)",37.6167964385372,126.922873599223,은평구
hospital,김지천안과의원,서울특별시 은평구 가좌로 227 (응암동),37.5901201999633,126.916907979634,은평구
hospital,김진치과의원,서울특별시 은평구 통일로 732 (불광동),37.6108951961194,126.929889754571,은평구
hospital,김치과의원,서울특별시 은평구 통일로 833 (대조동),37.6176901569588,126.921957587078,은평구
hospital,김학수정형외과의원,"서울특별시 은평구 갈현로 30, 2,3층 (신사동)",37.6005678061666,126.910475787391,은평구
hospital,김한의원,"서울특별시 은평구 갈현로 81, 1층 (역촌동, 그린빌딩)",37.6053094987188,126.910306913494,은평구
hospital,꿈나무가정의원,서울특별시 은평구 갈현로 14 (신사동),37.5991093569636,126.910455000251,은평구
hospital,나눔한의원,"서울특별시 은평구 연서로 276, 2층 (불광동)",37.62064752591,126.925249488537,은평구
hospital,나비드치과의원,서울특별시 은평구 응암로 178-1 (응암동),37.5878629874693,126.916969704203,은평구
hospital,나은성모내과의원,"서울특별시 은평구 서오릉로 166, 유풍빌딩 2층 (갈현동)",37.6128048616854,126.915228694484,은평구
hospital,나이비인후과의원,서울특별시 은평구 통일로 738 (불광동),37.611415859944,126.929406673052,은평구
hospital,나인마취통증의학과의원,"서울특별시 은평구 서오릉로 162, 3, 4층 (갈현동)",37.6126730476242,126.91535501574,은평구
hospital,나인피부과의원,"서울특별시 은평구 통일로 855-8, 연신내진원와이타운 9,10층 901,902,1002호 (갈현동)",37.619122183963,126.920201767929,은평구
hospital,네이처비뇨의학과의원은평점,"서울특별시 은평구 통일로 855-8, 연신내진원와이타운 5층 (갈현동)",37.619122183963,126.920201767929,은평구
hospital,노내과의원,서울특별시 은평구 통일로 839 (대조동),37.6181170148908,126.921640216343,은평구
hospital,노블요양병원,"서울특별시 은평구 응암로 304, 지1, 1~7층 (응암동)",37.5984661379561,126.921190550058,은평구
hospital,녹번삼성키즈소아청소년과의원,"서울특별시 은평구 통일로 630-1, B1층 101-2,101-3호 (녹번동)",37.6031576200927,126.937484017426,은평구
hospital,녹번상쾌한이비인후과의원,"서울특별시 은평구 통일로 610, 상가동 3층 307~309호 (녹번동, 힐스테이트 녹번)",37.6019824456298,126.935947829509,은평구
hospital,녹번연세정형외과의원,"서울특별시 은평구 통일로 636, 은평 미드스퀘어 302~307호 (녹번동)",37.603517115574,126.935311316206,은평구
hospital,녹번한의원,"서울특별시 은평구 은평로 240, 녹번역 힐스에비뉴 2층 214호 (응암동)",37.6006584334877,126.934784046325,은평구
hospital,녹십자의원,"서울특별시 은평구 통일로 719, 2층 (대조동)",37.6099177154738,126.930045606118,은평구
hospital,뉴타운경희한의원,"서울특별시 은평구 진관4로 17, 820동 112호 (진관동, 은평뉴타운상림마을)",37.6433424519119,126.92218047106,은평구
hospital,늘편한내과의원,"서울특별시 은평구 갈현로 8, 3층 (신사동)",37.5985454785523,126.910404378951,은평구
hospital,늘푸른의원,"서울특별시 은평구 증산로 371, 은평신용협동조합 3층,4층 (신사동)",37.5895376912069,126.912885066283,은평구
hospital,다봄한의원,"서울특별시 은평구 수색로 268, 1층 (수색동)",37.5829394985118,126.894701947769,은평구
hospital,다솜마취통증의학과의원,서울특별시 은평구 서오릉로 139 (역촌동),37.6108395962867,126.917476249433,은평구
hospital,다온삼성정형외과의원,"서울특별시 은평구 서오릉로 134, 메디칼 3,7층 (대조동)",37.6110125848779,126.918121172871,은평구
hospital,다온여성의원,"서울특별시 은평구 통일로 730, 보광빌딩 5층 502호 (불광동)",37.6108153089,126.9300931262,은평구
hospital,다이아몬드치과의원,"서울특별시 은평구 진흥로 21, 5층 (역촌동)",37.6003239351022,126.917820908268,은평구
hospital,다인치과의원,"서울특별시 은평구 증산로 399, 4층 (신사동)",37.5919366895832,126.91352099232,은평구
hospital,닥터굿플란트치과의원,"서울특별시 은평구 연서로 137, 영진빌딩 3층 일부호 (구산동)",37.6111618859153,126.916842896021,은평구
hospital,닥터나인의원,"서울특별시 은평구 은평로 123, 2층 202호 (응암동, 응암아네스트)",37.6005519701322,126.921519128693,은평구
hospital,닥터박고은치과의원,"서울특별시 은평구 갈현로 85, 2층 (역촌동)",37.6055855770269,126.910326740369,은평구
hospital,닥터스피부과의원은평점,"서울특별시 은평구 통일로 750, 4층 (불광동)",37.6123341513595,126.928663502355,은평구
hospital,닥터정이비인후과의원,"서울특별시 은평구 진관2로 57-7, 253-B104호 (진관동, 은평뉴타운두산위브아파트)",37.6343737542102,126.92323609983,은평구
hospital,단전한의원,서울특별시 은평구 통일로85길 3 (갈현동),37.6220743233975,126.919221848601,은평구
hospital,달리마정형외과의원,"서울특별시 은평구 진관2로 12, 207~210호 (진관동)",37.6342576294538,126.918550997661,은평구
hospital,대림연한의원,"서울특별시 은평구 응암로 173, 2층 (응암동)",37.5875113874773,126.916285555414,은평구
hospital,대림한의원,"서울특별시 은평구 가좌로7다길 3-1, 1층 (응암동)",37.5855475027789,126.918356490179,은평구
hospital,대조신한의원,서울특별시 은평구 연서로22길 9-11 (대조동),37.6154656346832,126.9194359319,은평구
hospital,대조한의원,"서울특별시 은평구 서오릉로 159, 2층 (구산동)",37.6121335284881,126.915345094135,은평구
hospital,대학한의원,"서울특별시 은평구 통일로83길 6-10, 3층 (갈현동, 우진빌딩)",37.6215422438069,126.919285404351,은평구
hospital,더바른내과의원,"서울특별시 은평구 통일로 715, 4층 일부호 (대조동)",37.609413947696,126.930308376671,은평구
hospital,더바른마취통증의학과의원,"서울특별시 은평구 응암로4길 25-1, 7,8층 (응암동, 거성빌딩)",37.5871233065669,126.917017965544,은평구
hospital,더블유와이드치과의원,"서울특별시 은평구 연서로 134, 3층 (역촌동, 신성빌딩)",37.6106671991232,126.917421963329,은평구
hospital,더스마일치과의원,"서울특별시 은평구 통일로 626, 유림빌딩 7층 (녹번동)",37.602472019451,126.935407233318,은평구
hospital,더조은마디의원,"서울특별시 은평구 은평로 116, 위산 일리온시티 2층3층 202호,301호,302호 (응암동)",37.599874221866,126.920675858475,은평구
hospital,더편한이비인후과의원,"서울특별시 은평구 진관3로 20 (진관동, SW/메디컬)",37.6389140677896,126.918896464275,은평구
hospital,더힐즈의원,"서울특별시 은평구 진관2로 19, 5층 504,505호 (진관동, 휴먼프라자)",37.6348535294175,126.919584718281,은평구
hospital,덴탈시그널치과의원,"서울특별시 은평구 은평로 220, 상가A동 123호 (응암동, 녹번역e편한세상캐슬아파트)",37.6005343844723,126.932098856535,은평구
hospital,동서의원,서울특별시 은평구 통일로 735-1 (대조동),37.6111026490195,126.929060853818,은평구
hospital,동양당한의원,"서울특별시 은평구 응암로 180, 2층 (응암동)",37.5880606193782,126.917032662931,은평구
hospital,동의보감한의원,서울특별시 은평구 은평로 23 (신사동),37.5981663242607,126.910381506565,은평구
hospital,동춘당한의원,"서울특별시 은평구 가좌로 213, (응암동)",37.5890928211276,126.918100467358,은평구
hospital,두리이비인후과의원,"서울특별시 은평구 은평로 240, 녹번역힐스테이트에비뉴 상가동 B1층 B114~117호 (응암동)",37.6007144784518,126.934302719439,은평구
hospital,두오안과의원,서울특별시 은평구 진관2로 29-21 (진관동),37.635741734904,126.919341649662,은평구
hospital,드림성모안과의원,서울특별시 은평구 은평로 136 (응암동),37.6003023742548,126.923267722403,은평구
hospital,드림유비뇨기과의원,"서울특별시 은평구 가좌로 271, 9,10층 (신사동)",37.5928195865241,126.913418743155,은평구
hospital,디엠씨성모의원,"서울특별시 은평구 수색로 217, 상가동 1층 130~132,138~141호 (수색동, 디엠씨 자이1단지)",37.5796932759305,126.898678379239,은평구
hospital,디테일탑치과의원,"서울특별시 은평구 통일로 876, 4~7층 (불광동)",37.6212043252743,126.920274642424,은평구
hospital,라온정형외과신경외과의원,"서울특별시 은평구 은평로9길 13, 2층 (응암동, 캐스텔가든)",37.6013680588223,126.921205947636,은평구
hospital,라인치과의원,서울특별시 은평구 통일로 730 (불광동),37.6108142265488,126.930091088595,은평구
hospital,라임비뇨기과의원,"서울특별시 은평구 은평로 121, 6층 (응암동)",37.6004493355977,126.921096166394,은평구
hospital,라파엘여성의원,"서울특별시 은평구 통일로 728, 2층 (불광동)",37.6105757824283,126.930171610875,은평구
hospital,로쉬여성의원,서울특별시 은평구 가좌로 234 (응암동),37.5906730638588,126.916801611306,은평구
hospital,로제성형외과의원,서울특별시 은평구 통일로 857 동우빌딩 3층  (갈현동),37.6195878442183,126.920379331437,은평구
hospital,로즈마리힐치과의원,"서울특별시 은평구 백련산로2길 19, 208호 (응암동, 백련산힐스테이트1차상가동)",37.5924768384074,126.925269500776,은평구
hospital,류비뇨의학과의원,"서울특별시 은평구 연서로 146, 수메디컬빌딩 6층 (대조동)",37.6118256229728,126.917712097114,은평구
hospital,류종상내과의원,"서울특별시 은평구 통일로 741, 신흥빌딩 5층 (대조동)",37.6114268242168,126.928611590744,은평구
hospital,리드힐병원,"서울특별시 은평구 연서로 10, 지하2~지상9층 (역촌동)",37.5999863665584,126.91645570925,은평구
hospital,리엔유산부인과의원,"서울특별시 은평구 은평로 121, 응암CO메디컬빌딩 8층 (응암동)",37.6004383756921,126.921144305583,은평구
hospital,마디엠한의원,"서울특별시 은평구 은평로 86, 2층 (응암동)",37.5992551331218,126.917495387437,은평구
hospital,마루의료생협마루의원,"서울특별시 은평구 은평로 200-1, 5층 (응암동, 삼영빌딩)",37.6010971795656,126.930002000776,은평구
hospital,마음그림정신건강의학과의원,"서울특별시 은평구 진관2로 19, 휴먼프라자 I 3층 301호 (진관동)",37.6348535294175,126.919584718281,은평구
hospital,마이디피부과의원,"서울특별시 은평구 연서로 146 (대조동, 3층)",37.6118256229728,126.917712097114,은평구
hospital,맑은수의원,"서울특별시 은평구 서오릉로 134, 메디칼 2층 (대조동)",37.6110125848779,126.918121172871,은평구
hospital,맑은숲한의원,"서울특별시 은평구 연서로 295, 2층 (불광동, 연신빌딩)",37.6219828203942,126.926443172755,은평구
hospital,맑을찬한의원,"서울특별시 은평구 갈현로 261, 2층 (갈현동)",37.6204179400592,126.916110933294,은평구
hospital,맘스미산부인과의원,"서울특별시 은평구 서오릉로 134, 메디칼 4,5층 (대조동)",37.6110125848779,126.918121172871,은평구
hospital,명성한의원,"서울특별시 은평구 연서로 246, 3층 (불광동)",37.6190478329207,126.922607355291,은평구
hospital,명인의원,서울특별시 은평구 불광로 104 (불광동),37.6160200103974,126.933134631479,은평구
hospital,명인한의원,"서울특별시 은평구 증산로9길 5, 2층 (증산동)",37.5847981571299,126.90971030327,은평구
hospital,모아가정의학과의원,"서울특별시 은평구 역말로 135, 2층 (대조동)",37.6112626958511,126.921836435913,은평구
hospital,무궁화한의원,"서울특별시 은평구 통일로 750, 2층 (불광동)",37.6123341513595,126.928663502355,은평구
hospital,무림한의원,"서울특별시 은평구 증산서길 160, 2층 (증산동)",37.5885484930133,126.912521186868,은평구
hospital,문병철정형외과의원,"서울특별시 은평구 연서로 146, 7층 (대조동, 수메디컬빌딩)",37.6118256229728,126.917712097114,은평구
hospital,문성준치과의원,"서울특별시 은평구 진관3로 37, 821동 115,116호 (진관동, 은평뉴타운상림마을 12단지 롯데캐슬)",37.6403916511066,126.920438372018,은평구
hospital,문치과병원,서울특별시 은평구 통일로 809-1 (대조동),37.6161339587438,126.923731135085,은평구
hospital,문평한의원,"서울특별시 은평구 은평로 63 (역촌동, 3층)",37.5990874587656,126.91483172904,은평구
hospital,문화신경정신과의원,"서울특별시 은평구 은평로 194, 2층 203, 204호 (응암동)",37.601209332209,126.929212028417,은평구
hospital,문화한의원,"서울특별시 은평구 연서로 209, 3층 (갈현동, 보성빌딩)",37.6173141386661,126.918832262985,은평구
hospital,물댄동산치과의원,"서울특별시 은평구 진흥로1길 28, 201호 (역촌동, 아그네스 풍림아이원)",37.6029593097591,126.918961673328,은평구
hospital,미래아산내과의원,"서울특별시 은평구 은평로 227, 4,5층 (녹번동)",37.6012993400408,126.932912150267,은평구
hospital,미소가인피부과의원은평점,"서울특별시 은평구 통일로 1080, 은평뉴타운솔하임 A동 2층 202,203-1호 (진관동)",37.6392342317325,126.917530394384,은평구
hospital,미소를만드는치과의원,서울특별시 은평구 응암로 193 2층 (응암동),37.5892661408664,126.916767851347,은평구
hospital,미소야치과의원,"서울특별시 은평구 연서로 217, 2층 (갈현동)",37.618108090636,126.919624164307,은평구
hospital,미소지앤의원,"서울특별시 은평구 통일로67길 3, 6층 (대조동)",37.6109210559579,126.928838475621,은평구
hospital,미소치과의원,"서울특별시 은평구 갈현로 82, 201호 (역촌동)",37.6052664482641,126.910685555782,은평구
hospital,미즈의원,"서울특별시 은평구 연서로 246, 4층 (불광동, 타워크리닉)",37.6190478329207,126.922607355291,은평구
hospital,미즈플러스치과의원,"서울특별시 은평구 서오릉로 134, 2층 (대조동)",37.6110111111111,126.918002777778,은평구
hospital,민마취통증의학과의원,"서울특별시 은평구 통일로67길 3, 3층 (대조동)",37.6109210559579,126.928838475621,은평구
hospital,민정형외과의원,"서울특별시 은평구 연서로 222, 4층,6층 (대조동)",37.6181350027991,126.920381220522,은평구
hospital,민현준내과의원,"서울특별시 은평구 통일로 626, 유림빌딩 3층 (녹번동)",37.602472019451,126.935407233318,은평구
hospital,바로그의원,"서울특별시 은평구 연서로 246, 타워크리닉 8층 801,802호 (불광동)",37.6190478329207,126.922607355291,은평구
hospital,바로나은치과의원,"서울특별시 은평구 수색로 322, 상가 2동 203, 204호 (수색동)",37.5873678307971,126.892550386685,은평구
hospital,바로척마취통증의학과의원,"서울특별시 은평구 은평로 127, 1,2층 (응암동)",37.6006299316031,126.921965672213,은평구
hospital,바로편한신경외과의원,"서울특별시 은평구 불광로 15, 3층 (대조동)",37.6099579537379,126.927890195699,은평구
hospital,바른경희한의원,"서울특별시 은평구 응암로 304, 1, 2층 (응암동)",37.5984679394015,126.921189755489,은평구
hospital,바른마음치과의원,"서울특별시 은평구 진흥로 105, 2층 (역촌동)",37.6063008592212,126.922521696521,은평구
hospital,바른생각치과의원,"서울특별시 은평구 가좌로 233, 연희타워 2층 201~202호 (응암동)",37.5904238447716,126.916412390363,은평구
hospital,바른성모정형외과의원,"서울특별시 은평구 진관2로 19, 4층 409~411호 (진관동, 휴먼프라자I)",37.6348535294175,126.919584718281,은평구
hospital,바른우리치과의원,"서울특별시 은평구 갈현로 15, 2층 (신사동)",37.599288316842,126.910011565606,은평구
hospital,바른정형외과의원,"서울특별시 은평구 응암로 235, 2층 (응암동)",37.5930153082521,126.917609392344,은평구
hospital,바른치과의원,"서울특별시 은평구 연서로 275, 2층 (불광동)",37.6209400997168,126.924857478369,은평구
hospital,바를정치과의원,"서울특별시 은평구 연서로 1, 206호 (역촌동, 리더스파크)",37.5992561452512,126.915361951282,은평구
hospital,박근태내과의원,"서울특별시 은평구 은평로 29, 2층,3층 (신사동)",37.5982665728513,126.9110542474,은평구
hospital,박미숙산부인과의원,서울특별시 은평구 연서로 73 (역촌동),37.6056457550755,126.915065926274,은평구
hospital,박병섭내과의원,"서울특별시 은평구 통일로 901, 2층 (갈현동)",37.6234666023801,126.919593587714,은평구
hospital,박병철마취통증의학과의원,"서울특별시 은평구 연서로 137, 영진빌딩 4층 일부호 (구산동)",37.6111618859153,126.916842896021,은평구
hospital,박정신건강의학과의원,"서울특별시 은평구 통일로 741, 신흥빌딩 5층 (대조동)",37.6114268242168,126.928611590744,은평구
hospital,박제상재활의학과의원,"서울특별시 은평구 통일로 750, 2층 (불광동)",37.6123341513595,126.928663502355,은평구
hospital,박지현균형과뇌신경과의원,"서울특별시 은평구 통일로 855-8, 연신내진원와이타운 3층 301, 302호 (갈현동)",37.619122183963,126.920201767929,은평구
hospital,박한의원,서울특별시 은평구 연서로 284 (불광동),37.621080020558,126.926059907307,은평구
hospital,박해문의원,서울특별시 은평구 불광로 44 (불광동),37.6112552911657,126.930604660639,은평구
hospital,밝은내일안과의원,"서울특별시 은평구 연서로 216, 4층 10호 (대조동, 아트캐슬주상복합상가)",37.6178000192821,126.920120155706,은평구
hospital,밝은내일재활의학과의원,"서울특별시 은평구 은평로 227, MD빌딩 2,지하1층 (녹번동)",37.6013107485409,126.932852234594,은평구
hospital,밝은빛안과의원,"서울특별시 은평구 응암로 183, 2층,3층 (응암동)",37.5884286356527,126.916593627583,은평구
hospital,밝은소리이비인후과의원,"서울특별시 은평구 은평로 170, 303호 (응암동, 상현빌딩)",37.6010893852841,126.926662375326,은평구
hospital,밝은홍안과의원,"서울특별시 은평구 통일로 730, 3층 (불광동)",37.6108142265488,126.930091088595,은평구
hospital,밝은홍안과의원,"서울특별시 은평구 통일로 730, 보광빌딩 302호 (불광동)",37.6108142265488,126.930091088595,은평구
hospital,백년약속치과의원,"서울특별시 은평구 응암로 278, 4,5층 (응암동)",37.5963405726811,126.919665022064,은평구
hospital,백세내과의원,"서울특별시 은평구 불광로 17, 3,4층 (대조동, 대흥빌딩)",37.6100567151863,126.928059191604,은평구
hospital,백세한의원,"서울특별시 은평구 증산로 413, 2층 (신사동)",37.5931409230026,126.913846721415,은평구
hospital,백수진가정의학과의원,서울특별시 은평구 은평터널로 65 (수색동),37.586899476029,126.89916689751,은평구
hospital,별소아청소년과의원,"서울특별시 은평구 은평로 220, 119,120호 (응암동, 녹번역e편한세상캐슬아파트)",37.6005343844723,126.932098856535,은평구
hospital,보스톤연합치과의원,"서울특별시 은평구 수색로 191, 3층 (증산동)",37.5782509235095,126.901072414948,은평구
hospital,보스톤유니온치과의원,"서울특별시 은평구 연서로 246, 5층 (불광동)",37.6190478329207,126.922607355291,은평구
hospital,보스톤탑치과의원,"서울특별시 은평구 통일로 835, 3층 (대조동)",37.617906238537,126.921722783334,은평구
hospital,보원한의원,"서울특별시 은평구 응암로4길 25-1, 2층 (응암동, 거성빌딩)",37.5871215946087,126.917017854222,은평구
hospital,본서부병원,서울특별시 은평구 은평로 133 (응암동),37.6009323557961,126.922591585689,은평구
hospital,봄그린외과의원,"서울특별시 은평구 은평로 210 , 3층  (응암동)",37.6010211630439,126.931120000342,은평구
hospital,봄빛미소치과의원,"서울특별시 은평구 은평로 240, B134~137호 (응암동)",37.6004214734002,126.934948113512,은평구
hospital,봄한의원,"서울특별시 은평구 응암로 174-2, 2층 (응암동)",37.5874470527463,126.917045798358,은평구
hospital,부부한의원,서울특별시 은평구 응암로 175-1 (응암동),37.5877662829501,126.916419325077,은평구
hospital,부용한의원,"서울특별시 은평구 은평로 119, 301호 (응암동)",37.6005310192838,126.920907532886,은평구
hospital,불광경희한의원,"서울특별시 은평구 통일로 730, 402호 (불광동, 보광빌딩)",37.6108153089482,126.930093126211,은평구
hospital,불광고려마취통증의학과의원,"서울특별시 은평구 통일로 746, 5,6층 (불광동)",37.6120151363225,126.929003923867,은평구
hospital,불광보건지소,"서울특별시 은평구 연서로34길 11, 보건분소 (불광동)",37.6215624703517,126.927691294353,은평구
hospital,불광서울안과의원,"서울특별시 은평구 통일로 715 , WB은평타워 4층  (대조동)",37.609413947696,126.930308376671,은평구
hospital,불광신광한의원,"서울특별시 은평구 불광로 20, 15층 A001호 (대조동, NC백화점)",37.6097415715989,126.928988756989,은평구
hospital,불광연세가정의학과의원,"서울특별시 은평구 불광로 8 , 2층  (대조동)",37.6093214974958,126.927599971546,은평구
hospital,불광치과의원,서울특별시 은평구 통일로 736 (불광동),37.6112700197706,126.929607617114,은평구
hospital,불광탑재활의학과의원,"서울특별시 은평구 통일로 730, 보광빌딩 5층 (불광동)",37.6108142265488,126.930091088595,은평구
hospital,불광튼튼척의원,"서울특별시 은평구 통일로 715, 3층 일부호 (대조동)",37.609413947696,126.930308376671,은평구
hospital,불광편안한재활의학과의원,"서울특별시 은평구 통일로67길 3, 상일빌딩 4, 7층 (대조동)",37.6109210559579,126.928838475621,은평구
hospital,불광한의원,서울특별시 은평구 통일로 745 (대조동),37.6117540258685,126.928404715049,은평구
hospital,빛나리치과의원,서울특별시 은평구 서오릉로 140 (대조동),37.6113251377512,126.917603128121,은평구
hospital,빛샘안과의원,"서울특별시 은평구 갈현로 8, 4층 (신사동)",37.5985454785523,126.910404378951,은평구
hospital,뿌리사랑치과의원,"서울특별시 은평구 연서로 146, 5층 (대조동, 수메디컬빌딩)",37.6118256229728,126.917712097114,은평구
hospital,사계절치과의원,"서울특별시 은평구 통일로 749, 2층 (대조동)",37.6119412915133,126.928170521884,은평구
hospital,사과나무치과의원,"서울특별시 은평구 진관2로 19, 4층 401,402,412호 (진관동)",37.6348535294175,126.919584718281,은평구
hospital,사람과생각정신건강의학과의원,"서울특별시 은평구 수색로 195, 3층 (증산동)",37.5785684643792,126.900679728066,은평구
hospital,사람사랑치과의원,서울특별시 은평구 불광로 17 (대조동),37.6100567151863,126.928059191604,은평구
hospital,사랑이가득한치과의원,"서울특별시 은평구 응암로 337, 빛터룩스 빌딩 3층 (응암동)",37.6011985082766,126.924821509711,은평구
hospital,사랑이꽃피는치과의원,"서울특별시 은평구 통일로 741, 신흥빌딩 5층 (대조동)",37.6114268242168,126.928611590744,은평구
hospital,사랑채한의원,"서울특별시 은평구 은평로 56, 안건빌딩 2층 (신사동)",37.5985332709,126.9141017456,은평구
hospital,사암당한의원,"서울특별시 은평구 연서로 9, 1,2층 (역촌동, 센타폴리스)",37.6000995302827,126.91556845327,은평구
hospital,사암한의원,"서울특별시 은평구 통일로 717, 2층 (대조동)",37.6096906570627,126.930307135482,은평구
hospital,살림의료복지사회적협동조합살림의원,"서울특별시 은평구 서오릉로 149, 세웅그룹빌딩 2층 좌측호 (구산동)",37.6115932839556,126.916212472705,은평구
hospital,살림의료복지사회적협동조합살림치과의원,서울특별시 은평구 서오릉로 149 2층  (구산동),37.6115932839556,126.916212472705,은평구
hospital,살림의료복지사회적협동조합살림한의원,"서울특별시 은평구 갈현로12길 17-1, 1층 (역촌동)",37.6065397286771,126.912492080606,은평구
hospital,삼성레이디여성의원,서울특별시 은평구 진관2로 15-46 (진관동),37.6386515578411,126.919081540985,은평구
hospital,삼성바른내과의원,"서울특별시 은평구 은평로 136, 은경빌딩 2,3층 (응암동)",37.6002632124439,126.923039015434,은평구
hospital,삼성바른신경외과의원,"서울특별시 은평구 통일로 1050, 롯데몰 은평점 4층 (진관동)",37.6375366740938,126.917900261732,은평구
hospital,삼성서울키즈소아청소년과의원,서울특별시 은평구 백련산로 84 (응암동),37.5930097247289,126.92364241621,은평구
hospital,삼성속편한의원,"서울특별시 은평구 응암로 264, 서울빌딩 2층 (응암동)",37.5952888457558,126.918874876038,은평구
hospital,삼성키즈소아청소년과의원,"서울특별시 은평구 진관2로 57-7, 253동 B106호,B107호 (진관동, 은평뉴타운 우물골두산위브아파트상가)",37.6343737542102,126.92323609983,은평구
hospital,삼성한의원,"서울특별시 은평구 서오릉로 71, 2층 (역촌동, 영화마스타골프랜드)",37.6064150717629,126.922471521332,은평구
hospital,삼정치과의원,서울특별시 은평구 연서로 208 (대조동),37.6169671915954,126.919526374089,은평구
hospital,삼화한의원,서울특별시 은평구 연서로28길 1 (대조동),37.6183757867094,126.920577165845,은평구
hospital,상하치과의원,"서울특별시 은평구 연서로 74, 보광빌딩 3층 (역촌동)",37.6057262353977,126.915724946615,은평구
hospital,새로온한의원,"서울특별시 은평구 진관3로 11, 2층 203, 204호 (진관동, 은평뉴타운 힐데스하임)",37.6394630545503,126.918268068589,은평구
hospital,새서울정형외과의원,"서울특별시 은평구 은평로 121 (응암동, 4층)",37.6004429362983,126.921092775909,은평구
hospital,새연세재활의학과의원,"서울특별시 은평구 갈현로 82, 3층 (역촌동)",37.6052664482641,126.910685555782,은평구
hospital,새은치과의원,"서울특별시 은평구 통일로 830, 301호 (불광동)",37.6178200449338,126.922726652975,은평구
hospital,새이치과의원,"서울특별시 은평구 응암로 179, 3층 (응암동, 서서울메디칼)",37.588055746965,126.916384242043,은평구
hospital,새절가정의학과의원,"서울특별시 은평구 가좌로 329, 2층 (신사동)",37.5963916528414,126.908632451009,은평구
hospital,새하얀피부과의원,"서울특별시 은평구 은평로 200-1, 4층 (응암동, 삼영빌딩)",37.6011336684453,126.929999928224,은평구
hospital,새한세이프치과의원,"서울특별시 은평구 은평로 200-1, 302호 (응암동, 삼양빌딩 가동)",37.6011336684453,126.929999928224,은평구
hospital,생록한의원,"서울특별시 은평구 은평로 68, 2층 (신사동)",37.5988188516413,126.915306300837,은평구
hospital,샤인스타의원,"서울특별시 은평구 통일로 856, 메트로타워 5001호 (불광동)",37.6196215856,126.9215216288,은평구
hospital,서내과의원,서울특별시 은평구 연서로 75 (역촌동),37.6059905816944,126.915094320421,은평구
hospital,서부성모의원,"서울특별시 은평구 불광로 60, 2층 201호 (불광동)",37.6122935940935,126.932156008786,은평구
hospital,서부성심의원,"서울특별시 은평구 진흥로 91, 1층 (역촌동)",37.6050206687204,126.921877508479,은평구
hospital,서부치과의원,서울특별시 은평구 은평로 133 (응암동),37.6009323557961,126.922591585689,은평구
hospital,서부한의원,서울특별시 은평구 응암로 331 (응암동),37.6008381511612,126.922103043831,은평구
hospital,서울고운누리치과교정과치과의원,"서울특별시 은평구 연서로 214, 3층 (대조동)",37.6174450963706,126.919952107029,은평구
hospital,서울공감치과의원,"서울특별시 은평구 통일로 750, 경일빌딩 3층 일부호 (불광동)",37.6123341513595,126.928663502355,은평구
hospital,서울금플란트치과의원,"서울특별시 은평구 서오릉로 151, 3층 (구산동)",37.6117240930274,126.915938693284,은평구
hospital,서울나무치과의원,"서울특별시 은평구 진관2로 67, 252동 상가 B102호 (진관동)",37.6343737542102,126.92323609983,은평구
hospital,서울녹번치과의원,"서울특별시 은평구 통일로 610, 303,304,305,306호 (녹번동, 힐스테이트 녹번)",37.6019824456298,126.935947829509,은평구
hospital,서울다나의원,"서울특별시 은평구 연서로 30, 2층 (역촌동)",37.6017606041836,126.916211724006,은평구
hospital,서울다조은치과의원,서울특별시 은평구 은평로 107 (응암동),37.6002303054879,126.919496187286,은평구
hospital,서울대통마취통증의학과의원,"서울특별시 은평구 통일로 869 , 3~6층  (갈현동)",37.6203700552431,126.919808174393,은평구
hospital,서울덴치과의원,"서울특별시 은평구 서오릉로 168, 4층 (갈현동)",37.6128340259899,126.914939734516,은평구
hospital,서울독일치과의원,"서울특별시 은평구 은평로 60, 3,4층 (신사동)",37.598590934303,126.914473894706,은평구
hospital,서울리더스치과의원,"서울특별시 은평구 백련산로 38 (응암동, 힐스테이트2차)",37.5892706101884,126.923090643465,은평구
hospital,서울미치과의원,"서울특별시 은평구 통일로83길 8, 2층 (갈현동)",37.6210581575002,126.919043071013,은평구
hospital,서울바른비뇨의학과의원,"서울특별시 은평구 통일로 856, 메트로타워 3층 3010호 (불광동)",37.6196226675938,126.921522873651,은평구
hospital,서울바른플란트치과의원,"서울특별시 은평구 통일로 724, 2층 (불광동)",37.6103214562903,126.930363138778,은평구
hospital,서울바른훈치과의원,"서울특별시 은평구 통일로 855-8, 연신내진원와이타운 7층 (갈현동)",37.619122183963,126.920201767929,은평구
hospital,서울바정치과의원,"서울특별시 은평구 통일로 626, 유림빌딩 5층 (녹번동)",37.602472019451,126.935407233318,은평구
hospital,서울박치과의원,"서울특별시 은평구 불광로 54, 3층 (불광동)",37.6118185632412,126.931481078648,은평구
hospital,서울방사선가정의학과의원,서울특별시 은평구 통일로 863 (갈현동),37.6200242066391,126.920003393028,은평구
hospital,서울병원,서울특별시 은평구 진흥로 191 (대조동),37.6088308110956,126.930739739666,은평구
hospital,서울본치과의원,서울특별시 은평구 은평로 147 (응암동),37.6010773100086,126.924094162375,은평구
hospital,서울비뇨기과의원,"서울특별시 은평구 연서로 222, 8층 (대조동)",37.6181535476243,126.92035820728,은평구
hospital,서울비커밍여성의원,"서울특별시 은평구 통일로 861, 11,12층 (갈현동)",37.61980506305,126.920232187544,은평구
hospital,서울사랑치과의원,"서울특별시 은평구 연서로 252, 3층 (불광동, 세종빌딩)",37.6194578069009,126.922920235945,은평구
hospital,서울삼성내과의원,"서울특별시 은평구 서오릉로 203, 2층 (구산동)",37.6137900408198,126.910881179789,은평구
hospital,서울삼성치과의원,"서울특별시 은평구 서오릉로 203, 2층 (구산동)",37.6137967980213,126.910877979622,은평구
hospital,서울성모OK의원,"서울특별시 은평구 진흥로 103, 기린빌딩 5층 (역촌동)",37.6060733736923,126.922406417484,은평구
hospital,서울성모내과의원,서울특별시 은평구 연서로 146 (대조동),37.6118272438091,126.917710736223,은평구
hospital,서울수치과의원,"서울특별시 은평구 응암로4길 25-1, 4층 (응암동)",37.5871233065669,126.917017965544,은평구
hospital,서울숙면치과의원,"서울특별시 은평구 응암로 264, 서울빌딩 3층 (응암동)",37.5952888457558,126.918874876038,은평구
hospital,서울스마트치과의원,"서울특별시 은평구 서오릉로 160, 마성빌딩 2층 (갈현동)",37.6126825267479,126.915632831792,은평구
hospital,서울신통의원,"서울특별시 은평구 갈현로 300, 303~305호 (갈현동, (유)갈현상가)",37.6236089884632,126.917419430143,은평구
hospital,서울아산이비인후과의원,"서울특별시 은평구 불광로 25, 2,3층 (대조동)",37.6106496813693,126.928694671371,은평구
hospital,서울아산재활의학과의원,"서울특별시 은평구 통일로 805, 2층 (대조동)",37.6158746933064,126.92410796689,은평구
hospital,서울어린이치과의원,"서울특별시 은평구 통일로 855-8, 10층 (갈현동)",37.6191119999651,126.920212693419,은평구
hospital,서울에스치과의원,"서울특별시 은평구 진관2로 15-46, 403호 (진관동, 메트로프라자)",37.6386523687318,126.919081540105,은평구
hospital,서울엔도내과의원,"서울특별시 은평구 응암로4길 25-1, 3층 (응암동, 거성빌딩)",37.5871594657093,126.91705970407,은평구
hospital,서울엘리트치과의원,"서울특별시 은평구 은평로 93, 협화빌딩 4층 (응암동)",37.5997853553252,126.91812679692,은평구
hospital,서울연신내한의원,"서울특별시 은평구 연서로 251, 2층 (불광동)",37.6198205119728,126.922595227266,은평구
hospital,서울오거리치과의원,"서울특별시 은평구 응암로13길 2, 2층 (응암동)",37.5899649200633,126.916724840058,은평구
hospital,서울온안과의원,"서울특별시 은평구 통일로 750, 3,4층 (불광동)",37.6123341513595,126.928663502355,은평구
hospital,서울올바른치과의원,"서울특별시 은평구 통일로 738, 2층 11호 (불광동)",37.6114167620219,126.929408484328,은평구
hospital,서울우리치과의원,"서울특별시 은평구 은평로 86, 3층,5층 (응암동)",37.599875688007,126.918464268138,은평구
hospital,서울웰치과의원,"서울특별시 은평구 불광로 131, 3층 (불광동)",37.618550960701,126.932790745908,은평구
hospital,서울의원,"서울특별시 은평구 갈현로 206, 2층 (갈현동)",37.6157668787749,126.913761046143,은평구
hospital,서울이든치과의원,"서울특별시 은평구 통일로 746, 4층 (불광동)",37.6120151363225,126.929003923867,은평구
hospital,서울이레안과의원,"서울특별시 은평구 연서로 137, 2층 (구산동)",37.6111618859153,126.916842896021,은평구
hospital,서울이비인후과의원,서울특별시 은평구 진관2로 29-21  (진관동),37.635741734904,126.919341649662,은평구
hospital,서울이웃치과의원,"서울특별시 은평구 증산로 405, 2층 (신사동)",37.5925090289734,126.913684286255,은평구
hospital,서울장문외과의원,"서울특별시 은평구 통일로 861 , 범일빌딩 3층  (갈현동)",37.619785035254,126.920193923417,은평구
hospital,서울재활병원,서울특별시 은평구 갈현로11길 30 (구산동),37.60561275596,126.906342824539,은평구
hospital,서울제일한의원,"서울특별시 은평구 진관2로 15-46, 306호 (진관동, 메트로프라자)",37.6386523687318,126.919081540105,은평구
hospital,서울주치과의원,"서울특별시 은평구 서오릉로 196, 2층 (갈현동)",37.6138570459169,126.912041219513,은평구
hospital,서울지음정신건강의학과의원,"서울특별시 은평구 통일로 840, 범서빌딩 3층 (불광동)",37.618393113117,126.922102176038,은평구
hospital,서울참좋은내과의원,"서울특별시 은평구 응암로 215, 3층 301호~303호 (응암동, 명남더블레스아파트2차)",37.5912081513884,126.917045540136,은평구
hospital,서울클리어치과교정과치과의원,서울특별시 은평구 통일로 854 (불광동),37.6194273139588,126.921223139386,은평구
hospital,서울탑의원,"서울특별시 은평구 서오릉로 157, 201호 (구산동)",37.6119989368989,126.915619220147,은평구
hospital,서울특별시서북병원,서울특별시 은평구 갈현로7길 49 (역촌동),37.6043567763756,126.905664235484,은평구
hospital,서울특별시은평병원,서울특별시 은평구 백련산로 90 (응암동),37.5939702620381,126.923210588363,은평구
hospital,서울퍼펙트정형외과의원,"서울특별시 은평구 통일로 741, 신흥빌딩 2층 (대조동)",37.6114268242168,126.928611590744,은평구
hospital,서울플랜트치과의원,"서울특별시 은평구 은평로 121, 9층 (응암동)",37.6004446486,126.9210933403,은평구
hospital,서울필치과의원,"서울특별시 은평구 진흥로 196, 3층 (녹번동)",37.60850915314,126.931282235677,은평구
hospital,서울해치과의원,"서울특별시 은평구 은평로 136, 3층 (응암동, 은경빌딩)",37.6002621327,126.9230412814,은평구
hospital,선동규안과의원,서울특별시 은평구 통일로 833 (대조동),37.6176649190038,126.921945061541,은평구
hospital,선한정형외과의원,"서울특별시 은평구 연서로 73, 3층 (역촌동)",37.6056457550755,126.915065926274,은평구
hospital,성도치과의원,"서울특별시 은평구 갈현로 88, 2층 (역촌동)",37.6056612513349,126.910790632138,은평구
hospital,성모서울정신건강의학과의원,"서울특별시 은평구 통일로 856, 메트로타워 3003호 (불광동)",37.6196226675938,126.921522873651,은평구
hospital,성모열린정신건강의학과의원,"서울특별시 은평구 통일로 746, 2층 (불광동)",37.6120151363225,126.929003923867,은평구
hospital,성모의원,서울특별시 은평구 통일로 749 (대조동),37.6119509287101,126.928164962929,은평구
hospital,성모이음정신건강의학과의원,"서울특별시 은평구 진관2로 29-21, 드림스퀘어 403호 (진관동)",37.635741734904,126.919341649662,은평구
hospital,성모치과의원,"서울특별시 은평구 연서로 253, 2층 (불광동)",37.6199413359042,126.922734991715,은평구
hospital,성모튼튼신경외과의원,"서울특별시 은평구 진관3로 20, SW/메디컬 3,8층 (진관동)",37.6389140677896,126.918896464275,은평구
hospital,세련치과의원,서울특별시 은평구 은평로 23 (신사동),37.5981660144361,126.910401982533,은평구
hospital,세브란스의원,"서울특별시 은평구 응암로 181, 2층 (응암동)",37.5882093702744,126.916517333562,은평구
hospital,세양한의원,"서울특별시 은평구 서오릉로 139, 2층 (역촌동)",37.6108381553336,126.917477157083,은평구
hospital,세종한의원,서울특별시 은평구 응암로 253 (응암동),37.5947050304266,126.918001352946,은평구
hospital,세화산부인과의원,"서울특별시 은평구 통일로 839, 3층 (대조동)",37.6181170148908,126.921640216343,은평구
hospital,센트럴치과의원,"서울특별시 은평구 불광로 60, 303호 (불광동, 라비앙프라자)",37.6122935940935,126.932156008786,은평구
hospital,셀린의원,"서울특별시 은평구 연서로 214, 2층 (대조동)",37.6174450963706,126.919952107029,은평구
hospital,소망한의원,"서울특별시 은평구 진관2로 60, 지하1층 (진관동, 은평뉴타운 마고정)",37.6338895292228,126.924156530547,은평구
hospital,소망한의원,"서울특별시 은평구 진관2로 60, 324동 B층 104호 (진관동, 은평뉴타운 마고정)",37.6339160374251,126.922796996822,은평구
hospital,소영한의원,"서울특별시 은평구 은평로 99, 2층 (응암동)",37.5998479277115,126.91865736489,은평구
hospital,소천안과의원,서울특별시 은평구 통일로 801 (대조동),37.6156083112857,126.924579419295,은평구
hospital,소통한의원,"서울특별시 은평구 은평로 22, 2층 (신사동)",37.5977485736801,126.910551523939,은평구
hospital,속튼튼내과의원,"서울특별시 은평구 통일로 855-8, 연신내진원와이타운 2층 201, 202호 (갈현동)",37.619122183963,126.920201767929,은평구
hospital,솔치과의원,서울특별시 은평구 응암로22길 22 (응암동),37.593311881814,126.920450928132,은평구
hospital,송근한의원,"서울특별시 은평구 통일로 760, 4층 (불광동)",37.6129400897573,126.928170228552,은평구
hospital,송내과의원,"서울특별시 은평구 응암로 201, 1층 (응암동)",37.5900042033868,126.916852741255,은평구
hospital,수경희한의원,"서울특별시 은평구 진관4로 37, 801동 105호106호 (진관동, 상림마을)",37.6448657079107,126.925845495677,은평구
hospital,수내과의원,"서울특별시 은평구 은평로 123, 201호 202호일부호 (응암동, 응암아네스트)",37.6005530513,126.9215190143,은평구
hospital,수색경희한의원,"서울특별시 은평구 수색로 200, 4블럭동 1층 126호 (증산동, DMC센트럴자이)",37.5794195375926,126.900673276716,은평구
hospital,수색연세치과의원,"서울특별시 은평구 은평로 56, 3층 (신사동)",37.598534441063,126.914100158896,은평구
hospital,수색지앤미치과의원,"서울특별시 은평구 수색로 200, 401동 상가 221~225호 (증산동, DMC센트럴자이)",37.5794195375926,126.900673276716,은평구
hospital,수앤미치과의원,서울특별시 은평구 서오릉로 202 (갈현동),37.614175,126.911366666667,은평구
hospital,수연세재활의학과의원,"서울특별시 은평구 연서로 246, 3층 (불광동)",37.6191496722084,126.922618483726,은평구
hospital,수이치과의원,"서울특별시 은평구 수색로 216, 지상2층 (수색동)",37.5798457128548,126.899932768477,은평구
hospital,수지정형외과의원,"서울특별시 은평구 응암로 215, 명남더블레스아파트2차 3층 (응암동, 명남더블레스아파트2차)",37.5912229367393,126.917054062611,은평구
hospital,숨편한세상신세계한의원,"서울특별시 은평구 수색로 217-1, 402,409호 (증산동, 디엠씨 자이2단지(DMC 자이2단지))",37.5786206537679,126.899534329568,은평구
hospital,숭실한의원,서울특별시 은평구 증산로15가길 1 (신사동),37.5891394095728,126.911499345858,은평구
hospital,승리한의원,"서울특별시 은평구 응암로 207, 선재빌딩   동 2층 (응암동)",37.5905634334,126.9170864979,은평구
hospital,시온한방병원,"서울특별시 은평구 응암로 267, 정원빌딩 (응암동)",37.5958556930176,126.918661945965,은평구
hospital,시원플란트치과의원,"서울특별시 은평구 통일로 714, 7층 (불광동)",37.6097064547179,126.930999868352,은평구
hospital,신사중앙의원,서울특별시 은평구 가좌로 322 (신사동),37.5963568335906,126.909632474095,은평구
hospital,신사한의원,"서울특별시 은평구 은평터널로 128-2, 2층 (신사동)",37.5906643168805,126.905313194397,은평구
hospital,신사호이비인후과의원,"서울특별시 은평구 가좌로 330, B301,302호 (신사동)",37.5968399722455,126.908847730617,은평구
hospital,신성한의원,"서울특별시 은평구 수색로 256, 3층 (수색동)",37.5821813210202,126.895952863843,은평구
hospital,신세계한의원,"서울특별시 은평구 수색로 191, 3층 (증산동, 두빌191)",37.5786206537679,126.899534329568,은평구
hospital,신익순소아청소년과의원,"서울특별시 은평구 수색로 200, DMC센트럴자이 401동 2층 213,214,215호 (증산동)",37.5794195375926,126.900673276716,은평구
hospital,신재활의학과의원,서울특별시 은평구 서오릉로 193 (구산동),37.613356276795,126.912041582815,은평구
hospital,신치과의원,"서울특별시 은평구 은평로 6, 4층 (신사동)",37.5962583333333,126.908866666667,은평구
hospital,씨엘의원,"서울특별시 은평구 통일로 842, 범서빌딩 4층 (불광동)",37.6186902335511,126.922063807625,은평구
hospital,아름다운성형외과의원,"서울특별시 은평구 연서로 246, 7층 (불광동)",37.6190538154576,126.922662284882,은평구
hospital,아벨피부과의원,"서울특별시 은평구 진관2로 15-46, 메트로프라자 5, 6층 504, 602호 (진관동)",37.6386515578411,126.919081540985,은평구
hospital,아이넷한의원,"서울특별시 은평구 통일로 693, 2층 (녹번동)",37.6079204730512,126.931860314191,은평구
hospital,아이러브치과의원,"서울특별시 은평구 진흥로 21, 6층 (역촌동)",37.6003239351022,126.917820908268,은평구
hospital,아이엠유의원,"서울특별시 은평구 수색로 지하 175, 0004호 (증산동, 6호선 디지털미디어시티역)",37.5772822517944,126.902246287916,은평구
hospital,아이제일산부인과의원,서울특별시 은평구 서오릉로 81 (역촌동),37.6074483729483,126.921587082662,은평구
hospital,아카시아치과의원,"서울특별시 은평구 은평로 155, 1층 (응암동)",37.6011985082766,126.924821509711,은평구
hospital,안심내과의원,"서울특별시 은평구 은평로 240, B2층 207~210호 (응암동)",37.6004214734002,126.934948113512,은평구
hospital,안피부과의원,"서울특별시 은평구 갈현로 261, 4층 (갈현동)",37.6203229352108,126.916053611344,은평구
hospital,약손부부한의원,"서울특별시 은평구 통일로 746, 3층 (불광동)",37.6120075303,126.9289412989,은평구
hospital,양전호내과의원,"서울특별시 은평구 통일로 863, 2층 (갈현동)",37.6200589456471,126.920075828582,은평구
hospital,어진한의원,"서울특별시 은평구 증산로 275, 순수지혜 2층 (증산동)",37.5823188162986,126.907629480983,은평구
hospital,엄대식이비인후과의원,서울특별시 은평구 서오릉로 140 (대조동),37.6113622620974,126.917611602283,은평구
hospital,엄마사랑한의원,"서울특별시 은평구 연서로 130, 대지빌딩 3, 5, 7층 302, 502, 702호 (역촌동)",37.6102952471,126.9172593986,은평구
hospital,엄마한의원,"서울특별시 은평구 통일로87길 19, 2층 (갈현동)",37.6232912784989,126.917516859217,은평구
hospital,에스앤비한의원,"서울특별시 은평구 진관3로 37, 은평구 뉴타운2지구 에코테라스 2층 202호 (진관동)",37.6403916511066,126.920438372018,은평구
hospital,에이스치과의원,서울특별시 은평구 은평로 229 (녹번동),37.6012774549,126.9332456697,은평구
hospital,에이플러스치과의원,"서울특별시 은평구 은평로 194, 2층 201호 (응암동, 더 위일)",37.601200366435,126.929285644606,은평구
hospital,엔유성형외과의원,"서울특별시 은평구 은평로 121, 12층 (응암동)",37.6004446486,126.9210933403,은평구
hospital,엘비뇨기과의원,"서울특별시 은평구 응암로 179, 4층 (응암동)",37.5880725493869,126.916323896259,은평구
hospital,역촌경희한의원,"서울특별시 은평구 서오릉로 94, 101동 119호 (대조동, 삼성타운아파트)",37.6096209908,126.9220893544,은평구
hospital,연강한의원,"서울특별시 은평구 진흥로1길 17, 2층 (역촌동)",37.6019962160786,126.918532391556,은평구
hospital,연나무치과의원,"서울특별시 은평구 연서로 213, 성보빌딩 4층 (갈현동)",37.6176436383991,126.919238535247,은평구
hospital,연서정형외과의원,서울특별시 은평구 연서로 253-9 (불광동),37.6201574534952,126.922827877108,은평구
hospital,연서한의원,"서울특별시 은평구 통일로 833, 2층 (대조동)",37.6176901569588,126.921957587078,은평구
hospital,연세가정의원,"서울특별시 은평구 증산로3길 6, 2층 (증산동, 비자림빌딩)",37.580832672169,126.905635167772,은평구
hospital,연세가정의학과의원,"서울특별시 은평구 연서로 1, 2층 (역촌동)",37.599305402505,126.915328397266,은평구
hospital,연세가족사랑의원,"서울특별시 은평구 갈현로 82, 304호 (역촌동)",37.6052664482641,126.910685555782,은평구
hospital,연세건치과의원,"서울특별시 은평구 진흥로1길 2, 2층 (역촌동)",37.6005931243574,126.918954954084,은평구
hospital,연세김치과의원,서울특별시 은평구 증산로5길 15 (증산동),37.583125,126.906280555556,은평구
hospital,연세내과의원,"서울특별시 은평구 불광로 59, 2층 (불광동, 나호)",37.6123448145267,126.931763971106,은평구
hospital,연세노블병원,서울특별시 은평구 서오릉로 37 (녹번동),37.6040399058057,126.924452636345,은평구
hospital,연세다올치과의원,"서울특별시 은평구 통일로 1034, 2층 205호,206호 (진관동, 은평 스카이뷰 자이)",37.6347416952542,126.918502319574,은평구
hospital,연세드림치과의원,"서울특별시 은평구 서오릉로 139, 402호 (역촌동, 주영빌딩)",37.6108318766651,126.917485436338,은평구
hospital,연세메트로마취통증의학과의원,"서울특별시 은평구 통일로 856, 2층 (불광동, 메트로타워)",37.6196226675938,126.921522873651,은평구
hospital,연세미치과의원,"서울특별시 은평구 서오릉로 201, 2층 (구산동)",37.6136785391561,126.911171241552,은평구
hospital,연세백년치과의원,"서울특별시 은평구 은평로 63, 비앤케이 빌딩 2층 (역촌동)",37.5990888092757,126.914830368627,은평구
hospital,연세본이비인후과의원,"서울특별시 은평구 통일로 739, 3, 4층 302, 401, 402호 (대조동)",37.6112521966343,126.928734302655,은평구
hospital,연세봄정신건강의학과의원,서울특별시 은평구 통일로 857  (갈현동),37.6195878442183,126.920379331437,은평구
hospital,연세봄치과의원,"서울특별시 은평구 응암로 207, 3층 (응암동)",37.5905634334003,126.91708649794,은평구
hospital,연세사랑의원,"서울특별시 은평구 응암로22길 28-6, 3층 (응암동)",37.5932805752432,126.921059123007,은평구
hospital,연세세브란스치과의원,"서울특별시 은평구 통일로 739, 5층 (대조동)",37.6112899243211,126.92886951216,은평구
hospital,연세속편안내과의원,"서울특별시 은평구 은평로 170, 302호 (응암동, 상현빌딩)",37.6010893852841,126.926662375326,은평구
hospital,연세수내과의원,"서울특별시 은평구 연서로 222, 5층 (대조동)",37.6181350027991,126.920381220522,은평구
hospital,연세수치과의원,서울특별시 은평구 통일로 731 (대조동),37.6105369682816,126.929300616739,은평구
hospital,연세숲정신건강의학과의원,"서울특별시 은평구 진관2로 15-46, 601호 (진관동, 메트로프라자)",37.6386515578411,126.919081540985,은평구
hospital,연세안과의원,서울특별시 은평구 연서로 246 (불광동),37.6190478329207,126.922607355291,은평구
hospital,연세안녕치과의원,"서울특별시 은평구 통일로 636, 은평 미드스퀘어 210~212호 (녹번동)",37.603517115574,126.935311316206,은평구
hospital,연세에덴요양병원,서울특별시 은평구 통일로 669 (녹번동),37.6061501831794,126.933393863359,은평구
hospital,연세여우치과의원,서울특별시 은평구 연서로 222 (대조동),37.6181350027991,126.920381220522,은평구
hospital,연세열린의원,"서울특별시 은평구 증산로 297, 201호 (증산동, 청록빌딩)",37.5838222894398,126.909237445391,은평구
hospital,연세영피부과의원,"서울특별시 은평구 응암로 323, 2층 (응암동)",37.6001905357883,126.92185560785,은평구
hospital,연세예일의원,"서울특별시 은평구 서오릉로 138, 2층 (대조동)",37.6111824776269,126.917813378608,은평구
hospital,연세우리내과의원,서울특별시 은평구 서오릉로 140 (대조동),37.6113370201186,126.917587825186,은평구
hospital,연세우리치과의원,"서울특별시 은평구 진관2로 12, 메이플카운티2차 205호 (진관동)",37.6342576294538,126.918550997661,은평구
hospital,연세위드치과의원,"서울특별시 은평구 서오릉로 137, 2층 (역촌동)",37.5583260419142,126.973107617589,은평구
hospital,연세유의원,"서울특별시 은평구 은평로 108, 3층 301호 (응암동, 메트로럭스주상복합APT)",37.5997123185996,126.919882555261,은평구
hospital,연세윤내과의원,"서울특별시 은평구 진관3로 20, 4,5층 (진관동, sw메디컬빌딩)",37.6389140677896,126.918896464275,은평구
hospital,연세이비인후과의원,"서울특별시 은평구 통일로 730, 2층 (불광동, 보광빌딩)",37.6108142265488,126.930091088595,은평구
hospital,연세인스마일치과의원,"서울특별시 은평구 진관2로 29-21, 드림스퀘어 305호 (진관동)",37.6357405646,126.9193430105,은평구
hospital,연세인스타일치과의원,"서울특별시 은평구 진관2로 29-21, 드림스퀘어 3층 (진관동)",37.5558250126,126.922892344,은평구
hospital,연세정형외과의원,서울특별시 은평구 은평로 158 (응암동),37.6008761054766,126.925202214384,은평구
hospital,연세제일내과의원,"서울특별시 은평구 연서로32길 3, 정원빌딩 5층 (불광동)",37.6203628994073,126.924955472936,은평구
hospital,연세제일의원,"서울특별시 은평구 연서로 9, 201호 (역촌동, 센타폴리스)",37.6000995302827,126.91556845327,은평구
hospital,연세참소아청소년과의원,"서울특별시 은평구 진관3로 70, 821동 상가 114호 (진관동, 은평뉴타운상림마을)",37.6422598317106,126.923141080933,은평구
hospital,연세치과의원,"서울특별시 은평구 응암로 247, 2층 (응암동, 삼윤빌딩)",37.5942237088269,126.917854566217,은평구
hospital,연세큰숲내과의원,"서울특별시 은평구 통일로 742, 한화빌딩 4,5층 일부호 (불광동)",37.6118291183667,126.929364603214,은평구
hospital,연세키즈인소아치과의원,"서울특별시 은평구 진관2로 29-21, 3층 305호 (진관동, 드림스퀘어)",37.635741734904,126.919341649662,은평구
hospital,연세탑치과의원,"서울특별시 은평구 불광로 15, 2층 (대조동)",37.6099579537379,126.927890195699,은평구
hospital,연세팜스의원,"서울특별시 은평구 통일로 767 , 226호  (대조동, 베르디움STAY1)",37.6139964990436,126.926499742667,은평구
hospital,연세푸른의원,"서울특별시 은평구 가좌로 329, 2층 (신사동)",37.5963920134,126.908632677,은평구
hospital,연세플러스마취통증의학과의원,"서울특별시 은평구 가좌로7다길 9, 2층, 지하1층 (응암동)",37.5851180826344,126.918346429875,은평구
hospital,연세필승치과의원,"서울특별시 은평구 가좌로 271, 위산빌딩 8층 (신사동)",37.5928477862044,126.913416898807,은평구
hospital,연세하나치과의원,"서울특별시 은평구 은평로 104, 6층 (응암동)",37.5996580290455,126.919412213423,은평구
hospital,연세하늘치과의원,"서울특별시 은평구 통일로 838, 2층 (불광동)",37.6182287895423,126.922263981517,은평구
hospital,연세학문외과의원,"서울특별시 은평구 통일로 741, 3층 (대조동)",37.6115348766666,126.928683531835,은평구
hospital,연세해맑은치과의원,"서울특별시 은평구 진관2로 15-46, 메트로프라자동 501,502호 (진관동)",37.6386515578411,126.919081540985,은평구
hospital,연세호치과의원,"서울특별시 은평구 진관3로 20, 6층 (진관동, SW/메디컬)",37.6389140677896,126.918896464275,은평구
hospital,연신내경희한의원,"서울특별시 은평구 연서로 275, 1층 (불광동)",37.6209392000336,126.92485951818,은평구
hospital,연신내메이퓨어의원,"서울특별시 은평구 통일로 856, 메트로타워 304호 (불광동)",37.6196544878044,126.921545947403,은평구
hospital,연신내바른내과의원,"서울특별시 은평구 통일로 842, 범서빌딩 2층 (불광동)",37.6186885233,126.9220663013,은평구
hospital,연신내사암한의원,"서울특별시 은평구 연서로 268, 2층 201호 (불광동)",37.6202382140191,126.924549293486,은평구
hospital,연신내신통방통신경외과의원,"서울특별시 은평구 통일로 857, 9층 (갈현동)",37.6195878442183,126.920379331437,은평구
hospital,연신내아산온재활의학과의원,"서울특별시 은평구 연서로 216, 2층 201,202,203호 (대조동, 대조동아트캐슬주상복합)",37.6178000192821,126.920120155706,은평구
hospital,연신내정형외과의원,서울특별시 은평구 연서로32길 3 (불광동),37.6203626289725,126.924955246665,은평구
hospital,연신내제준한의원,"서울특별시 은평구 통일로 843-1, 2,3층 (대조동)",37.6185222244543,126.921287185093,은평구
hospital,연신내제준한의원,"서울특별시 은평구 통일로 843-1, 2,3층 (대조동)",37.6185226753958,126.921287864231,은평구
hospital,연신내치과의원,"서울특별시 은평구 통일로 858, 2층 (불광동)",37.619683580064,126.920991343827,은평구
hospital,연아한의원,"서울특별시 은평구 통일로 636, 은평 미드스퀘어 3층 312,313,314호 (녹번동)",37.603517115574,126.935311316206,은평구
hospital,영신치과의원,서울특별시 은평구 연서로 277-1 (불광동),37.6211500612626,126.925190629065,은평구
hospital,영주한의원,"서울특별시 은평구 가좌로 321, 2층 (신사동, 백송빌딩)",37.5960393631361,126.909330634416,은평구
hospital,영진정형외과의원,"서울특별시 은평구 연서로 9, 206호, 207호 (역촌동, 센타플리스)",37.6002422431458,126.915694563362,은평구
hospital,예니어린이치과의원,"서울특별시 은평구 은평로 155, 2층 (응암동)",37.6011985082766,126.924821509711,은평구
hospital,예담한의원,"서울특별시 은평구 통일로 858, 1층 (불광동)",37.619682499,126.9209914582,은평구
hospital,예당한의원,서울특별시 은평구 통일로 731 (대조동),37.6106239273941,126.929468127289,은평구
hospital,예맥당한의원,"서울특별시 은평구 연서로 220, 2층 (대조동)",37.6180614475535,126.920196558573,은평구
hospital,예뻐지는의원,"서울특별시 은평구 가좌로 215, 6층 (응암동)",37.5892809977293,126.917912195207,은평구
hospital,예스미의원,"서울특별시 은평구 통일로 731, 2층 (대조동)",37.6106226649216,126.929466316371,은평구
hospital,예스이치과의원,"서울특별시 은평구 불광로 7, 은평메디컬센터 6층 (대조동)",37.6094747306704,126.927120074193,은평구
hospital,예스치과의원,"서울특별시 은평구 불광로 7, 은평메디컬센터 6층 (대조동)",37.6094747306704,126.927120074193,은평구
hospital,예스필의원,"서울특별시 은평구 통일로 636, 은평 미드스퀘어 2층 220호 (녹번동)",37.603517115574,126.935311316206,은평구
hospital,예일가정의학과의원,"서울특별시 은평구 연서로 137, 4층 (구산동)",37.6112530921221,126.916864314523,은평구
hospital,예일성모내과의원,서울특별시 은평구 은평로 52  (신사동),37.5984351339633,126.913604010316,은평구
hospital,예일소아청소년과의원,서울특별시 은평구 연서로 146 (대조동),37.6117400799236,126.917720459244,은평구
hospital,예일한의원,"서울특별시 은평구 연서로 137, 3층 (구산동)",37.6111635068216,126.916841648381,은평구
hospital,예지소아청소년과의원,"서울특별시 은평구 서오릉로 196, 2층 (갈현동, 구산빌딩)",37.6138557843,126.9120408812,은평구
hospital,오라클피부과의원,"서울특별시 은평구 통일로 861, 5층 (갈현동)",37.619785035254,126.920193923417,은평구
hospital,오렌지요양병원,"서울특별시 은평구 연서로 209, 보성빌 2,3일부,4~6층 (갈현동)",37.6173141386661,126.918832262985,은평구
hospital,오렌지한의원,"서울특별시 은평구 진흥로 134, 2,3,4층 (녹번동, 유성빌딩)",37.6076803923,126.9250767126,은평구
hospital,오른외과의원,"서울특별시 은평구 서오릉로 145, 상원빌딩 3층 (구산동)",37.611286414672,126.916477274153,은평구
hospital,오엘치과의원,서울특별시 은평구 통일로 861 (갈현동),37.619785035254,126.920193923417,은평구
hospital,오천석치과의원,"서울특별시 은평구 가좌로 271, 8층 (신사동, 위산빌딩)",37.5928477862044,126.913416898807,은평구
hospital,오춘근한의원,서울특별시 은평구 은평로8길 19 (응암동),37.5986059831728,126.920139568444,은평구
hospital,오케이하트내과의원,"서울특별시 은평구 서오릉로 131, 5층 (역촌동, 구산빌딩)",37.6105156536156,126.917939827365,은평구
hospital,온누리한의원,"서울특별시 은평구 은평로 30, 2층 (신사동)",37.5979265194801,126.911148073241,은평구
hospital,온유치과의원,"서울특별시 은평구 진관2로 15-8, 웅신 미켈란의아침 2층 205호 (진관동)",37.6353936531351,126.919559891188,은평구
hospital,올곧은치과의원,서울특별시 은평구 통일로 1050 (진관동),37.6375366740938,126.917900261732,은평구
hospital,올스마일치과의원 연신내점,"서울특별시 은평구 통일로 845, 신한은행 3층 (대조동)",37.6185776806966,126.921085507895,은평구
hospital,용한의원,"서울특별시 은평구 응암로 232, 1층 (응암동)",37.5925885918473,126.91798782301,은평구
hospital,우리가정의원,"서울특별시 은평구 은평로 226, 2층 (응암동)",37.600849454025,126.93271619248,은평구
hospital,우리눈안과의원,서울특별시 은평구 응암로 179 (응암동),37.588055746965,126.916384242043,은평구
hospital,우리들한의원,"서울특별시 은평구 연서로 249, 2층 (불광동)",37.6196834737861,126.922463996198,은평구
hospital,우리사랑내과의원,"서울특별시 은평구 통일로 750 , 경일빌딩 2층  (불광동)",37.6123341513595,126.928663502355,은평구
hospital,우리성모안과의원,"서울특별시 은평구 통일로 857 , 동우빌딩 4층  (갈현동)",37.6195878442183,126.920379331437,은평구
hospital,우리신경외과의원,"서울특별시 은평구 서오릉로 168, 2층 (갈현동)",37.6128340259899,126.914939734516,은평구
hospital,우리연합의원,"서울특별시 은평구 은평로 111, 은평이마트 8층 (응암동)",37.6008254685415,126.920513478627,은평구
hospital,우리한의원,서울특별시 은평구 통일로 739  (대조동),37.6112755114135,126.928874056458,은평구
hospital,원가정의학과의원,서울특별시 은평구 가좌로7길 7 (응암동),37.5867568483953,126.920250144457,은평구
hospital,원치과의원,서울특별시 은평구 증산로 305 (증산동),37.5843703557098,126.909815092904,은평구
hospital,월오한의원,"서울특별시 은평구 서오릉로 145, 4층 (구산동, 상원빌딩)",37.6114336027063,126.916560488287,은평구
hospital,위더스이비인후과의원,"서울특별시 은평구 갈현로 300, 2층 207호 (갈현동)",37.6236089884632,126.917419430143,은평구
hospital,위풍당당재활의학과의원,"서울특별시 은평구 통일로 842, 1, 2층 (불광동)",37.6186902335511,126.922063807625,은평구
hospital,유계수내과의원,서울특별시 은평구 서오릉로 168 (갈현동),37.6128340259899,126.914939734516,은평구
hospital,유니스의원,"서울특별시 은평구 진관2로 29-21 (진관동, 드림스퀘어306호)",37.635741734904,126.919341649662,은평구
hospital,유드림의원,"서울특별시 은평구 통일로 856, 10층 10018호 (불광동, 메트로타워)",37.6196226675938,126.921522873651,은평구
hospital,유디치과의원,서울특별시 은평구 통일로 874 (불광동),37.6210126351571,126.920333862175,은평구
hospital,유어스킨의원,"서울특별시 은평구 통일로 626, 유림빌딩 4층 (녹번동)",37.602472019451,126.935407233318,은평구
hospital,유원마취통증의학과의원,"서울특별시 은평구 통일로 741, 4층 (대조동, 신흥빌딩402호)",37.6114268242168,126.928611590744,은평구
hospital,유장열이비인후과의원,서울특별시 은평구 연서로 253-9 (불광동),37.6201574534952,126.922827877108,은평구
hospital,유정내과의원,서울특별시 은평구 통일로85길 6-11 (갈현동),37.6226973866589,126.918872513355,은평구
hospital,유정형외과의원,"서울특별시 은평구 응암로 201, 2,3층 (응암동)",37.5900256667534,126.916880797344,은평구
hospital,유플러스치과의원,"서울특별시 은평구 은평로 99, 3층 (응암동)",37.5999206534002,126.918734184802,은평구
hospital,윤소아과의원,서울특별시 은평구 갈현로 255 (갈현동),37.6198297692617,126.915722961885,은평구
hospital,윤플란트치과의원,"서울특별시 은평구 응암로 173-1, 2,3층 (응암동)",37.5875949857295,126.916393135894,은평구
hospital,은덕한의원,"서울특별시 은평구 가좌로 241-1, 이서주택 2층 (응암동)",37.5909761400744,126.915760716832,은평구
hospital,은산부인과의원,"서울특별시 은평구 연서로 137, 4층 (구산동)",37.6111618859153,126.916842896021,은평구
hospital,은평경희부부한의원,"서울특별시 은평구 역말로 49 (역촌동, 2층)",37.6060307179,126.9157782836,은평구
hospital,은평경희한의원,"서울특별시 은평구 진흥로 103, 5층 (역촌동)",37.6061037577879,126.922441853941,은평구
hospital,은평구보건소,서울특별시 은평구 은평로 195 (녹번동),37.6025218387892,126.92882350898,은평구
hospital,은평뉴타운치과의원,"서울특별시 은평구 진관3로 21, 101동 214호 (진관동, 은평뉴타운엘크루)",37.6396025010646,126.919014455213,은평구
hospital,은평더맑은의원,"서울특별시 은평구 은평로 56, 2층 (신사동)",37.598534441063,126.914100158896,은평구
hospital,은평더바른신경외과의원,"서울특별시 은평구 연서로 252, 세종빌딩 2층 (불광동)",37.6194578069009,126.922920235945,은평구
hospital,은평등대신경과의원,"서울특별시 은평구 통일로 1030, 은평헤스티아 2층 201,202호 (진관동)",37.6341922549283,126.917695482942,은평구
hospital,은평바른치과의원,"서울특별시 은평구 서오릉로 166, 5층 (갈현동)",37.6127511228562,126.91520450204,은평구
hospital,은평바른한의원,"서울특별시 은평구 불광로 6, 2층(진료실) 3층(휴게공간) (대조동)",37.6092158340358,126.927489990346,은평구
hospital,은평밝은내과의원,"서울특별시 은평구 은평로 121, 5,10층 (응암동)",37.6004429362983,126.921092775909,은평구
hospital,은평베스트성모내과의원,"서울특별시 은평구 통일로 1034, 2층 211, 212호 (진관동, 은평 스카이뷰 자이)",37.6347753254476,126.918275695778,은평구
hospital,은평본정형외과의원,"서울특별시 은평구 은평로 56, 안건빌딩 1,2층 (신사동)",37.5985389900008,126.913913196798,은평구
hospital,은평삼성화외과의원,"서울특별시 은평구 진관2로 29-21, 드림스퀘어 3층 302,303호 (진관동)",37.635741734904,126.919341649662,은평구
hospital,은평서울정형외과의원,서울특별시 은평구 불광로 60 (불광동),37.6122935940935,126.932156008786,은평구
hospital,은평성모내과의원,"서울특별시 은평구 증산로 371, 은평신용협동조합 3층 (신사동)",37.5895376912069,126.912885066283,은평구
hospital,은평성모이비인후과의원,"서울특별시 은평구 연서로32길 3, 정원빌딩 4층 (불광동)",37.6203324491516,126.924960374223,은평구
hospital,은평성모정형외과의원,서울특별시 은평구 은평로 232 (응암동),37.6008986048994,126.933274884995,은평구
hospital,은평센트럴소아청소년과의원,"서울특별시 은평구 통일로 1050, 롯데몰 은평점 4층 4-41, 4-13호 (진관동)",37.6375366740938,126.917900261732,은평구
hospital,은평아이디의원,"서울특별시 은평구 통일로 869, 서연빌딩 5층 (갈현동)",37.6203691547897,126.919808968262,은평구
hospital,은평연세가정의학과의원,"서울특별시 은평구 서오릉로 217-5, 2층 (구산동)",37.6142717847225,126.909204413655,은평구
hospital,은평연세병원,서울특별시 은평구 연서로 177 (갈현동),37.6146922208583,126.917472218592,은평구
hospital,은평연세소아청소년과의원,"서울특별시 은평구 연서로 246, 2층 (불광동)",37.6190478329207,126.922607355291,은평구
hospital,은평오케이마취통증의학과의원,"서울특별시 은평구 은평로 116, 3층 (응암동, 위산 일리온시티)",37.599874221866,126.920675858475,은평구
hospital,은평요양병원,서울특별시 은평구 통일로 933 은평요양병원  (갈현동),37.6262388120656,126.919672163596,은평구
hospital,은평우리치과의원,"서울특별시 은평구 통일로 715, 3층 일부호 (대조동)",37.609413947696,126.930308376671,은평구
hospital,은평우태하피부과의원,"서울특별시 은평구 연서로 246, 타워크리닉 501,601호 (불광동)",37.6191641640994,126.922628189627,은평구
hospital,은평장수플란트치과의원,"서울특별시 은평구 통일로 870, B101호 (불광동)",37.6207009593107,126.92043138228,은평구
hospital,은평좋은한의원,"서울특별시 은평구 진흥로1길 36, 1층 (역촌동)",37.6037009444296,126.91861206994,은평구
hospital,은평진내과의원,"서울특별시 은평구 통일로 714, 2층 (불광동)",37.6097064547179,126.930999868352,은평구
hospital,은평치과의원,"서울특별시 은평구 통일로 731, 2층 (대조동)",37.6106226649216,126.929466316371,은평구
hospital,은평타임치과의원,"서울특별시 은평구 서오릉로 162, 5층 (갈현동)",37.6126730476242,126.91535501574,은평구
hospital,은평탑내과의원,"서울특별시 은평구 은평로 116, 2층 201,202호 (응암동, 위산 일리온시티)",37.5999064995321,126.920708890473,은평구
hospital,은평튼튼의원,"서울특별시 은평구 갈현로 15, 2층 (신사동)",37.599288316842,126.910011565606,은평구
hospital,은평포레스트한방병원,"서울특별시 은평구 통일로 636, 은평 미드스퀘어 4,5층 (녹번동)",37.603517115574,126.935311316206,은평구
hospital,은평플러스내과의원,"서울특별시 은평구 연서로 74, 보광빌딩 2층 (역촌동)",37.6057262353977,126.915724946615,은평구
hospital,은평한의원,"서울특별시 은평구 통일로 830, 파레제페빌딩 303호 (불광동)",37.6178204066692,126.922728691421,은평구
hospital,은평함소아한의원,"서울특별시 은평구 진관2로 15-46, 503호 (진관동, 메트로프라자)",37.6386523687318,126.919081540105,은평구
hospital,은평현대치과의원,"서울특별시 은평구 응암로 243, 2층 (응암동)",37.593711280425,126.91780496804,은평구
hospital,은평희망찬안과의원,"서울특별시 은평구 은평로 121 , 응암CO메디컬 7층  (응암동)",37.6004446486,126.9210933403,은평구
hospital,은혜내과의원,"서울특별시 은평구 진흥로 133, A동 1층 (대조동)",37.6081216793852,126.924765956495,은평구
hospital,은혜산부인과의원,"서울특별시 은평구 진흥로 133, D동 B2,B1,2~4층 (대조동)",37.6080404747367,126.92458483353,은평구
hospital,은혜소아청소년과의원,"서울특별시 은평구 진흥로 133, D동 1층 101호 (대조동)",37.608181221115,126.924885944901,은평구
hospital,응암굿모닝치과의원,"서울특별시 은평구 은평로 52, 2층 (신사동, 명성빌딩)",37.5984496505553,126.913596458611,은평구
hospital,응암보건지소,서울특별시 은평구 가좌로 195 (응암동),37.5880351231721,126.919507738389,은평구
hospital,응암서울정형외과의원,"서울특별시 은평구 응암로 264, 서울빌딩 5층 (응암동)",37.5952888457558,126.918874876038,은평구
hospital,응암서울정형외과의원,"서울특별시 은평구 응암로 264, 서울빌딩 5층 (응암동)",37.5952448863675,126.918887945621,은평구
hospital,응암연세이비인후과의원,"서울특별시 은평구 응암로 179, 3층 (응암동)",37.5880239345045,126.916373747925,은평구
hospital,응암연세치과의원,"서울특별시 은평구 응암로 184, 2층 (응암동)",37.5883514294039,126.916989541795,은평구
hospital,응암정한의원,서울특별시 은평구 응암로 184-1 (응암동),37.5885236300251,126.917147636854,은평구
hospital,응암효치과의원,"서울특별시 은평구 은평로 63, 4층 401호 (역촌동, 비앤케이 빌딩)",37.5990888092757,126.914830368627,은평구
hospital,의료법인모덕의료재단동민정신건강의학과의원,"서울특별시 은평구 은평로 227, 3층 (녹번동)",37.6004648346191,126.934990881043,은평구
hospital,의료법인성누가의료재단성누가병원,"서울특별시 은평구 통일로 726, 불광메디컬타워 1~12층 (불광동)",37.610530375217,126.930328513931,은평구
hospital,의료법인청구성심병원,서울특별시 은평구 통일로 873 (갈현동),37.6207915443588,126.919553991692,은평구
hospital,이가튼튼치과의원,"서울특별시 은평구 은평로 102, 7층 (응암동)",37.5995259145606,126.919106041551,은평구
hospital,이금자소아과의원,"서울특별시 은평구 갈현로 16, 2층 (신사동)",37.5992332607947,126.910359504004,은평구
hospital,이길완산부인과의원,"서울특별시 은평구 통일로 741, 신흥빌딩 (대조동)",37.6114267197887,126.928620213286,은평구
hospital,이노치과의원,"서울특별시 은평구 통일로 712-1, 진우빌딩 2층 (불광동)",37.6096770041355,126.931174308967,은평구
hospital,이도범치과의원,"서울특별시 은평구 증산로 393-1, 2층 (신사동)",37.591479346128,126.913398103141,은평구
hospital,이도범치과의원,"서울특별시 은평구 증산로 393-1, 2층 (신사동)",37.587800363809,126.911868203695,은평구
hospital,이레알찬정형외과의원,"서울특별시 은평구 연서로 134, 신성빌딩 4,5층 (역촌동)",37.6106665685,126.9174220773,은평구
hospital,이로여성의원,"서울특별시 은평구 은평로 240, 상가동 B2층 B201~204호 (응암동, 힐스테이트녹번역)",37.6006420540851,126.933685615511,은평구
hospital,이범정정신건강의학과의원,"서울특별시 은평구 통일로 863, 3층 (갈현동, 유화프라자)",37.6200314103,126.9199943028,은평구
hospital,이병석안과의원,"서울특별시 은평구 통일로 741-1  (대조동, Das Haus)",37.6114690446378,126.928701137603,은평구
hospital,이브산부인과의원,서울특별시 은평구 연서로 219 (갈현동),37.6183535951728,126.919735016533,은평구
hospital,이상각이비인후과의원,서울특별시 은평구 통일로 833  (대조동),37.6176968731164,126.921994786718,은평구
hospital,이선구장원철내과의원,"서울특별시 은평구 연서로 246, 6층 (불광동)",37.6190492759912,126.922609619188,은평구
hospital,이선화의원,서울특별시 은평구 가좌로 227 (응암동),37.5901416424483,126.916906370634,은평구
hospital,이쎈치과의원,"서울특별시 은평구 통일로67길 3, 5층 (대조동, 상일빌딩)",37.6109210559579,126.928838475621,은평구
hospital,이야기치과의원,"서울특별시 은평구 응암로 328, 2층 201호 (응암동)",37.6000848259053,126.92264025145,은평구
hospital,이엔유치과의원,"서울특별시 은평구 증산로 307, 2층 (증산동)",37.5845502389565,126.909992174293,은평구
hospital,이엔치과의원,"서울특별시 은평구 연서로 133, 2층 (구산동)",37.6107724507977,126.916803576385,은평구
hospital,이우요양병원,서울특별시 은평구 불광로13길 15 (불광동),37.6172143161916,126.932110648693,은평구
hospital,이윤진산부인과의원,"서울특별시 은평구 통일로 856, 메트로타워 9층 18호 (불광동)",37.6196226675938,126.921522873651,은평구
hospital,이윤치과의원,"서울특별시 은평구 가좌로 321, 4층 (신사동)",37.5960387326981,126.909330974886,은평구
hospital,이자경마취통증의학과의원,"서울특별시 은평구 통일로 714, 3층 (불광동)",37.6097090217011,126.931075520659,은평구
hospital,이재욱한의원,"서울특별시 은평구 응암로22길 22-1, 204호 (응암동, 합도빌딩)",37.593221672074,126.920648494389,은평구
hospital,이지웰치과의원,"서울특별시 은평구 증산로 397, 3층 (신사동)",37.5918040650289,126.913522957435,은평구
hospital,이태준김재민내과의원,"서울특별시 은평구 연서로 277, 지1,1,2층 (불광동)",37.621087124609,126.925115365742,은평구
hospital,이튼치과의원,서울특별시 은평구 은평로 170 (응암동),37.6010893852841,126.926662375326,은평구
hospital,이편한치과의원,"서울특별시 은평구 연서로 225, 2층 (갈현동)",37.6186530693241,126.919979469049,은평구
hospital,이피부과의원,"서울특별시 은평구 통일로 833 (대조동, 1통7반)",37.6176996367285,126.921986913483,은평구
hospital,이해진소아청소년과의원,서울특별시 은평구 은평로 142 (응암동),37.6004900107548,126.923483934255,은평구
hospital,인디애나치과의원,"서울특별시 은평구 통일로 780, 3층 (불광동, 미성상가)",37.6158621924384,126.928432696242,은평구
hospital,인수당한의원,서울특별시 은평구 은평로13길 25 (녹번동),37.6031750476665,126.924456115598,은평구
hospital,인의한의원,"서울특별시 은평구 통일로67길 3, 2층 (대조동)",37.6109226775,126.9288381343,은평구
hospital,인정병원,서울특별시 은평구 응암로 164 (응암동),37.5865882667176,126.91659126549,은평구
hospital,인제의원,"서울특별시 은평구 연서로 246, 7층 (불광동)",37.6190514961344,126.922560344579,은평구
hospital,일등경희한의원,"서울특별시 은평구 연서로 247-1, 1층 (불광동)",37.6195590926439,126.922392857469,은평구
hospital,일맥한의원,"서울특별시 은평구 통일로 861, 5층 (갈현동, 범일빌딩)",37.6198688571335,126.920261708034,은평구
hospital,임플라인치과의원,서울특별시 은평구 응암로 169 (응암동),37.5872158072184,126.916208443002,은평구
hospital,임현성내과의원,"서울특별시 은평구 진흥로 97, 2,3층 (역촌동)",37.6055927366324,126.922194914127,은평구
hospital,자명한의원,"서울특별시 은평구 은평로 197-1, 2층 (녹번동)",37.6018699732514,126.929571517179,은평구
hospital,자연과한의원,"서울특별시 은평구 연서로 252, 4층 (불광동, 세종빌딩)",37.6194567268,126.9229218228,은평구
hospital,자향한의원,"서울특별시 은평구 불광로 81, 2층 (불광동)",37.6143195517731,126.9321466929,은평구
hospital,장산한의원,서울특별시 은평구 불광로 102 (불광동),37.6158878473,126.9331555906,은평구
hospital,장소아과의원,"서울특별시 은평구 통일로69길 19-1, 2층 (대조동)",37.610878096,126.9266591067,은평구
hospital,재인치과의원,"서울특별시 은평구 진관1로 21-35, 204호 (진관동, 어드밴스힐오피스텔)",37.6335642024009,126.918640008744,은평구
hospital,정성채내과의원,"서울특별시 은평구 증산로 399, 2층 (신사동)",37.5919366895832,126.91352099232,은평구
hospital,정성치과의원,"서울특별시 은평구 통일로 863, 303호 (갈현동)",37.6200638888889,126.91995,은평구
hospital,정승기정형외과의원,서울특별시 은평구 통일로 710 (불광동),37.6093464629388,126.931228749429,은평구
hospital,정요한소아과의원,서울특별시 은평구 통일로87길 5 (갈현동),37.623256392814,126.919184321207,은평구
hospital,정원의원,"서울특별시 은평구 갈현로 255, 2층 (갈현동)",37.6198486904756,126.915723620152,은평구
hospital,정이비인후과의원,서울특별시 은평구 수색로 264-1 (수색동),37.5826302047674,126.895024704921,은평구
hospital,정치과보존과치과의원,"서울특별시 은평구 연서로32길 3, 정원빌딩 6층 (불광동)",37.6203628994073,126.924955472936,은평구
hospital,정한의원,"서울특별시 은평구 통일로 833-6, 3층 302호 (대조동, 대덕타워)",37.6176862682537,126.921528193667,은평구
hospital,정해원치과의원,"서울특별시 은평구 통일로 856, 6층 (불광동, 메트로타워)",37.6195813735299,126.921476270471,은평구
hospital,제너리스의원연신내점,"서울특별시 은평구 연서로 216, 1동 3층 301호 (대조동, 대조동아트캐슬주상복합)",37.6178000192821,126.920120155706,은평구
hospital,제이가정의학과의원,"서울특별시 은평구 가좌로 329, 2층 (신사동)",37.5963920134186,126.908632677038,은평구
hospital,제일가정의학과의원,"서울특별시 은평구 통일로 723, 2층 (대조동)",37.6100753723201,126.929714977261,은평구
hospital,제일경희한의원,서울특별시 은평구 통일로 725   (대조동),37.6101300809479,126.929885407102,은평구
hospital,제중한의원,"서울특별시 은평구 통일로 715, 5층 (대조동)",37.6082462218815,126.925089735448,은평구
hospital,젬마한의원,"서울특별시 은평구 갈현로 300, 2층 203호 (갈현동)",37.6236089884632,126.917419430143,은평구
hospital,조선치과의원,서울특별시 은평구 통일로 852 (불광동),37.6193583344164,126.921277242022,은평구
hospital,조성만치과의원,서울특별시 은평구 서오릉로 209 (구산동),37.6138694444445,126.910558333333,은평구
hospital,조소아과의원,"서울특별시 은평구 응암로22길 8, 2층 (응암동)",37.5935831586379,126.918845475902,은평구
hospital,조은내과의원,"서울특별시 은평구 갈현로 258, 2층 (갈현동)",37.6199088855061,126.916115696298,은평구
hospital,조은성모의원,서울특별시 은평구 통일로87길 12-1 (갈현동),37.6235532006641,126.91830146268,은평구
hospital,조은이비인후과의원,"서울특별시 은평구 연서로 246, 2층 (불광동)",37.6190478329207,126.922607355291,은평구
hospital,조응휘미치과의원,"서울특별시 은평구 연서로 86, 2층 (역촌동, 에스디빌딩)",37.6068522740815,126.915573505147,은평구
hospital,조이내과의원,"서울특별시 은평구 진관2로 15-46, 603호 (진관동, 메트로프라자)",37.6386515578411,126.919081540985,은평구
hospital,조이치과의원,"서울특별시 은평구 은평로 119, 5층 (응암동)",37.6005198145959,126.920903314186,은평구
hospital,조피부과의원,"서울특별시 은평구 은평로 136, 302호 (응암동, 은경빌딩)",37.6002632124439,126.923039015434,은평구
hospital,좋은날피부과의원,"서울특별시 은평구 갈현로 8 (신사동, 신창빌딩)",37.5985454785523,126.910404378951,은평구
hospital,좋은이비인후과의원,"서울특별시 은평구 역말로 40, 3층 (역촌동, 무궁화빌딩)",37.6056339391965,126.914673304323,은평구
hospital,주안과의원,"서울특별시 은평구 응암로 215, 201호 (응암동, 명남더블레스아파트2차)",37.5912229367393,126.917054062611,은평구
hospital,주홍돈내과의원,"서울특별시 은평구 은평터널로 16, DMC파인시티자이 상가동 1층 301,302호 (수색동)",37.5836207994979,126.897742421372,은평구
hospital,준이비인후과의원,서울특별시 은평구 연서로 137 (구산동),37.6111618859153,126.916842896021,은평구
hospital,중국중화한의원,"서울특별시 은평구 연서로 257, 2층 (불광동)",37.6201596738599,126.923192948387,은평구
hospital,중앙산부인과의원,"서울특별시 은평구 은평로 136, 303호 (응암동, 은경빌딩)",37.6002621327384,126.923041281369,은평구
hospital,증산밝은미소치과의원,"서울특별시 은평구 증산로3길 6, VISARIM빌딩 4층 (증산동)",37.5808132578293,126.905581416716,은평구
hospital,증산의원,서울특별시 은평구 증산서길 95 (증산동),37.5847415813548,126.907507722116,은평구
hospital,지성마취통증의학과의원,서울특별시 은평구 통일로 863 (갈현동),37.6200299694648,126.919995437081,은평구
hospital,지앤선소아청소년과의원,"서울특별시 은평구 진관2로 15-46, 705,706호 (진관동, 메트로프라자)",37.6386515578411,126.919081540985,은평구
hospital,지음치과의원,"서울특별시 은평구 응암로 308, 302호 (응암동)",37.5987005252996,126.921385073596,은평구
hospital,지인한의원,"서울특별시 은평구 진흥로1길 28, 212호 (역촌동, 아그네스 풍림아이원)",37.6029587691711,126.918961673914,은평구
hospital,지혜소아청소년과의원,"서울특별시 은평구 연서로 35, 1층 (역촌동)",37.6022659568562,126.915561701676,은평구
hospital,진서울치과의원,"서울특별시 은평구 은평로 170, 3층 304호 (응암동, 상현빌딩)",37.6010893852841,126.926662375326,은평구
hospital,진선두한의원,서울특별시 은평구 은평로 18-5 &#40;신사동&#41;,37.597571770403,126.9102799873,은평구
hospital,진이비인후과의원,"서울특별시 은평구 불광로 60, 불광동라비앙프라자 202호 (불광동)",37.6122935940935,126.932156008786,은평구
hospital,찬스신경과의원,"서울특별시 은평구 은평로 170, 상현빌딩 404호 (응암동)",37.6010893852841,126.926662375326,은평구
hospital,참경희한의원,"서울특별시 은평구 진관2로 67, 203동 B106호 (진관동, 은평뉴타운 우물골)",37.6347418761,126.9241794559,은평구
hospital,참명인한의원,"서울특별시 은평구 은평로 104, 3층 (응암동)",37.5996578499,126.9194136857,은평구
hospital,참미소치과의원,서울특별시 은평구 증산로 297 (증산동),37.5838222894398,126.909237445391,은평구
hospital,참뿌리한의원,"서울특별시 은평구 진흥로 150, 2,4(전체)층 (녹번동)",37.6086436330171,126.926643180234,은평구
hospital,참조은이비인후과의원,"서울특별시 은평구 은평로 121, 3층 (응암동)",37.6004493355977,126.921096166394,은평구
hospital,참조은플란트치과의원,"서울특별시 은평구 연서로 73, 6층 (역촌동)",37.6056445849365,126.915067513095,은평구
hospital,참좋은한의원,"서울특별시 은평구 응암로12길 11, 2층 (응암동)",37.5880123090237,126.918039831726,은평구
hospital,참편한마취통증의학과의원,"서울특별시 은평구 은평로 52, 4층 (신사동, 명성빌딩)",37.5984496505553,126.913596458611,은평구
hospital,채희재피부과의원,"서울특별시 은평구 서오릉로 140, 2층 (대조동)",37.6113251377512,126.917603128121,은평구
hospital,척척마디의원,"서울특별시 은평구 통일로 830, 파레제페빌딩 4층 401,402호 (불광동)",37.6178200449338,126.922726652975,은평구
hospital,척척마취통증의학과의원,"서울특별시 은평구 연서로 213, 성보빌딩 3층 (갈현동)",37.6176436383991,126.919238535247,은평구
hospital,청구경희한의원,"서울특별시 은평구 서오릉로 169, 1층 (구산동)",37.6124772461035,126.914457201545,은평구
hospital,청담부부한의원,"서울특별시 은평구 은평로 219, 1층 (녹번동)",37.601413736,126.9320723512,은평구
hospital,청담세브란스치과의원,"서울특별시 은평구 역말로 110, 1층 (대조동)",37.6090852049592,126.921053520886,은평구
hospital,청담한의원,"서울특별시 은평구 불광로 60, 302호 (불광동, 라비앙프라자)",37.6122613320642,126.932112289353,은평구
hospital,최내과의원,"서울특별시 은평구 증산로9길 3, 2층 (증산동)",37.5846619505596,126.909859009186,은평구
hospital,최성환이비인후과의원,"서울특별시 은평구 갈현로 8, 402호 (신사동,신창메디칼빌딩)",37.5985454785523,126.910404378951,은평구
hospital,최씨명가한의원,"서울특별시 은평구 증산로 297, 301호 (증산동, 청록빌딩)",37.5838218384273,126.909236766641,은평구
hospital,최원종치과의원,서울특별시 은평구 은평로 235 (녹번동),37.6007839709603,126.934102406166,은평구
hospital,최원호병원,"서울특별시 은평구 서오릉로 45, 최원호병원 (녹번동)",37.604769594378,126.923855760856,은평구
hospital,최윤영산부인과의원,서울특별시 은평구 통일로 731 (대조동),37.6106226649216,126.929466316371,은평구
hospital,최태식치과의원,서울특별시 은평구 연서로 270 (불광동),37.620338110681,126.924654535143,은평구
hospital,최효순마취통증의학과의원,"서울특별시 은평구 응암로4길 24, 2층 (응암동)",37.5869647211592,126.917388034696,은평구
hospital,치아나라치과의원,"서울특별시 은평구 통일로83길 6-5, 3층 (갈현동, 삼양빌딩)",37.6212342178056,126.918922584191,은평구
hospital,치유정신건강의학과의원,"서울특별시 은평구 은평로 121, 13층 (응암동)",37.6004493355977,126.921096166394,은평구
hospital,친절한홍치과의원,"서울특별시 은평구 은평로 114, 2층 (응암동)",37.5998770133044,126.920405776691,은평구
hospital,코앤코이비인후과의원,"서울특별시 은평구 연서로 222 (대조동, 유니온빌딩 302호)",37.6181350027991,126.920381220522,은평구
hospital,쾌통한의원,"서울특별시 은평구 진관2로 57-7, 253동 1층 B103호 (진관동, 은평뉴타운우물골)",37.6343404931846,126.92308731488,은평구
hospital,클린성모외과의원,"서울특별시 은평구 은평로 97 (응암동, 동아빌딩 3층)",37.5998770412187,126.918466757953,은평구
hospital,키즈앤맘치과의원,"서울특별시 은평구 북한산로 2, 1028동 상가114호 (진관동, 은평뉴타운 구파발)",37.6422433283206,126.916235958975,은평구
hospital,타임한의원,"서울특별시 은평구 서오릉로 175, 201호 (구산동, 엘타워)",37.6126534907,126.9139767774,은평구
hospital,텐성형외과,"서울특별시 은평구 은평로 104, 4층 (응암동)",37.5996580290455,126.919412213423,은평구
hospital,토끼씨한의원,"서울특별시 은평구 은평로 233, 2층 (녹번동)",37.6012413180321,126.933552363192,은평구
hospital,튼튼소아과의원,"서울특별시 은평구 은평터널로 196, 2층 (신사동)",37.5958276437388,126.909113934102,은평구
hospital,파랑새소아청소년과의원,"서울특별시 은평구 은평로 220, 상가A동 119.120호 (응암동, 녹번역e편한세상캐슬)",37.6005343844723,126.932098856535,은평구
hospital,파스텔비뇨의학과의원,"서울특별시 은평구 진관2로 12, 206호 (진관동, 메이플카운티2차)",37.6342576294538,126.918550997661,은평구
hospital,팜스치과의원,"서울특별시 은평구 불광로 20, 15층 에이-007호 (대조동, 팜스퀘어)",37.6097357749976,126.928938477038,은평구
hospital,편한마음정신과의원,"서울특별시 은평구 서오릉로 140, 3층 (대조동)",37.6113251377512,126.917603128121,은평구
hospital,편한연세내과의원,"서울특별시 은평구 응암로 235, 3층 (응암동, 대성빌딩)",37.5930153082521,126.917609392344,은평구
hospital,평화한의원,"서울특별시 은평구 진흥로 156, 2층 (녹번동, 신명빌딩)",37.6087483560014,126.926982860292,은평구
hospital,푸른정형외과의원,서울특별시 은평구 증산로 295 (증산동),37.5837074196874,126.909012284833,은평구
hospital,푸른치과의원,"서울특별시 은평구 통일로 687, 2층 (녹번동)",37.6075379014577,126.932153193667,은평구
hospital,프라임치과의원,"서울특별시 은평구 은평로 108, 3층 (응암동)",37.5997123185996,126.919882555261,은평구
hospital,프리즘의원,"서울특별시 은평구 수색로 191, 두빌191 401호 (증산동)",37.5782509235095,126.901072414948,은평구
hospital,하나경희한의원,"서울특별시 은평구 진관2로 19, 501호 (진관동, 휴먼프라자I)",37.6348541597258,126.919584151133,은평구
hospital,하나내과의원,"서울특별시 은평구 진관2로 19, 휴먼프라자 I 5층 501,502호 (진관동)",37.6348535294175,126.919584718281,은평구
hospital,하나제통의원,"서울특별시 은평구 진관2로 29-21, 드림스퀘어 406호 (진관동)",37.635741734904,126.919341649662,은평구
hospital,하나치과의원,"서울특별시 은평구 연서로 284, 2층 (불광동)",37.6210233256623,126.925957725279,은평구
hospital,하나효요양병원,"서울특별시 은평구 서오릉로 149, 세웅그룹빌딩 3~9층 (구산동)",37.6115932839556,126.916212472705,은평구
hospital,하늘마음한의원,"서울특별시 은평구 진관2로 19, 휴먼프라자 I 305호 (진관동)",37.6348234721707,126.919504878679,은평구
hospital,하늘향기한의원,"서울특별시 은평구 통일로 857, 동우빌딩 2층 (갈현동)",37.619588385198,126.920379897212,은평구
hospital,하솜치과의원,서울특별시 은평구 서오릉로 94 (대조동),37.6095200026749,126.921700201605,은평구
hospital,한결치과의원,"서울특별시 은평구 갈현로 259, 3층 (갈현동)",37.6201474341482,126.915942916042,은평구
hospital,한국영상의학과의원,"서울특별시 은평구 통일로 599, B01,101,202,203호 (응암동)",37.6001622739455,126.935799232347,은평구
hospital,한국효요양병원,"서울특별시 은평구 은평로 170, 6층,7층,8층 (응암동, 상현빌딩동)",37.6010897468116,126.926664186849,은평구
hospital,한마음의원,서울특별시 은평구 증산서길 158 (증산동),37.5884841970115,126.912451197592,은평구
hospital,한마음이비인후과의원,"서울특별시 은평구 은평로 136, 1,2층 (응암동)",37.6002632124439,126.923039015434,은평구
hospital,한마음치과의원,서울특별시 은평구 통일로 822  (불광동),37.6173185244927,126.923232003212,은평구
hospital,한빛내과의원,"서울특별시 은평구 진흥로1길 23, 2층 (역촌동)",37.6025538495286,126.918417293128,은평구
hospital,한빛성모안과의원,"서울특별시 은평구 통일로 856, 3001,3002호 (불광동, 메트로타워)",37.6196226675938,126.921522873651,은평구
hospital,한빛한의원,"서울특별시 은평구 갈현로 223, 101호 (갈현동)",37.6170364575288,126.914751023275,은평구
hospital,한사랑의원,"서울특별시 은평구 갈현로 260, 2층 (갈현동)",37.6200076968352,126.916204503107,은평구
hospital,한사랑한의원,"서울특별시 은평구 은평로 136, 203호 (응암동, 은경빌딩)",37.6002256427855,126.922905718343,은평구
hospital,한세성모안과의원,"서울특별시 은평구 은평로 240, 힐스테이트녹번역 B102호 (응암동)",37.6004214734002,126.934948113512,은평구
hospital,한양재활의학과의원,"서울특별시 은평구 서오릉로 196, 3층 (갈현동)",37.6138570459169,126.912041219513,은평구
hospital,한윤갑한의원,"서울특별시 은평구 응암로 200, 2층 (응암동)",37.5896266087659,126.917381922346,은평구
hospital,할아버지한의원,"서울특별시 은평구 통일로 842 (불광동,2층)",37.6183997197587,126.922116367347,은평구
hospital,함공식의원,서울특별시 은평구 통일로 741 이연빌딩 5층 (대조동),37.6114268242168,126.928611590744,은평구
hospital,함박웃음치과의원,"서울특별시 은평구 연서로 211, 3층 (갈현동)",37.6174238233872,126.91914498776,은평구
hospital,해모수한의원,"서울특별시 은평구 통일로 833-4, 1층 (대조동)",37.6177837072758,126.9217274425,은평구
hospital,해바람한의원,"서울특별시 은평구 진관2로 19, 휴먼프라자 I 510호 (진관동)",37.6348217057,126.9195569956,은평구
hospital,햇님치과의원,"서울특별시 은평구 갈현로 8, 5층 (신사동)",37.5985454785523,126.910404378951,은평구
hospital,헤리플란트치과의원,서울특별시 은평구 통일로 842 (불광동),37.6186902335511,126.922063807625,은평구
hospital,현대치과의원,서울특별시 은평구 통일로87길 7 (갈현동),37.6232781911475,126.918913567772,은평구
hospital,현명한플란트치과의원,"서울특별시 은평구 갈현로 300, 302,302-1호 (갈현동)",37.623608356,126.9174168255,은평구
hospital,현부부치과의원,서울특별시 은평구 진흥로 103 (역촌동),37.6060733736923,126.922406417484,은평구
hospital,호담한의원,"서울특별시 은평구 진관2로 12, 204호 (진관동, 메이플카운터2차)",37.634262408197,126.918556090619,은평구
hospital,홍가정의학과의원,"서울특별시 은평구 갈현로 81 (역촌동, 그린빌딩)",37.6053085057319,126.910304423213,은평구
hospital,홍비뇨기과의원,서울특별시 은평구 통일로 863 (갈현동),37.6200299694648,126.919995437081,은평구
hospital,홍석호내과의원,"서울특별시 은평구 통일로 730, 3층 301호 (불광동, 보광빌딩)",37.6108142265488,126.930091088595,은평구
hospital,홍선생치과교정과치과의원,"서울특별시 은평구 통일로 869, 서연빌딩 2층 (갈현동)",37.6203691547897,126.919808968262,은평구
hospital,홍익안과의원,"서울특별시 은평구 은평로 178, 3층 (응암동)",37.6004650509215,126.923758683669,은평구
hospital,화이트치과의원,서울특별시 은평구 응암로 240 (응암동),37.5932350625292,126.918130803119,은평구
hospital,화인마취통증의학과의원,"서울특별시 은평구 통일로 855-8, 6층 601,602호 (갈현동, 연신내진원와이타운)",37.619122183963,126.920201767929,은평구
hospital,활기찬정형외과의원,"서울특별시 은평구 통일로 875 (갈현동, B1층일부,2~5층,6층일부)",37.6211411828,126.9196351714,은평구
hospital,활기찬정형외과의원,"서울특별시 은평구 통일로 875 (갈현동, B1층일부,2~5층,6층일부)",37.6211399212404,126.919634946205,은평구
hospital,황이숙내과의원,서울특별시 은평구 연서로 257 (불광동),37.6201604854063,126.923193966994,은평구
hospital,황정욱한의원,서울특별시 은평구 연서로 270-1 (불광동),37.6204201492913,126.924730910782,은평구
hospital,황치과의원,"서울특별시 은평구 진관2로 19, 휴먼프라자 I (진관동)",37.6348535294175,126.919584718281,은평구
hospital,효인한의원,"서울특별시 은평구 연서로 274, 2층 (불광동)",37.6205752618862,126.925096849461,은평구
hospital,휴란트치과의원,"서울특별시 은평구 가좌로 325, 3층 (신사동)",37.5958773913497,126.909482451977,은평구
hospital,휴림내과의원,"서울특별시 은평구 연서로 209, JC빌딩 4층 (갈현동)",37.6173259520379,126.918847427928,은평구
hospital,휴먼피부과의원,"서울특별시 은평구 통일로 739, 2층 (대조동, 오산상가)",37.6112505744503,126.928733624656,은평구
hospital,힘튼의원,"서울특별시 은평구 은평로 170, 305호 (응암동, 상현빌딩)",37.6010893852841,126.926662375326,은평구
hospital,(의)열린의료재단구로열린의원,"서울특별시 구로구 구로중앙로 68, 208, 209, 210호 (구로동, 신안타워)",37.495860314768,126.888807280468,구로구
hospital,365더튼튼의원,서울특별시 구로구 경인로 191   (오류동),37.4956274938619,126.842328273392,구로구
hospital,365서울한의원,"서울특별시 구로구 도림로26길 10, 해맑은미소 5,6층 (구로동)",37.4909734883501,126.89426342919,구로구
hospital,88흉부외과의원,"서울특별시 구로구 가마산로 246, 5층 (구로동)",37.4946886322524,126.888315077346,구로구
hospital,S아이니의원,"서울특별시 구로구 도림로 90, 혜성빌딩 5층 (구로동)",37.4903802355667,126.893428188402,구로구
hospital,e-서울이비인후과의원,"서울특별시 구로구 디지털로 288, 대륭포스트타워1차 211호 (구로동)",37.4835695693308,126.895502765348,구로구
hospital,가람한의원,"서울특별시 구로구 가마산로 271, 202호 (구로동)",37.4963996027511,126.890291049446,구로구
hospital,가리봉의원,"서울특별시 구로구 남부순환로105길 42, 가리봉의원 (가리봉동)",37.4795609348211,126.890378984834,구로구
hospital,가이치과의원,"서울특별시 구로구 경인로 661, 신도림1차푸르지오 101동 13층 1307~1326호 (신도림동)",37.5096619486431,126.887986372819,구로구
hospital,감초당청담한의원,"서울특별시 구로구 개봉로 49, 3층 (개봉동)",37.4901115492118,126.855811690268,구로구
hospital,감초한의원,"서울특별시 구로구 구일로8길 56, 구일프라자 (구로동)",37.4956430032775,126.874093357378,구로구
hospital,강남리즈의료생활협동조합강남리즈의원,"서울특별시 구로구 도림로23길 2, 한호빌딩 2층 (구로동)",37.4911043116113,126.893557762631,구로구
hospital,강남삼성신경외과의원,"서울특별시 구로구 디지털로34길 55 (구로동, 코오롱싸이언스밸리2차)",37.4842856391064,126.899282125859,구로구
hospital,강내과의원,서울특별시 구로구 중앙로8길 30 (고척동),37.5027670275518,126.864286574719,구로구
hospital,강상훈치과의원,"서울특별시 구로구 오리로 1289, 3층 (궁동)",37.4965565185541,126.829358264209,구로구
hospital,강서내과의원,"서울특별시 구로구 개봉로 57, 3층 (개봉동)",37.4907685069168,126.855765423363,구로구
hospital,강서효요양병원,"서울특별시 구로구 개봉로19길 3 (개봉동, 강서진료병원)",37.4927023561283,126.855696635029,구로구
hospital,강충희치과의원,"서울특별시 구로구 구로동로26길 37, 2층 (구로동)",37.4902679096097,126.886213943676,구로구
hospital,강한의원,"서울특별시 구로구 개봉로23길 42-1, 지하1층, 1층일부, 2층 (개봉동)",37.4962286711423,126.856713668182,구로구
hospital,개봉웰치과의원,서울특별시 구로구 개봉로 72 (개봉동),37.4920105958203,126.856325030026,구로구
hospital,개봉치과의원,서울특별시 구로구 고척로 134 (개봉동),37.5022316687641,126.848795513571,구로구
hospital,개봉한의원,"서울특별시 구로구 개봉로 55, 홍인빌딩 2층 (개봉동)",37.4906780010754,126.856326246059,구로구
hospital,건강드림내과의원,"서울특별시 구로구 천왕로 106, 골드프라자 (천왕동)",37.4860407392631,126.838559499205,구로구
hospital,건강세상의원,"서울특별시 구로구 구로동로 77, 동해빌딩 1,2,3층 (구로동)",37.4855477290698,126.88557910404,구로구
hospital,건강한정형외과의원,서울특별시 구로구 오리로 1149 (천왕동),37.4866176885737,126.838255231876,구로구
hospital,경인경희한의원,"서울특별시 구로구 고척로6길 58-1, 4층 (오류동)",37.4960596566,126.8428318306,구로구
hospital,경희가족사랑한의원,"서울특별시 구로구 경인로 203-2, 2층 (오류동)",37.4961716531618,126.843579757918,구로구
hospital,경희길한의원,"서울특별시 구로구 경인로47길 107, 204호 (고척동)",37.5034016554,126.8636258579,구로구
hospital,경희동의보감한의원,"서울특별시 구로구 경인로19길 12, 은하수빌딩 1층 (오류동)",37.4962225971403,126.842730865042,구로구
hospital,경희맥한의원,"서울특별시 구로구 중앙로 63, 2층 (고척동)",37.5032194984682,126.861947888939,구로구
hospital,경희바른한의원,"서울특별시 구로구 경인로47다길 3, 2층 (고척동)",37.5036470412,126.8638968397,구로구
hospital,경희배흘림한의원,"서울특별시 구로구 디지털로33길 27, 삼성IT밸리 202,203호/디지털로33길11, 201호 (구로동)",37.4860583246714,126.894356060955,구로구
hospital,경희본한의원,"서울특별시 구로구 고척로 137, 2층 (고척동)",37.5027244185712,126.849069676674,구로구
hospital,경희송한의원,"서울특별시 구로구 시흥대로 571, 부호빌딩 2층 (구로동)",37.48397178331,126.901809898362,구로구
hospital,경희수한의원,"서울특별시 구로구 천왕로 106, 골드프라자 401,402호 (오류동)",37.4859774566894,126.838866163712,구로구
hospital,경희연한의원,"서울특별시 구로구 개봉로3길 26, 2층 (개봉동)",37.4864507125929,126.854892238227,구로구
hospital,경희윤한의원,서울특별시 구로구 구로동로28길 87 (구로동),37.4916362842035,126.888688931661,구로구
hospital,경희팔료한의원,"서울특별시 구로구 경인로 661, 신도림1차푸르지오 253호 (신도림동)",37.5096619486431,126.887986372819,구로구
hospital,경희푸른숲한의원,"서울특별시 구로구 서해안로 2096, 604호 (항동)",37.4797783622002,126.822891009792,구로구
hospital,경희햇살부부한의원,"서울특별시 구로구 구로동로26길 37, 5층 (구로동)",37.490267279893,126.886214962304,구로구
hospital,경희희망한의원,"서울특별시 구로구 고척로 132, 서정빌딩 3층 (개봉동)",37.5022170744446,126.848656325688,구로구
hospital,고고한의원,"서울특별시 구로구 경인로 204, 2,12층 (오류동)",37.4956897995191,126.843855441547,구로구
hospital,고광송일반외과의원,서울특별시 구로구 고척로 148 (고척동),37.502797289544,126.850186217561,구로구
hospital,고려MS영상의학과의원,"서울특별시 구로구 구로중앙로 68, 4층409,410호 (구로동,신인타워)",37.495860314768,126.888807280468,구로구
hospital,고려가정의학과의원,"서울특별시 구로구 개봉로 23, 고려크리닉센터 3층 (개봉동)",37.4877650696629,126.85604415167,구로구
hospital,고려대학교의과대학부속구로병원,"서울특별시 구로구 구로동로 148, 고려대부속구로병원 (구로동)",37.4921111452505,126.884744936355,구로구
hospital,고려센트럴재활의학과의원,"서울특별시 구로구 경인로47길 95-1, 정형빌딩 2층 (고척동)",37.5028399402956,126.863835424584,구로구
hospital,고려제일정신과의원,"서울특별시 구로구 구로동로 240, 세일빌딩 2층 (구로동)",37.5000087655668,126.88269870264,구로구
hospital,고려치과의원,"서울특별시 구로구 개봉로 23, 5층 (개봉동)",37.4877650696629,126.85604415167,구로구
hospital,고려튼튼외과의원,"서울특별시 구로구 구로동로 153, 3층 (구로동)",37.4923558955247,126.883433466627,구로구
hospital,고려한사랑정형외과의원,"서울특별시 구로구 고척로27길 7, 고려한사랑정형외과 (개봉동)",37.5023815136278,126.84733042944,구로구
hospital,고려한의원,서울특별시 구로구 구로동로 14 (가리봉동),37.4829962253712,126.887235763615,구로구
hospital,고운니치과의원,"서울특별시 구로구 오류로 70, 새마을금고회관 2층 (오류동)",37.4907578266814,126.840851000753,구로구
hospital,고은경희한의원,"서울특별시 구로구 디지털로34길 43, 205호 (구로동, 코오롱싸이언스밸리1차)",37.4851520949372,126.898809246391,구로구
hospital,고척성모의원,서울특별시 구로구 중앙로15길 29 (고척동),37.5063474598843,126.858167652089,구로구
hospital,고척으뜸내과의원,"서울특별시 구로구 경인로43길 49, B동 201호 (고척동, 고척아이파크)",37.4990691887707,126.857532971967,구로구
hospital,고척으뜸내과의원,"서울특별시 구로구 경인로43길 49, B동 201호 (고척동, 고척아이파크)",37.4991318775075,126.857590075507,구로구
hospital,고척탑정형외과의원,"서울특별시 구로구 경인로 387, 3~4층 (고척동)",37.4970868505034,126.863142594513,구로구
hospital,골드맥치과의원,"서울특별시 구로구 경인로47길 95-1, 정형빌딩 3층 (고척동)",37.5028399402956,126.863835424584,구로구
hospital,공감치과의원,"서울특별시 구로구 디지털로30길 28, 302호 (구로동)",37.4821079378772,126.895281502292,구로구
hospital,곽승민의원,"서울특별시 구로구 구로동로 135, 남부빌딩 4층 (구로동)",37.4906411011165,126.88370977403,구로구
hospital,구디마리오한의원,"서울특별시 구로구 디지털로30길 28, 마리오타워 306호 (구로동)",37.4821089289,126.8952813878,구로구
hospital,구로경희한의원,"서울특별시 구로구 디지털로26길 123, 지플러스타워 2층 201호 (구로동)",37.4830823343746,126.897699487349,구로구
hospital,구로고척케어빌한의원,"서울특별시 구로구 고척로 237, 3층 (고척동)",37.5065807511006,126.859321185009,구로구
hospital,구로구G밸리보건지소,"서울특별시 구로구 디지털로 243, 지하이시티 211,212호 (구로동)",37.4819873580879,126.892346457165,구로구
hospital,구로구보건소,"서울특별시 구로구 구로중앙로28길 66 (구로동, 구로5동 주민센터, 구로구보건소)",37.5001092837881,126.889364601049,구로구
hospital,구로구오류보건지소,"서울특별시 구로구 오리로10길 44-3, 1~3층 (오류동)",37.4887928445,126.8393372829,구로구
hospital,구로나르샤정형외과의원,"서울특별시 구로구 구로동로 78, 시몬빌딩 3,4층 (구로동)",37.4858241548644,126.885855021118,구로구
hospital,구로리더스정형외과의원,"서울특별시 구로구 구로중앙로 68, 4층 (구로동, 신안타워)",37.495860314768,126.888807280468,구로구
hospital,구로바로본365의원,"서울특별시 구로구 고척로 140, 제일빌딩 6,7층 (고척동)",37.5023805002833,126.8496311977,구로구
hospital,구로바른재활의학과의원,"서울특별시 구로구 디지털로31길 62, 아티스포럼 207~214호 (구로동)",37.4863155666722,126.892484748869,구로구
hospital,구로밝은빛안과의원,서울특별시 구로구 구로동로26길 37,37.4902679096097,126.886213943676,구로구
hospital,구로삼성정형외과의원,"서울특별시 구로구 경인로 204, 501,601호 (오류동)",37.4957072365586,126.843891478732,구로구
hospital,구로삼성탑정형외과의원,"서울특별시 구로구 시흥대로 561, 동해빌딩 2층 (구로동)",37.4832605046509,126.901242115542,구로구
hospital,구로성모의원,"서울특별시 구로구 가마산로 220, 동성빌딩 2층 (구로동)",37.4934671192585,126.885629363218,구로구
hospital,구로성모정형외과의원,"서울특별시 구로구 구로동로 135, 남부빌딩 2층 (구로동)",37.4906411011165,126.88370977403,구로구
hospital,구로성심병원,"서울특별시 구로구 경인로 427, 구로성심병원 (고척동)",37.4996457866939,126.866360395565,구로구
hospital,구로성심치과의원,"서울특별시 구로구 중앙로 10-15 (고척동, 구로성심병원별관)",37.5000380217121,126.86574878652,구로구
hospital,구로세란의원,"서울특별시 구로구 디지털로 227, 새안빌딩 3층 (가리봉동)",37.4804629735182,126.890907692931,구로구
hospital,구로센트럴이비인후과의원,"서울특별시 구로구 경인로 176, 4층 (오류동, 시티월드)",37.4943907298586,126.841018680923,구로구
hospital,구로에이스정형외과의원,"서울특별시 구로구 구로동로 115, 청보빌딩 4층 (구로동)",37.4887698909785,126.884261981664,구로구
hospital,구로에이스치과의원,"서울특별시 구로구 경인로 572, 스타팰리스 407호 (구로동)",37.5033062723055,126.881083869229,구로구
hospital,구로연세소아과의원,"서울특별시 구로구 경인로 373, 문화골든타워 2층 (고척동)",37.4969063722102,126.861897972524,구로구
hospital,구로연세의원,"서울특별시 구로구 구로중앙로 16, 2,3층 (구로동)",37.4918309507861,126.892042966311,구로구
hospital,구로우리들의원,"서울특별시 구로구 구로중앙로 57, 남정빌딩 2,3층 (구로동)",37.4945731246149,126.888985708864,구로구
hospital,구로우태하피부과의원,"서울특별시 구로구 남부순환로97길 3, KS프리미어빌딩 401호 (개봉동)",37.49399577225,126.858255129585,구로구
hospital,구로유디치과의원,"서울특별시 구로구 디지털로 273, 에이스트윈타워2차 2층 204호 (구로동)",37.4865238199567,126.893713287059,구로구
hospital,구로의원,서울특별시 구로구 구로동로 128 (구로동),37.4900851944928,126.884282813852,구로구
hospital,구로이편한치과의원,"서울특별시 구로구 도림로 73, 인성빌딩 4층 일부호 (구로동)",37.4898550054825,126.891511081857,구로구
hospital,구로정성한의원,"서울특별시 구로구 구로동로 126, 2층 (구로동)",37.4897790600739,126.884487929834,구로구
hospital,구로정형외과의원,"서울특별시 구로구 가마산로 211, 외5필지동 4,5,6층 (구로동)",37.4935875656885,126.88452831432,구로구
hospital,구로제일의원,"서울특별시 구로구 공원로8길 23, 2,3층 (구로동)",37.5033714694816,126.890555103288,구로구
hospital,구로제일의원,"서울특별시 구로구 공원로8길 23, 2,3,4층 (구로동)",37.5033720109293,126.890556007254,구로구
hospital,구로제일정형외과의원,"서울특별시 구로구 구로동로 118, 2층 (구로동)",37.4890325684679,126.884665134021,구로구
hospital,구로좋은치과의원,"서울특별시 구로구 구로동로 115, 청보빌딩 402호 (구로동)",37.4887698909785,126.884261981664,구로구
hospital,구로중앙외과의원,서울특별시 구로구 구로동로 188 (구로동),37.4953874750398,126.882940125019,구로구
hospital,구로중앙치과의원,서울특별시 구로구 구로동로 116 (구로동),37.4888305603865,126.884662843929,구로구
hospital,구로척척의원,"서울특별시 구로구 도림로 81, 4층 (구로동)",37.4902543055104,126.892171200851,구로구
hospital,구로튼튼의원,"서울특별시 구로구 도림로 67 (구로동,2층)",37.4895224344356,126.891011550623,구로구
hospital,구로플러스치과의원,"서울특별시 구로구 고척로 132, 서정빌딩 2층 (개봉동)",37.5022170744446,126.848656325688,구로구
hospital,구로한의원,서울특별시 구로구 구로동로26길 36 (구로동),37.4900183638821,126.88597564239,구로구
hospital,구로항유외과의원,"서울특별시 구로구 남부순환로97길 3, KS프리미어빌딩 201호 (개봉동)",37.49399577225,126.858255129585,구로구
hospital,구로현대의원,서울특별시 구로구 구로동로 179 (구로동),37.4944529165006,126.882542067811,구로구
hospital,구일가정의원,서울특별시 구로구 구일로10길 49,37.495744201061,126.874445893777,구로구
hospital,구일굿모닝내과의원,"서울특별시 구로구 구일로 110, 해원리버파크 3층 (구로동)",37.4950748401596,126.87200783297,구로구
hospital,구일본튼튼의원,"서울특별시 구로구 구일로 110, 해원리버파크 604,605호 (구로동)",37.4950748401596,126.87200783297,구로구
hospital,국민한의원,"서울특별시 구로구 도림로 81, 4층 (구로동)",37.4902543055104,126.892171200851,구로구
hospital,굿나잇비뇨의학과의원,"서울특별시 구로구 가마산로 246, 대신빌딩 4층 (구로동)",37.4946886322524,126.888315077346,구로구
hospital,굿모닝의원,서울특별시 구로구 개봉로3길 76 (개봉동),37.4862633403119,126.8520886071,구로구
hospital,굿이비인후과의원,"서울특별시 구로구 디지털로34길 55, 코오롱싸이언스밸리2차 213,214호 (구로동)",37.4842856391064,126.899282125859,구로구
hospital,굿타이밍치과의원,"서울특별시 구로구 개봉로 56, 2층 (개봉동)",37.4906772205495,126.856345223758,구로구
hospital,궁동의원,"서울특별시 구로구 부일로15길 4, 201호 (궁동)",37.4935163491463,126.834426968582,구로구
hospital,궁동의원,"서울특별시 구로구 부일로15길 4, 2층 (궁동)",37.4935532766608,126.834417162201,구로구
hospital,권경수내과의원,"서울특별시 구로구 경인로40길 11, 202호 (개봉동, 영화아파트)",37.4960567771925,126.859422554119,구로구
hospital,권마취통증의학과의원,서울특별시 구로구 구로동로26길 115 (구로동),37.4901321937348,126.890478535204,구로구
hospital,권피부과의원,"서울특별시 구로구 구로중앙로 68, 313,314호 (구로동, 신안타워)",37.495860314768,126.888807280468,구로구
hospital,그린서울치과의원,"서울특별시 구로구 고척로 203, 2층 (고척동)",37.505277661852,126.855831159177,구로구
hospital,그린치과의원,"서울특별시 구로구 개봉로 9, 2층 (개봉동)",37.4865393176791,126.856174385024,구로구
hospital,근본한의원,"서울특별시 구로구 신도림로19길 7, 성광빌딩 212호 (신도림동)",37.5112013496,126.8844684974,구로구
hospital,금강산한의원,"서울특별시 구로구 고척로27바길 6, 샘물빌딩 3층 (개봉동)",37.5065905983,126.8455603342,구로구
hospital,기린마취통증의학과의원,"서울특별시 구로구 디지털로26길 123, 지플러스코오롱디지털타워 207호 (구로동)",37.4830823343746,126.897699487349,구로구
hospital,기분좋은치과의원,"서울특별시 구로구 디지털로33길 48, 대륭포스트타워7차 203호 (구로동)",37.4899347036246,126.890392887008,구로구
hospital,길치과의원,"서울특별시 구로구 경인로15길 4, SC메디칼센터 401호 (오류동)",37.4947110746689,126.839978443358,구로구
hospital,김&홍안과의원,"서울특별시 구로구 구로중앙로 68 , 201호  (구로동, 신안타워)",37.495860314768,126.888807280468,구로구
hospital,김경률정신건강의학과의원,"서울특별시 구로구 경인로 661, 신도림1차푸르지오 2층 246호 (신도림동)",37.5096619486431,126.887986372819,구로구
hospital,김경효소아과의원,"서울특별시 구로구 구일로8길 92, 205호 (구로동, 중앙구로하이츠아파트)",37.4977393734277,126.876310284198,구로구
hospital,김관수산부인과의원,"서울특별시 구로구 개봉로 23, 고려크리닉센터 6층 (개봉동)",37.4877650696629,126.85604415167,구로구
hospital,김남규치과의원,"서울특별시 구로구 경인로 205, 2층 (오류동)",37.4962515121554,126.843670397694,구로구
hospital,김부랑치과의원,"서울특별시 구로구 남부순환로105길 58, (가리봉동)",37.4797912448526,126.889521434265,구로구
hospital,김성목내과의원,"서울특별시 구로구 도림로 73, 인성빌딩 2층 (구로동)",37.4898550054825,126.891511081857,구로구
hospital,김앤정스마일치과,서울특별시 구로구 도림로 67 4층  (구로동),37.4895224344356,126.891011550623,구로구
hospital,김용갑치과의원,서울특별시 구로구 고척로 137 (고척동),37.5027228880157,126.849070584504,구로구
hospital,김용진치과의원,서울특별시 구로구 구일로8길 92,37.4977393734277,126.876310284198,구로구
hospital,김우종치과의원,"서울특별시 구로구 개봉로 17-1, (개봉동)",37.4873259321805,126.85606129694,구로구
hospital,김윤관치과의원,서울특별시 구로구 새말로 75 (구로동),37.50495950543,126.888554154613,구로구
hospital,김은주산부인과의원,"서울특별시 구로구 경인로 661, 신도림1차푸르지오 208호 (신도림동)",37.5096619486431,126.887986372819,구로구
hospital,김정민한의원,"서울특별시 구로구 오류로8길 64, 1층일부 (오류동)",37.4923813132544,126.843861763841,구로구
hospital,김종하치과의원,서울특별시 구로구 개봉로 67 (개봉동),37.491743781606,126.855638371689,구로구
hospital,김지수피부과의원,"서울특별시 구로구 개봉로 57-1, 2층 (개봉동)",37.4908597717871,126.855759594087,구로구
hospital,김진수한의원,"서울특별시 구로구 개봉로 72, 2층 (개봉동)",37.4920294805287,126.8563010419,구로구
hospital,김진아소아과의원,서울특별시 구로구 고척로 142-1 (고척동),37.5026470093918,126.849837285068,구로구
hospital,김현정이비인후과의원,"서울특별시 구로구 구일로4길 30, 신영상가 (구로동)",37.4918751361412,126.876446827824,구로구
hospital,김형선치과의원,"서울특별시 구로구 경인로 382  (개봉동, 한마을아파트)",37.4963730035523,126.863082153299,구로구
hospital,나비에스의원,"서울특별시 구로구 디지털로31길 20, 에이스테크노타워5차 205동 2호 (구로동)",37.4855210244653,126.894345286511,구로구
hospital,나비에스한의원,"서울특별시 구로구 디지털로31길 20, 에이스테크노타워5차 205-1 (구로동)",37.48552111427,126.894344947181,구로구
hospital,나치과의원,"서울특별시 구로구 경인로 319, 304호 (개봉동 , 대림프라자)",37.4975993752858,126.855601090574,구로구
hospital,남광우내과의원,서울특별시 구로구 경인로 219 (오류동),37.4968157648088,126.845070793391,구로구
hospital,남구로호담치과의원,"서울특별시 구로구 구로동로26길 36, 201호 (구로동)",37.4900443472936,126.886003737979,구로구
hospital,남궁한의원,서울특별시 구로구 구로동로 77-3 (구로동),37.4857544603677,126.885528209687,구로구
hospital,남부효요양병원,"서울특별시 구로구 남부순환로 1291 (가리봉동, 영진오피스)",37.4788896761993,126.894327150563,구로구
hospital,남서울요양병원,"서울특별시 구로구 남부순환로 1291,  A동1,2,3,4,5,6,7층 B동 5,6,7층 (가리봉동)",37.478889496799,126.894328055278,구로구
hospital,내맘에한의원,"서울특별시 구로구 오류로8길 16, 세명프라자 203,204호 (오류동)",37.4909865573173,126.841542978749,구로구
hospital,눈에힘안과의원,"서울특별시 구로구 시흥대로 551, 광희빌딩 5층 (구로동)",37.4825399425928,126.900246298277,구로구
hospital,뉴욕디지털치과의원,"서울특별시 구로구 디지털로31길 19, 201호 (구로동)",37.4848760150666,126.893767179903,구로구
hospital,뉴욕말씀치과의원,서울특별시 구로구 도림로 79 (구로동),37.4900866794025,126.892030098532,구로구
hospital,뉴욕비엔에스치과의원,"서울특별시 구로구 디지털로 288, 대륭포스트타워1차 217호 (구로동)",37.4835695693308,126.895502765348,구로구
hospital,뉴욕치과의원,"서울특별시 구로구 시흥대로 571 2층 (구로동,부호빌딩)",37.48397178331,126.901809898362,구로구
hospital,늘벗정신건강의학과의원,"서울특별시 구로구 경인로 661, 신도림1차푸르지오 233,234,235호 (신도림동)",37.5096619486431,126.887986372819,구로구
hospital,늘푸른소아청소년과의원,"서울특별시 구로구 구로중앙로 68, 3층 302,303,304호 (구로동, 신안타워)",37.495860314768,126.888807280468,구로구
hospital,늘푸른재활의학과의원,"서울특별시 구로구 경인로 193, 401호 (오류동,상임빌딩)",37.49576046373,126.842584579433,구로구
hospital,늘푸른치과의원,서울특별시 구로구 부일로1길 26-13 (온수동),37.492456701274,126.820798193508,구로구
hospital,늘푸른한의원,"서울특별시 구로구 개봉로20길 6, 1동 210호 (개봉동, 현대아파트1단지)",37.4921180473373,126.856515699267,구로구
hospital,다나수한의원,"서울특별시 구로구 경인로 193, 상임빌딩 3층 (오류동)",37.4957601922307,126.842583675337,구로구
hospital,다나한의원,"서울특별시 구로구 구로동로26길 119, 정엽빌딩 2층 (구로동)",37.4900660112726,126.890620653516,구로구
hospital,다사랑한의원,"서울특별시 구로구 개봉로 67, 2층 (개봉동)",37.491743781606,126.855638371689,구로구
hospital,다사랑한의원,"서울특별시 구로구 개봉로 67, 2층 (개봉동)",37.4917439597415,126.855636675189,구로구
hospital,다올항외과의원,"서울특별시 구로구 경인로 572, 스타팰리스 4층 (구로동)",37.5033062723055,126.881083869229,구로구
hospital,다이아몬드치과의원,"서울특별시 구로구 경인로 403, 원메디타운 9층 (고척동)",37.497967623483,126.864354990921,구로구
hospital,닥터명마취통증의학과의원,"서울특별시 구로구 고척로 203, 3,4층 (고척동)",37.505277661852,126.855831159177,구로구
hospital,닥터수의원,"서울특별시 구로구 디지털로 300, 지밸리비즈플라자 B1층 13호 (구로동)",37.4849270383011,126.896538036905,구로구
hospital,닥터스피부과의원,"서울특별시 구로구 경인로67길 23, 305-1,2호 (신도림동, 신도림2차푸르지오)",37.5104826397728,126.889481191271,구로구
hospital,닥터에버스의원,"서울특별시 구로구 디지털로26길 123, 지플러스타워 203~205호 (구로동)",37.4830823343746,126.897699487349,구로구
hospital,닥터유비뇨기과의원,"서울특별시 구로구 경인로67길 23, 306호 (신도림동, 신도림2차푸르지오)",37.5104826397728,126.889481191271,구로구
hospital,닥터제이앤비의원,"서울특별시 구로구 경인로43길 49, MD동 B-204-2호 (고척동, 고척아이파크)",37.4982556239965,126.859828711545,구로구
hospital,닥터존의원,"서울특별시 구로구 중앙로 100, 연세사랑모아여성병원 1동 201호 (고척동)",37.5063537038109,126.860612503872,구로구
hospital,닥터진치과의원,"서울특별시 구로구 시흥대로 551 (구로동, 광희빌딩)",37.4825399425928,126.900246298277,구로구
hospital,단아치과의원,"서울특별시 구로구 공원로 47, 도림두산베어스타워 201호 (구로동)",37.5010207998508,126.889643966622,구로구
hospital,단풍나무한의원,"서울특별시 구로구 오류로8길 57, 대성빌딩 3층일부 (오류동)",37.4924023087177,126.843386792305,구로구
hospital,대유한의원,서울특별시 구로구 오류로8길 20 (오류동),37.491134793442,126.841914021278,구로구
hospital,더고운의원,서울특별시 구로구 경인로 216 (오류동),37.4962152453948,126.84486554294,구로구
hospital,더맑은의원,"서울특별시 구로구 경인로63길 11, 신도림 크라운빌2 오피스텔 2층 일부호 (신도림동)",37.5077428230926,126.885092717634,구로구
hospital,더바른한의원,"서울특별시 구로구 새말로 34, 2층 (구로동)",37.5026499224739,126.88475287352,구로구
hospital,더세인트요양병원,"서울특별시 구로구 경인로 218, 더세인트빌딩 B1.B중,3~15층 (오류동)",37.4962524857221,126.84516219796,구로구
hospital,더케이내과의원,"서울특별시 구로구 가마산로 232, 1층 (구로동, 스페스큐브)",37.4937888506208,126.886762356034,구로구
hospital,더편한마취통증의학과의원,"서울특별시 구로구 개봉로 30, 4,5층 (개봉동, 로얄타워)",37.4882301404849,126.856538739778,구로구
hospital,덕산속조은내과의원,"서울특별시 구로구 경인로 176, 4층 일부호 (오류동, 시티월드)",37.4943907298586,126.841018680923,구로구
hospital,덕산이편한치과의원,"서울특별시 구로구 경인로 199, 2층 (오류동)",37.4959505764924,126.843059017607,구로구
hospital,덕산정형외과의원,"서울특별시 구로구 경인로20가길 5, 7층 701호 (오류동)",37.4954461712563,126.844131191934,구로구
hospital,덕인내과의원,"서울특별시 구로구 구일로4길 46, 205호 (구로동, 현대연예인아파트)",37.4932672296102,126.87786990054,구로구
hospital,덴타피아치과의원,"서울특별시 구로구 개봉로20길 74, 2층 (개봉동)",37.4932889494046,126.858419299721,구로구
hospital,동그라미소아청소년과의원,"서울특별시 구로구 서해안로 2098, 항동프라자 5층 501호 (항동)",37.4799383123077,126.823025398893,구로구
hospital,동명한의원,"서울특별시 구로구 고척로 228-6, 종만빌딩 2층 (고척동)",37.5057871324878,126.85824878572,구로구
hospital,동신한의원,"서울특별시 구로구 경인로 619-3, 상가동 2층 210호 (신도림동, 신도림3차푸르지오아파트)",37.506883854568,126.884036662859,구로구
hospital,동안피부과의원,"서울특별시 구로구 새말로 89, 태영빌딩 4층 (구로동)",37.5056509878187,126.889947040156,구로구
hospital,동의보감한의원,서울특별시 구로구 개봉로20길 66 (개봉동),37.4933772358687,126.858033757981,구로구
hospital,동의한의원,"서울특별시 구로구 고척로 154, 2층 (고척동)",37.5030405903996,126.850850385485,구로구
hospital,동진가정의학과의원,"서울특별시 구로구 오리로 1297, 청파빌딩 2층 (궁동)",37.4972307850133,126.829077069996,구로구
hospital,등보당한의원,"서울특별시 구로구 경인로40길 41, 대덕빌딩 2층 (개봉동)",37.4950263686092,126.859029376899,구로구
hospital,디에이치(DH)대항외과의원,"서울특별시 구로구 경인로 661, 신도림1차푸르지오 259호 (신도림동)",37.5096619486431,126.887986372819,구로구
hospital,디지털밸리치과의원,"서울특별시 구로구 디지털로 273, 에이스트윈타워2차 304호 (구로동)",37.4839543151881,126.894103271526,구로구
hospital,라파한의원,"서울특별시 구로구 경인로 643, 207,213호 (신도림동, 신도림2차동아아파트)",37.5088498841248,126.885553611579,구로구
hospital,라플란트치과의원,"서울특별시 구로구 중앙로 60, 강산메디칼프라자 401호 (고척동)",37.5031383188753,126.862560988844,구로구
hospital,로덴치과의원,"서울특별시 구로구 구로동로22길 89, 5층 (구로동)",37.4880951044446,126.888932428119,구로구
hospital,로이치과의원,"서울특별시 구로구 디지털로 306, 대륭포스트타워2차 216호 (구로동)",37.4859231683292,126.897336395657,구로구
hospital,리앤리가정의학과의원,"서울특별시 구로구 경인로67길 23 (신도림동,신도림2차푸르지오상가 101-309호)",37.5105090505399,126.889300862291,구로구
hospital,리앤유의원,"서울특별시 구로구 경인로59길 8, 태영프라자 309,310호 (신도림동)",37.5063880304623,126.883394687085,구로구
hospital,마디튼튼류마내과의원,"서울특별시 구로구 경인로67길 23, 201호일부,202호 (신도림동, 신도림2차푸르지오)",37.5107085596,126.8892332697,구로구
hospital,마루치과병원,서울특별시 구로구 새말로 110 (구로동),37.5063356980857,126.892135860271,구로구
hospital,마음과마음정신과의원,"서울특별시 구로구 도림로 65, 한정빌딩 2층 (구로동)",37.4894337449923,126.890881079429,구로구
hospital,마음속내과의원,서울특별시 구로구 구로동로 115 6층  (구로동),37.4887698909785,126.884261981664,구로구
hospital,마음심박종찬한의원,"서울특별시 구로구 경인로 572, 스타팰리스 404호 (구로동)",37.5033062723055,126.881083869229,구로구
hospital,맑은미소치과의원,서울특별시 구로구 오리로 1141 (오류동),37.4859727327486,126.838837793701,구로구
hospital,맑은성모이비인후과의원,"서울특별시 구로구 개봉로20길 6, 2층 (개봉동, 현대아파트1단지)",37.4928802334449,126.859308079005,구로구
hospital,맑은숲한초당한의원,"서울특별시 구로구 경인로 661, 신도림1차푸르지오 205호 (신도림동)",37.5096619486431,126.887986372819,구로구
hospital,맑은휴의원,"서울특별시 구로구 중앙로 100, 2층 (고척동)",37.5063537038109,126.860612503872,구로구
hospital,메디서울이비인후과의원,"서울특별시 구로구 고척로 123-1, 2,3층 (개봉동)",37.5022321898051,126.84779803328,구로구
hospital,메디원의원,"서울특별시 구로구 경인로40길 12, 2층, 3층 일부층 (개봉동)",37.4962642022543,126.859131313522,구로구
hospital,명성모이비인후과의원,"서울특별시 구로구 경인로 661, 236호 (신도림동,신도림1차 푸르지오)",37.5096619486431,126.887986372819,구로구
hospital,명손한의원,"서울특별시 구로구 경인로40길 12, 3층 (개봉동)",37.4962642022543,126.859131313522,구로구
hospital,명인경희한의원,"서울특별시 구로구 경인로15길 4, SC메디칼센터 301,501,502호 (오류동)",37.4947110746689,126.839978443358,구로구
hospital,모두치과의원,"서울특별시 구로구 경인로 661, 신도림1차푸르지오 217,232호 (신도림동)",37.5096619486431,126.887986372819,구로구
hospital,목동현대요양병원,"서울특별시 구로구 중앙로 91, 본소클리닉스 (고척동)",37.5055547409723,126.860424211039,구로구
hospital,몸한의원,"서울특별시 구로구 경인로 662, 10층 1004(일부)호 (신도림동, 디큐브시티)",37.5081235198,126.8882146491,구로구
hospital,문희식내과의원,서울특별시 구로구 경인로 201  (오류동),37.4960273056071,126.843235041163,구로구
hospital,미드치과의원,"서울특별시 구로구 경인로 334, 하이마트 201호 (개봉동)",37.4976478131651,126.856162243027,구로구
hospital,미래사랑산부인과의원,"서울특별시 구로구 도림로23길 2, 3,4,5층 (구로동)",37.4911043116113,126.893557762631,구로구
hospital,미사랑치과의원,"서울특별시 구로구 경인로53길 8, 7층 (구로동)",37.5017556774116,126.877242550618,구로구
hospital,미서울치과의원,"서울특별시 구로구 구로중앙로 68, 2층 (구로동, 신안타워)",37.495860314768,126.888807280468,구로구
hospital,미인의원,"서울특별시 구로구 구로중앙로31길 34, 4층일부,5층 (구로동)",37.498680625833,126.884930754004,구로구
hospital,미치과의원,"서울특별시 구로구 개봉로 66, 2층 (개봉동)",37.4915525068167,126.856236802961,구로구
hospital,민영규치과의원,"서울특별시 구로구 구로동로28길 2, (구로동)",37.4907037714483,126.884311691067,구로구
hospital,민전산부인과의원,"서울특별시 구로구 경인로 322, 1,2,4,5층 (개봉동)",37.4970557413924,126.855923298983,구로구
hospital,민트치과의원,"서울특별시 구로구 고척로19길 34, 2층 (개봉동)",37.5027619328947,126.844989633498,구로구
hospital,바른몸한의원,"서울특별시 구로구 구로동로26길 100, 2층 (구로동)",37.4901264761131,126.889563090944,구로구
hospital,바른송치과의원,"서울특별시 구로구 구로동로 135, 3층 (구로동)",37.4906411011165,126.88370977403,구로구
hospital,바른정치과의원,"서울특별시 구로구 경인로 211, 2층 (오류동)",37.4965157504504,126.844195801765,구로구
hospital,바른정형외과의원,"서울특별시 구로구 오류로8길 57, 대성빌딩 2층 (오류동)",37.4925248527435,126.843392190345,구로구
hospital,바른치과교정과치과의원,"서울특별시 구로구 구로중앙로 68, 2층 (구로동, 신안타워)",37.495860314768,126.888807280468,구로구
hospital,바이오란트치과의원,"서울특별시 구로구 경인로 661, 신도림1차푸르지오 209,201호 (신도림동)",37.5096619486431,126.887986372819,구로구
hospital,박산부인과의원,서울특별시 구로구 구로동로 35 (가리봉동),37.4848338992802,126.88589870157,구로구
hospital,박철수내과의원,"서울특별시 구로구 개봉로 30, 3층 (개봉동, 로얄타워)",37.4882301404849,126.856538739778,구로구
hospital,박치과의원,서울특별시 구로구 구로동로 34 (가리봉동),37.4846965004551,126.886558766573,구로구
hospital,박현수이비인후과의원,서울특별시 구로구 개봉로 9 (개봉동),37.4865393176791,126.856174385024,구로구
hospital,밝은이안과의원,"서울특별시 구로구 경인로 193, 상임빌딩 4층 (오류동)",37.49576046373,126.842584579433,구로구
hospital,백두산한의원,"서울특별시 구로구 고척로21나길 28, 1층 (개봉동)",37.5026782939374,126.844080081879,구로구
hospital,백상정신과의원,서울특별시 구로구 경서로 6 (고척동),37.4980305876387,126.856926652502,구로구
hospital,백세튼튼플란트치과의원,"서울특별시 구로구 남부순환로97길 20-6, 2층 (개봉동)",37.4940384973276,126.858645629031,구로구
hospital,백제한의원,"서울특별시 구로구 중앙로12길 12, 2층 (고척동, 센츄리아파트)",37.5037383637344,126.862148690412,구로구
hospital,밴스의원,"서울특별시 구로구 디지털로32나길 38, 서림빌딩 6층 (구로동)",37.4845445851058,126.901198477768,구로구
hospital,베스트내과의원,"서울특별시 구로구 구로중앙로 134, 4층 (구로동, 신구로자이나인스에비뉴)",37.4999880723052,126.884098218095,구로구
hospital,베스트맥의원,"서울특별시 구로구 디지털로 288, 대륭포스트타워1차 219호 (구로동)",37.4835687568318,126.895500957442,구로구
hospital,베일리이비인후과의원,"서울특별시 구로구 오리로 1149, 랑데르 307호 (오류동)",37.4866023608152,126.83824746314,구로구
hospital,별소아청소년과의원,"서울특별시 구로구 개봉로 71, 강서프라자 2층 (개봉동)",37.4920938346959,126.855574487587,구로구
hospital,보담한의원,"서울특별시 구로구 경인로 387, 604호 (고척동)",37.4970868505034,126.863142594513,구로구
hospital,보민한의원,"서울특별시 구로구 도림로 57, 2층 (구로동)",37.4889194951175,126.890151942148,구로구
hospital,보스톤미치과의원,서울특별시 구로구 경인로 209 (오류동),37.4963925247832,126.843878743863,구로구
hospital,본경희한의원,"서울특별시 구로구 부일로1가길 8, 2층일부 (온수동)",37.4920772628,126.8201296811,구로구
hospital,본내과의원,"서울특별시 구로구 고척로 144, 두발로빌딩 4층 (고척동)",37.5026751992737,126.849970000444,구로구
hospital,본라인한의원구로디지털점,"서울특별시 구로구 디지털로26길 111, 제이앤케이디지털타워 지하012호 (구로동)",37.4825827883002,126.897045984079,구로구
hospital,본한의원,서울특별시 구로구 구로동로26길 73 (구로동),37.4900781023614,126.888137517532,구로구
hospital,부일한의원,서울특별시 구로구 구로동로 184 (구로동),37.4948772596,126.8829647816,구로구
hospital,비타민치과의원,"서울특별시 구로구 개봉로 63, 2층 일부호 (개봉동)",37.4913821799938,126.855689499758,구로구
hospital,사람중심치과의원,서울특별시 구로구 디지털로27길 127 (가리봉동),37.4847108131575,126.887109265789,구로구
hospital,사랑의피부과의원,"서울특별시 구로구 구로중앙로 60 (구로동, 대림오페라타워)",37.4951317858045,126.889409618774,구로구
hospital,사암당한의원,"서울특별시 구로구 도림천로 344, 1층 일부호 (구로동, 대림2차우성아파트)",37.4940692999608,126.8939084019,구로구
hospital,삼성드림안과의원,"서울특별시 구로구 새말로 89, 302호 (구로동)",37.5070438414784,126.890227293528,구로구
hospital,삼성리더스치과의원,"서울특별시 구로구 중앙로 64 (고척동, 고척프라자)",37.5037992525197,126.862833580926,구로구
hospital,삼성미래여성병원,"서울특별시 구로구 서해안로 2296, 삼성미래여성병원 (오류동)",37.4912413885939,126.84044403086,구로구
hospital,삼성바른내과의원,"서울특별시 구로구 가마산로 246, 대신빌딩 3층 (구로동)",37.4946886322524,126.888315077346,구로구
hospital,삼성밝은안과의원,"서울특별시 구로구 도림로 69 , 2층  (구로동)",37.4896331110441,126.891047234259,구로구
hospital,삼성신내과의원,"서울특별시 구로구 남부순환로 775 , 개봉푸르지오아파트 상가 106동 2층  (개봉동, 개봉푸르지오)",37.5015678689641,126.847162335199,구로구
hospital,삼성위드치과의원,"서울특별시 구로구 디지털로33길 27, 삼성IT밸리 205호 (구로동)",37.4860566025335,126.894669265147,구로구
hospital,삼성정형외과의원,"서울특별시 구로구 개봉로 66, 지하1층,1~2층일부 (개봉동)",37.4915525068167,126.856236802961,구로구
hospital,삼성키즈소아청소년과의원,"서울특별시 구로구 천왕로 106, 골드프라자 303호 (천왕동)",37.4860407392631,126.838559499205,구로구
hospital,삼성편한내과의원,"서울특별시 구로구 디지털로32길 79, 조영빌딩 4층 (구로동)",37.4835332463617,126.899752015371,구로구
hospital,상쾌한이비인후과의원,"서울특별시 구로구 도림로 67, 3층 (구로동)",37.4895224344356,126.891011550623,구로구
hospital,새날한의원,"서울특별시 구로구 구로동로26길 5, 2층 (구로동)",37.4906007656715,126.884482161946,구로구
hospital,새봄정신건강의학과의원,"서울특별시 구로구 남부순환로97길 3, KS프리미어빌딩 303호 (개봉동)",37.49399577225,126.858255129585,구로구
hospital,생기한의원,"서울특별시 구로구 경인로 661, 신도림1차푸르지오 304,305호 (신도림동)",37.5094204421333,126.887740087769,구로구
hospital,생생한의원,"서울특별시 구로구 시흥대로 557, 2층 (구로동)",37.4829872437692,126.901044613333,구로구
hospital,서경한의원,"서울특별시 구로구 서해안로 2102, 솔보프라자 4층 401,402호 (항동)",37.4801889712131,126.823445954811,구로구
hospital,서덕한의원,서울특별시 구로구 디지털로31길 90 (구로동),37.4876091838519,126.890858292428,구로구
hospital,서울WE좋은내과의원,"서울특별시 구로구 시흥대로 551, 광희빌딩 3층 (구로동)",37.4825399425928,126.900246298277,구로구
hospital,서울e치과의원,"서울특별시 구로구 천왕로 106, 골드프라자 301,302호 (오류동)",37.4860407392631,126.838559499205,구로구
hospital,서울가정의학과의원,"서울특별시 구로구 디지털로31길 90   (구로동, 삼성래미안아파트)",37.4887303243884,126.892053534527,구로구
hospital,서울구로디지털의원,"서울특별시 구로구 디지털로27가길 17, 오닉스 지식산업센터 201~208호 (구로동)",37.4843875431716,126.892334533434,구로구
hospital,서울내과의원,"서울특별시 구로구 가마산로 268 , 와이즈플레이스 2층  (구로동)",37.4956164739157,126.890318882617,구로구
hospital,서울노블레스의원,"서울특별시 구로구 서해안로 2096, 3,4층 (항동)",37.479763405519,126.822891045092,구로구
hospital,서울눈에빛안과의원,"서울특별시 구로구 경인로 661, 신도림1차푸르지오 104동 401호 (신도림동)",37.5096619486431,126.887986372819,구로구
hospital,서울늘봄메디칼내과의원,"서울특별시 구로구 구로중앙로 217, 이안과빌딩 3층 (구로동)",37.504982957633,126.876608559959,구로구
hospital,서울다정치과의원,"서울특별시 구로구 경인로20가길 5, 하늘쉼빌딩 2층 201호 (오류동)",37.495451745691,126.844122246819,구로구
hospital,서울드림정형외과의원,"서울특별시 구로구 고척로 239 , 4층  (고척동)",37.5067063962066,126.859580605511,구로구
hospital,서울로움산부인과의원,"서울특별시 구로구 경인로 204 , 메디인에스 4층  (오류동)",37.4956897995191,126.843855441547,구로구
hospital,서울미소그린치과의원,"서울특별시 구로구 구일로10길 27, SK허브수 B동 210호 (구로동)",37.4959404465654,126.872266560677,구로구
hospital,서울바른마취통증의학과의원,"서울특별시 구로구 경인로 319, 대림프라자 2,3층 301,302,305,306,307호 (개봉동)",37.4975993752858,126.855601090574,구로구
hospital,서울바른마취통증의학과의원,"서울특별시 구로구 경인로 319, 대림프라자 2,3층 201,301~2,305~7호 (개봉동)",37.4975993752858,126.855601090574,구로구
hospital,서울본치과의원,"서울특별시 구로구 개봉로 48, 대성빌딩 3층 (개봉동)",37.4899205114592,126.856383535143,구로구
hospital,서울본탄탄의원,"서울특별시 구로구 서해안로 2096, 4층 401~404호 (항동)",37.4797783622002,126.822891009792,구로구
hospital,서울브이아이피(VIP)요양병원,"서울특별시 구로구 경인로 297, 오류빌딩 (개봉동)",37.4979712883151,126.853533832351,구로구
hospital,서울삼성내과의원,"서울특별시 구로구 구로동로 112-2, 서울삼성내과의원 2,3,4층 (구로동)",37.4886694071551,126.884827182306,구로구
hospital,서울삼성안과의원,"서울특별시 구로구 경인로 204, 8층 (오류동)",37.4957072365586,126.843891478732,구로구
hospital,서울송치과의원,"서울특별시 구로구 가마산로 215, 1층 (구로동)",37.4937003804712,126.884906619604,구로구
hospital,서울시원한마취통증의학과의원,"서울특별시 구로구 시흥대로 551, 광희빌딩 6,7층 (구로동)",37.4825585216597,126.900481671333,구로구
hospital,서울아가온여성의원,"서울특별시 구로구 디지털로32길 79, 조영빌딩 6,8층 (구로동)",37.4835327961,126.8997522421,구로구
hospital,서울아산내과의원,"서울특별시 구로구 신도림로19길 7, 성광빌딩 309,310호 (신도림동)",37.5112013495509,126.884468497353,구로구
hospital,서울안과의원,"서울특별시 구로구 남부순환로97길 3, KS프리미어빌딩 702호 (개봉동)",37.4939960434,126.8582558076,구로구
hospital,서울에스티(ST)셀의원,"서울특별시 구로구 가마산로 215, 용평빌딩 3-6층 (구로동)",37.4937003804712,126.884906619604,구로구
hospital,서울에이스치과의원,서울특별시 구로구 도림로 81  (구로동),37.4903558822113,126.892156284433,구로구
hospital,서울엔(N)비뇨기과의원,"서울특별시 구로구 디지털로32길 79, 조영빌딩 (구로동)",37.4835327960573,126.899752242102,구로구
hospital,서울엘치과의원,"서울특별시 구로구 구로중앙로 134, 4층 4가 06,07호 (구로동, 신구로자이나인스에비뉴)",37.4999888817737,126.884096746679,구로구
hospital,서울연세안과의원,"서울특별시 구로구 디지털로32길 79, 조영빌딩 7층 (구로동)",37.4835332463617,126.899752015371,구로구
hospital,서울오케이내과의원,"서울특별시 구로구 개봉로 66, 3층 (개봉동)",37.4915525068167,126.856236802961,구로구
hospital,서울올리브치과의원,"서울특별시 구로구 구로중앙로18길 68, 상가동 2층 (구로동, 신구로현대아파트)",37.4968974631,126.8926055081,구로구
hospital,서울웃는얼굴치과의원,"서울특별시 구로구 디지털로 271 (구로동,벽산3차디지털밸리107호)",37.4833075674,126.8935973166,구로구
hospital,서울이튼치과의원,서울특별시 구로구 개봉로20길 66 (개봉동),37.4933772358687,126.858033757981,구로구
hospital,서울준신경외과의원,"서울특별시 구로구 경인로 224, 칸타빌레5차 301-303호 (오류동)",37.4964851629173,126.845741839583,구로구
hospital,서울탑신경외과의원,"서울특별시 구로구 개봉로20길 60, 2,3,4층 (개봉동)",37.4933987409279,126.857710083529,구로구
hospital,서울푸르덴치과의원,서울특별시 구로구 신도림로19길 7 (신도림동),37.5112013496,126.8844684974,구로구
hospital,서울푸른별치과의원,"서울특별시 구로구 서해안로 2096, 청솔프라자 5층 (항동)",37.479763405519,126.822891045092,구로구
hospital,서울푸른숲내과의원,"서울특별시 구로구 항동로3길 6, 가온 프라자 5,6,7층 (항동)",37.4808405838883,126.824294637379,구로구
hospital,서울하우치과의원,"서울특별시 구로구 경인로40길 25, 상가동 2층 (개봉동, 청실아파트)",37.4954033861,126.8597413148,구로구
hospital,성모나은내과의원,"서울특별시 구로구 경인로 204, 301호 (오류동)",37.4956897995191,126.843855441547,구로구
hospital,성모내과의원,서울특별시 구로구 고척로 142 (고척동),37.5025646020402,126.849651976952,구로구
hospital,성모연정신건강의학과의원,"서울특별시 구로구 경인로67길 23, 301-2호 (신도림동, 신도림2차푸르지오)",37.5104826397728,126.889481191271,구로구
hospital,성신가정의학과의원,"서울특별시 구로구 개봉로3길 35, 성은빌딩 2층 (개봉동)",37.4861774553968,126.854321430679,구로구
hospital,성심치과의원,"서울특별시 구로구 구로중앙로28길 3, 혜성빌딩 (구로동)",37.4989565101105,126.886142993667,구로구
hospital,성심한의원,"서울특별시 구로구 구로중앙로28길 3 (구로동, 혜성빌딩)",37.4989060738974,126.886156620295,구로구
hospital,성심한의원,"서울특별시 구로구 구로중앙로28길 3 (구로동, 혜성빌딩)",37.4988844435647,126.886159286369,구로구
hospital,성재의원,"서울특별시 구로구 오리로 1268, 유림빌딩 1-2층 (궁동)",37.4949113898591,126.830811376991,구로구
hospital,세브란스치과의원,"서울특별시 구로구 구로동로17길 2, 2층 (구로동)",37.4884129684015,126.884327230042,구로구
hospital,세움제일정형외과의원,"서울특별시 구로구 구로중앙로 228, 기임빌딩 4층 (신도림동)",37.506167775395,126.876605252712,구로구
hospital,세진내과의원,"서울특별시 구로구 구로중앙로 68, 4층 (구로동, 신안타워)",37.495860314768,126.888807280468,구로구
hospital,소망치과의원,"서울특별시 구로구 구일로4길 33, 종합상가 2층 211호 (구로동)",37.4920247372932,126.87579186252,구로구
hospital,소생한의원,서울특별시 구로구 경인로20가길 5,37.4954987808927,126.844242795254,구로구
hospital,솔로몬치과의원,"서울특별시 구로구 오류로8길 57, 대성빌딩 3층 (오류동)",37.492403480765,126.843387355249,구로구
hospital,송기산내과의원,서울특별시 구로구 오류로8길 26 (오류동),37.4912834627,126.8421859958,구로구
hospital,송미영가정의학과의원,"서울특별시 구로구 경인로47길 54, 2층 (고척동)",37.5015393891349,126.865293391717,구로구
hospital,송소아과의원,"서울특별시 구로구 구일로4길 46, 201호 (구로동, 현대연예인아파트)",37.4923949042397,126.876252947359,구로구
hospital,송영훈산부인과의원,"서울특별시 구로구 구로중앙로 68, 309호 (구로동, 신안타워)",37.4958852679319,126.888802267804,구로구
hospital,수치과의원,"서울특별시 구로구 도림로 69, 3층 (구로동)",37.4896331110441,126.891047234259,구로구
hospital,수플러스치과의원,"서울특별시 구로구 구로중앙로 14, 2층 일부호 (구로동)",37.4915949425815,126.892301347465,구로구
hospital,수피부과의원,"서울특별시 구로구 개봉로 49, 5층일부 (개봉동)",37.4901079776202,126.855838269667,구로구
hospital,수한의원,"서울특별시 구로구 구로중앙로7길 28, 104호 (구로동, 극동아파트)",37.4912796333114,126.889614765239,구로구
hospital,슈퍼스타피부과의원,"서울특별시 구로구 디지털로32길 79, 조영빌딩 4층 (구로동)",37.4835332463617,126.899752015371,구로구
hospital,스마일치과의원,서울특별시 구로구 도림로 67 (구로동),37.4895224344356,126.891011550623,구로구
hospital,스마트백평치과의원,"서울특별시 구로구 목동남로 6, 현준프라자 301,302,303호 (고척동)",37.5067191621388,126.860774574801,구로구
hospital,시계탑한의원,"서울특별시 구로구 구로중앙로 228, 기임빌딩 301호 (신도림동)",37.5061693965,126.8766045715,구로구
hospital,신도림경희한의원,"서울특별시 구로구 경인로 661, 신도림1차푸르지오 238,239호 (신도림동)",37.5099111964091,126.88837724724,구로구
hospital,신도림라인업의원,"서울특별시 구로구 새말로 97, 신도림테크노마트 41~44, 69~72, 84~87, 114~117호 (구로동)",37.5070438414784,126.890227293528,구로구
hospital,신도림서울본재활의학과의원,"서울특별시 구로구 경인로67길 23, 101동 201-1,202호 (신도림동, 신도림2차푸르지오)",37.5104826397728,126.889481191271,구로구
hospital,신도림서울정형외과의원,"서울특별시 구로구 경인로 625, 힐스테이트 신도림역 센트럴 2층 207~211호 (신도림동)",37.5070842748567,126.884718686628,구로구
hospital,신도림신경외과의원,"서울특별시 구로구 경인로 661, 신도림1차푸르지오 223,224,241호 (신도림동)",37.5096619486431,126.887986372819,구로구
hospital,신도림이편한치과의원,"서울특별시 구로구 경인로 625, 힐스테이트 신도림역 센트럴 303~305호 (신도림동)",37.5070842748567,126.884718686628,구로구
hospital,신도림퍼스트정형외과의원,"서울특별시 구로구 경인로63길 11, 신도림 크라운빌2 오피스텔 2층 206~8, 209일부호 (신도림동)",37.507703915667,126.885201806812,구로구
hospital,신도림하나이비인후과의원,"서울특별시 구로구 새말로 89, 태영빌딩 B02,202,501호 (구로동)",37.5056097068416,126.889834342021,구로구
hospital,신동석치과의원,서울특별시 구로구 개봉로 57  (개봉동),37.4907685069168,126.855765423363,구로구
hospital,신목제일의원,"서울특별시 구로구 중앙로14길 27, 신도교회 (고척동)",37.507328802606,126.862872137151,구로구
hospital,신통방통의원,"서울특별시 구로구 고척로 144, 두발로빌딩 6층 (고척동)",37.5026751992737,126.849970000444,구로구
hospital,신통방통재활의학과의원,"서울특별시 구로구 구로동로26길 8, 기산빅프라자 5층 (구로동)",37.4902530613756,126.884745689064,구로구
hospital,신통한마취통증의학과의원,"서울특별시 구로구 중앙로 60, 강산메디칼프라자 402호 (고척동)",37.5031383188753,126.862560988844,구로구
hospital,실로암한의원,"서울특별시 구로구 개봉로 68, 2층 (개봉동)",37.4917591406471,126.856269898222,구로구
hospital,심재경한의원,"서울특별시 구로구 가마산로 229, 성보빌딩 2층 (구로동)",37.4942498767072,126.886367233825,구로구
hospital,아나파한방병원,"서울특별시 구로구 중앙로1길 18-18, 2층 (고척동, 신원프라자)",37.4992309400309,126.86358074399,구로구
hospital,아름다운미래의원,"서울특별시 구로구 구로중앙로 134, 1층 (구로동, 신구로자이나인스에비뉴)",37.5000072779971,126.884020948231,구로구
hospital,아름샘의원,"서울특별시 구로구 도림로 92, 2층 (구로동)",37.4904852469087,126.89357695928,구로구
hospital,아름생가정의학과의원,서울특별시 구로구 중앙로15길 107,37.5073174465503,126.85392499812,구로구
hospital,아름제일병원,"서울특별시 구로구 새말로 94, 2~6층, 9층 / 새말로 110 지하1층동 3~6층 (구로동)",37.5054702180553,126.890498431184,구로구
hospital,아비쥬의원,"서울특별시 구로구 시흥대로 561, 동해빌딩 6,7층 (구로동)",37.4832605046509,126.901242115542,구로구
hospital,아산바른내과의원,"서울특별시 구로구 구로동로26길 8, 기산빅프라자 4층 401호 (구로동)",37.4902530613756,126.884745689064,구로구
hospital,아이맘소아청소년과의원,"서울특별시 구로구 남부순환로97길 3, KS프리미어빌딩 602호 (개봉동)",37.4939965454232,126.858298777188,구로구
hospital,아이온소아청소년과의원,"서울특별시 구로구 경인로 661, 신도림1차푸르지오 211,212호 (신도림동)",37.5092751249741,126.88739406201,구로구
hospital,아이티치과의원,"서울특별시 구로구 디지털로 272, 한신아이티타워 109호 (구로동)",37.4825015514453,126.894429926307,구로구
hospital,아임플치과의원,"서울특별시 구로구 새말로 94, 아름제일여성병원 1층 (구로동)",37.5054702180553,126.890498431184,구로구
hospital,아임플치과의원,"서울특별시 구로구 새말로 97, 신도림테크노마트 10층 (구로동)",37.5070438414784,126.890227293528,구로구
hospital,안아프니치과의원,"서울특별시 구로구 시흥대로 577, 2층 (구로동)",37.4844395029,126.9022520532,구로구
hospital,안용태내과의원,"서울특별시 구로구 경인로59길 8 , 태영프라자 307호  (신도림동)",37.5063918465946,126.883427027522,구로구
hospital,앙센치과의원,"서울특별시 구로구 경인로63길 11, 신도림 크라운빌2 오피스텔 202호 (신도림동)",37.507703915667,126.885201806812,구로구
hospital,애경내과의원,"서울특별시 구로구 새말로 89, 4층 (구로동)",37.5055228020587,126.889704842477,구로구
hospital,애경연세소아청소년과의원,"서울특별시 구로구 경인로67길 23 , 신도림푸르지오2차 3층 301호  (신도림동, 신도림2차푸르지오)",37.5104826397728,126.889481191271,구로구
hospital,약손한의원,"서울특별시 구로구 경인로 214, 1,2층 (오류동)",37.4961522382376,126.844713370004,구로구
hospital,양근영치과의원,"서울특별시 구로구 부일로15길 10, 2층 (궁동)",37.4937792182318,126.834266719159,구로구
hospital,양정안소아청소년과의원,"서울특별시 구로구 경인로20길 6, 포스시티 105,106호 (오류동)",37.495404447,126.8433760001,구로구
hospital,양지한의원,"서울특별시 구로구 구일로8길 92, 201호 (구로동, 중앙구로하이츠아파트)",37.4977392839264,126.876310849776,구로구
hospital,엄찬섭이비인후과의원,"서울특별시 구로구 구로동로 240, 세일빌딩 3층 (구로동)",37.5000091262002,126.882698928254,구로구
hospital,에스미의원,"서울특별시 구로구 시흥대로 577-11, 4층 (구로동)",37.4845170997496,126.901841521647,구로구
hospital,에스준의원,"서울특별시 구로구 경인로 643, 205동 221호 (신도림동, 신도림2차동아아파트)",37.508298548359,126.886651495197,구로구
hospital,에스퀸산부인과의원,"서울특별시 구로구 디지털로 300, 지밸리비즈플라자 205호 (구로동)",37.4849270383011,126.896538036905,구로구
hospital,에스탑치과의원,"서울특별시 구로구 경인로40길 12, 4층 (개봉동)",37.4962642022543,126.859131313522,구로구
hospital,에이케이(AK)치과의원,"서울특별시 구로구 새말로 19, 정윤빌딩 2층 (구로동)",37.5023015093903,126.88292605184,구로구
hospital,엘비뇨기과의원,"서울특별시 구로구 경인로 572, 스타팰리스 408호 (구로동)",37.5033122732492,126.881067784484,구로구
hospital,엠케이(MK)비뇨기과의원,서울특별시 구로구 도림로 75  (구로동),37.4897750049183,126.891474168859,구로구
hospital,여남한의원,"서울특별시 구로구 도림로 73, 인성빌딩 (구로동)",37.4899877122075,126.891550746865,구로구
hospital,연세공감마취통증의학과의원,"서울특별시 구로구 디지털로 300, 지밸리비즈플라자 B1층 B110,B112,B115호 (구로동)",37.4851028534978,126.896673588059,구로구
hospital,연세굿샘치과의원,서울특별시 구로구 신도림로 2 (신도림동),37.5055946236444,126.87727539689,구로구
hospital,연세나우가정의원,"서울특별시 구로구 개봉로3길 61, 2층 (개봉동)",37.4860569424638,126.85283449512,구로구
hospital,연세남구로치과의원,"서울특별시 구로구 구로동로 138, 2층 일부호 (구로동)",37.4908348518315,126.884295205997,구로구
hospital,연세내과의원,"서울특별시 구로구 구로동로26길 119, 정엽빌딩 4,5층 (구로동)",37.4900653805612,126.890620654436,구로구
hospital,연세다솜치과의원,서울특별시 구로구 부일로 855 (온수동),37.4922530982877,126.82200635081,구로구
hospital,연세도아소아치과치과의원,"서울특별시 구로구 경인로67길 23, 209호 (신도림동, 신도림2차푸르지오)",37.5107095498229,126.889232363437,구로구
hospital,연세무지개치과의원,"서울특별시 구로구 경인로 373, 문화골든타워 401호 (고척동)",37.4969051988,126.8618961653,구로구
hospital,연세미소드림치과의원,"서울특별시 구로구 디지털로32길 79, 조영빌딩 3층 (구로동)",37.4835327960573,126.899752242102,구로구
hospital,연세봄빛피부과의원,"서울특별시 구로구 시흥대로 551, 광희빌딩 4층 (구로동)",37.4825399425928,126.900246298277,구로구
hospital,연세봄정신건강의학과의원,"서울특별시 구로구 시흥대로 551, 광희빌딩 3층 일부호 (구로동)",37.4825399425928,126.900246298277,구로구
hospital,연세봄치과의원,"서울특별시 구로구 경인로 661, 신도림1차푸르지오 101동 206호 (신도림동)",37.5094997689566,126.887780684445,구로구
hospital,연세봉봉소아청소년과의원,"서울특별시 구로구 경인로59길 8, 태영프라자 410호 (신도림동)",37.5063918465946,126.883427027522,구로구
hospital,연세비뇨기과의원,서울특별시 구로구 고척로 148-2 (고척동),37.502844110155,126.85030340229,구로구
hospital,연세사랑니치과의원,"서울특별시 구로구 경인로 661, 신도림1차푸르지오 2층 207호 (신도림동)",37.5090492151745,126.8869873429,구로구
hospital,연세사랑모아여성병원,서울특별시 구로구 중앙로 100 (고척동),37.5064934607305,126.860501380135,구로구
hospital,연세사랑정형외과의원,"서울특별시 구로구 경인로 393-7, 일이삼전자타운 2동 5층 21호 (고척동)",37.4974421887122,126.86304887653,구로구
hospital,연세사랑치과의원,"서울특별시 구로구 천왕로 36, 303호 (천왕동, 천왕센터프라자)",37.4807615142331,126.839521809752,구로구
hospital,연세수이비인후과의원,"서울특별시 구로구 개봉로 49, ,5층일부 (개봉동)",37.4901119991549,126.855811237106,구로구
hospital,연세안과의원,서울특별시 구로구 고척로 142-1 (고척동),37.5026470093918,126.849837285068,구로구
hospital,연세안치과의원,서울특별시 구로구 경인로65길 44,37.5095945610365,126.88519726532,구로구
hospital,연세엠(M)치과의원,"서울특별시 구로구 디지털로 285, 에이스트윈타워1차 204호 (구로동)",37.4844868998133,126.894504696242,구로구
hospital,연세연합의원,"서울특별시 구로구 서해안로 2338, 2,3층 (오류동)",37.4934821848779,126.844151443881,구로구
hospital,연세오치과의원,"서울특별시 구로구 도림로 59, 203호 (구로동, 구로두산아파트)",37.4898993993674,126.888961869782,구로구
hospital,연세올찬재활의학과의원,"서울특별시 구로구 경인로 216, 4층 (오류동)",37.4962152453948,126.84486554294,구로구
hospital,연세우리동네의원,"서울특별시 구로구 개봉로 69, 3층 (개봉동)",37.4919033153723,126.85561013455,구로구
hospital,연세유치과의원,"서울특별시 구로구 남부순환로97길 12, 진영빌딩 (개봉동)",37.4941938767318,126.858684009816,구로구
hospital,연세의원,"서울특별시 구로구 도림로 29, 101,201호 (구로동)",37.4870852069078,126.887832281348,구로구
hospital,연세이비인후과의원,서울특별시 구로구 경인로 195 (오류동),37.4958289216517,126.842841360819,구로구
hospital,연세재활의학과의원,"서울특별시 구로구 경인로33길 79, 지하1층,1층 (고척동)",37.5013361892405,126.850588915453,구로구
hospital,연세정신건강의학과의원,"서울특별시 구로구 디지털로32길 79, 조영빌딩 2층 일부호 (구로동)",37.4835332463617,126.899752015371,구로구
hospital,연세정인내과의원,"서울특별시 구로구 남부순환로97길 3, KS프리미어빌딩 501호 (개봉동)",37.49399577225,126.858255129585,구로구
hospital,연세정형외과의원,"서울특별시 구로구 가마산로 271, 301호 (구로동)",37.4963996027511,126.890291049446,구로구
hospital,연세치과의원,"서울특별시 구로구 구로동로 179, (구로동)",37.4944529165006,126.882542067811,구로구
hospital,연세큐재활의학과의원,"서울특별시 구로구 경인로43길 49, MD동 B-204호 (고척동, 고척아이파크)",37.4990691887707,126.857532971967,구로구
hospital,연세타임치과의원,"서울특별시 구로구 고척로 149, 상암빌딩 2층 (고척동)",37.5030928294272,126.850094146886,구로구
hospital,연세튼튼소아청소년과의원,"서울특별시 구로구 천왕로 32, 천왕에이스프라자 301호 (천왕동)",37.4805805889512,126.839785287842,구로구
hospital,연세푸른이비인후과의원,"서울특별시 구로구 경인로59길 8 , 태영프라자 3층  (신도림동)",37.5063918465946,126.883427027522,구로구
hospital,연세필의원,서울특별시 구로구 경인로 31-28 (온수동),37.4914302668122,126.825000082983,구로구
hospital,연세한결치과의원,"서울특별시 구로구 구일로4길 30, 201호 (구로동)",37.4918751361412,126.876446827824,구로구
hospital,연우당한의원,"서울특별시 구로구 구로동로8길 96, 2층 (구로동)",37.4897718202778,126.88820129579,구로구
hospital,연한의원,서울특별시 구로구 구로동로 168 (구로동),37.4936306889,126.8833919074,구로구
hospital,연희산부인과의원,"서울특별시 구로구 경인로 193, 3층 (오류동,상임빌딩)",37.4957078018126,126.842489946869,구로구
hospital,열린성모이비인후과의원,"서울특별시 구로구 구로중앙로 68, 306,307호 (구로동, 신안타워)",37.4958127770546,126.888792044426,구로구
hospital,열린연세정형외과의원,"서울특별시 구로구 고척로 132 (개봉동,4,5층)",37.5021971954088,126.848661950015,구로구
hospital,열린이비인후과의원,"서울특별시 구로구 남부순환로97길 3, KS프리미어빌딩 402호 (개봉동)",37.4939307562578,126.858181995143,구로구
hospital,열린치과의원,"서울특별시 구로구 개봉로 71, 5층 (개봉동, 강서프라자)",37.4920938346959,126.855574487587,구로구
hospital,영등포한의원,"서울특별시 구로구 도림천로 344, 1층 일부호 (구로동, 대림2차우성아파트)",37.4940692999608,126.8939084019,구로구
hospital,영민한의원,"서울특별시 구로구 구로동로 240, 세일빌딩 4층 (구로동)",37.5000163542555,126.882726078949,구로구
hospital,영신가정의학과의원,"서울특별시 구로구 경인로 211-1, 3층 (오류동)",37.4965265984372,126.844359751425,구로구
hospital,예산부인과의원,"서울특별시 구로구 경인로67길 23, 208호 (신도림동, 신도림2차푸르지오)",37.5105393156659,126.889453054548,구로구
hospital,예스병원,"서울특별시 구로구 구로동로 147, MEDI FLOWER 147 (구로동)",37.4916865049695,126.883400470712,구로구
hospital,오디한의원,"서울특별시 구로구 오류로 73, 4층 (오류동)",37.4911695641672,126.840566984384,구로구
hospital,오래올의원,"서울특별시 구로구 경인로 661, 신도림1차푸르지오 2층 260,261호 (신도림동)",37.5096619486431,126.887986372819,구로구
hospital,오류중앙의원,"서울특별시 구로구 경인로 159 (오류동, 오류중앙의원)",37.4942661088834,126.839146212963,구로구
hospital,오복만세치과의원,"서울특별시 구로구 디지털로31길 20, 에이스테크노타워5차 204호 (구로동)",37.4855210244653,126.894345286511,구로구
hospital,오율의원신도림점,"서울특별시 구로구 경인로63길 11, 신도림 크라운빌2 오피스텔 2층 209일부,210,211호 (신도림동)",37.507703915667,126.885201806812,구로구
hospital,오케이요양병원,"서울특별시 구로구 중앙로 64, 고척프라자 가동 4,5층/나동3,4층 (고척동)",37.5037992525197,126.862833580926,구로구
hospital,오형태내과의원,"서울특별시 구로구 고척로21나길 17, 현대빌딩 2층 (개봉동)",37.502686578065,126.844760322443,구로구
hospital,온수의원,서울특별시 구로구 부일로1길 26-13 (온수동),37.4924584145444,126.82079909404,구로구
hospital,올바른치과의원,"서울특별시 구로구 구로동로 240, 세일빌딩 5층 501호 (구로동)",37.5000087655668,126.88269870264,구로구
hospital,우리가족소아치과의원,"서울특별시 구로구 오류로 20, 새롬스타빌 305호 (천왕동)",37.486150329707,126.839505873905,구로구
hospital,우리가족치과의원,"서울특별시 구로구 오류로 20, 새롬스타빌 302,303,304-1호 (천왕동)",37.486150329707,126.839505873905,구로구
hospital,우리미본의원,"서울특별시 구로구 가마산로 215, 용평빌딩 3,4,5,6층 (구로동)",37.4937003804712,126.884906619604,구로구
hospital,우리웰치과의원,"서울특별시 구로구 경인로 387, 601호 (고척동)",37.4970868505034,126.863142594513,구로구
hospital,우리의원,"서울특별시 구로구 공원로7길 40, 대영빌딩 2층 (구로동)",37.501492314577,126.886900909221,구로구
hospital,운당한의원,"서울특별시 구로구 고척로19길 41, 매봉빌딩 (개봉동)",37.5030537598182,126.844576935705,구로구
hospital,워싱턴올리브치과의원,"서울특별시 구로구 경인로 403 10층 (고척동,원메디타운)",37.4979584319431,126.864347749519,구로구
hospital,월드치과의원,"서울특별시 구로구 경인로40길 47, 3층 (개봉동)",37.4945222528654,126.859102583368,구로구
hospital,웰티스치과의원,"서울특별시 구로구 구로동로 130-1, 2층 (구로동)",37.4902400279908,126.88440874605,구로구
hospital,위드유이비인후과의원,"서울특별시 구로구 경인로43길 49, MD동 B-203호 (고척동, 고척아이파크)",37.4990691887707,126.857532971967,구로구
hospital,유동철치과의원,"서울특별시 구로구 개봉로 53, (개봉동)",37.4904270192327,126.855760426231,구로구
hospital,유로진비뇨의학과의원,"서울특별시 구로구 경인로 661, 신도림1차푸르지오 213호 (신도림동)",37.5096619486431,126.887986372819,구로구
hospital,유로진비뇨의학과의원,"서울특별시 구로구 경인로 661, 신도림1차푸르지오 213,226호 (신도림동)",37.5089868471383,126.887439736306,구로구
hospital,유앤아이의원구로점,"서울특별시 구로구 디지털로 306, 대륭포스트타워2차 213, 214호 (구로동)",37.4859231683292,126.897336395657,구로구
hospital,유어힐의원,"서울특별시 구로구 디지털로 300, 지밸리비즈플라자 203,204호 (구로동)",37.4849270383011,126.896538036905,구로구
hospital,유치과의원,"서울특별시 구로구 구로동로 10, 정풍빌딩 (가리봉동)",37.4827762742694,126.887503602649,구로구
hospital,윤의원,"서울특별시 구로구 구로동로42길 58, 2층 (구로동)",37.49820657818,126.884256013612,구로구
hospital,윤치과의원,"서울특별시 구로구 서해안로 2338, 4층 (오류동)",37.4934821848779,126.844151443881,구로구
hospital,윤치과의원,"서울특별시 구로구 고척로 144, 두발로빌딩 (고척동)",37.5026715442655,126.850006218197,구로구
hospital,의료법인개봉현대의원,"서울특별시 구로구 개봉로 124, 2,3층 (개봉동)",37.4967657204019,126.856748808689,구로구
hospital,의료법인다나의료재단구로다나병원,"서울특별시 구로구 개봉로 126, 구로다나병원빌딩 (개봉동)",37.4967256249407,126.85697132267,구로구
hospital,의료법인미소들노인전문병원,"서울특별시 구로구 고척로21나길 88-41 (개봉동, 미소들병원)",37.5028978149919,126.841198898052,구로구
hospital,의료법인서울효천의료재단에이치플러스자립병원,"서울특별시 구로구 공원로6가길 4, 고려 수 타워 (구로동)",37.5018900991034,126.891600090782,구로구
hospital,의료법인어울림의료재단정성요양병원,"서울특별시 구로구 남부순환로 1287, 정성요양병원 2.3.5층 남부순환로 107길 24동 (가리봉동)",37.478959359531,126.893863967464,구로구
hospital,의료법인우리아이들의료재단우리아이들병원,"서울특별시 구로구 새말로 15, 2~10층,11층 일부호 (구로동, 삼전 솔하임)",37.5021858199934,126.882472051568,구로구
hospital,이(e)스타치과의원,"서울특별시 구로구 새말로 89, 태영빌딩 3층 (구로동)",37.5056097068416,126.889834342021,구로구
hospital,이(e)편한치과의원,"서울특별시 구로구 고척로 204, 2층 (고척동)",37.5049578963193,126.855979704959,구로구
hospital,이가온치과의원,"서울특별시 구로구 경인로59길 8, 태영프라자 305호 (신도림동)",37.5063918465946,126.883427027522,구로구
hospital,이광희치과의원,"서울특별시 구로구 중앙로 37, 풍정빌딩 (고척동)",37.5011608231772,126.863052602466,구로구
hospital,이기천이비인후과의원,"서울특별시 구로구 중앙로 60, 강산메디칼프라자 301호 (고척동)",37.5031130316152,126.862587612341,구로구
hospital,이기현안과의원,"서울특별시 구로구 경인로 319, 403호 (개봉동,대림프라자)",37.497604056365,126.855597688982,구로구
hospital,이담치과의원,"서울특별시 구로구 디지털로34길 55, 코오롱싸이언스밸리2차 121,122호 (구로동)",37.4842856391064,126.899282125859,구로구
hospital,이디치과의원,"서울특별시 구로구 디지털로 300, 지밸리비즈플라자 B1-19호 (구로동)",37.4849270383011,126.896538036905,구로구
hospital,이레소아청소년과의원,서울특별시 구로구 도림로 67 (구로동),37.4895221631,126.8910104203,구로구
hospital,이미지치과의원,서울특별시 구로구 오류로8길 16 (오류동),37.4909827176637,126.841521063759,구로구
hospital,이사라치과교정과치과의원,"서울특별시 구로구 디지털로 243, 지하이시티 202호 (구로동)",37.4819921356854,126.892348937684,구로구
hospital,이수양내과의원,"서울특별시 구로구 경인로 216, 3층일부 (오류동)",37.4962096707635,126.844874375007,구로구
hospital,이아소내과의원,"서울특별시 구로구 중앙로 60, 강산메디칼프라자 5층 (고척동)",37.5030831949577,126.862504563303,구로구
hospital,이안과의원,"서울특별시 구로구 구로중앙로 217, 지하1층, 5~8층 (구로동)",37.5050591361269,126.876822979939,구로구
hospital,이앤치과의원,"서울특별시 구로구 경인로 176, 309호 (오류동, 시티월드)",37.4943605889981,126.841050520575,구로구
hospital,이연합의원,"서울특별시 구로구 경인로40길 47, 개봉역사 3층 (개봉동)",37.4946016895949,126.858669220666,구로구
hospital,이영우내과의원,"서울특별시 구로구 신도림로 7, 205호 (신도림동)",37.5061633129074,126.877164760067,구로구
hospital,이영훈치과의원,서울특별시 구로구 중앙로 63 (고척동),37.5032523224978,126.861888433413,구로구
hospital,이온한의원,"서울특별시 구로구 경인로 643, 205동 202,203호 (신도림동, 신도림2차동아아파트)",37.5088498841248,126.885553611579,구로구
hospital,이웃사랑치과의원,"서울특별시 구로구 구로중앙로28길 73, 구로하우비 2층 201,202호 (구로동)",37.5008487635068,126.889318291994,구로구
hospital,이의원,"서울특별시 구로구 고척로 134, 2층 일부호 (개봉동)",37.5022316687641,126.848795513571,구로구
hospital,이이비인후과의원,"서울특별시 구로구 경인로 319, 대림프라자 (개봉동)",37.4975656392601,126.855495985686,구로구
hospital,이재성치과의원,"서울특별시 구로구 구로중앙로 14, (구로동)",37.4915920683349,126.892319125146,구로구
hospital,이정록한의원,서울특별시 구로구 오리로 1294 (궁동),37.496956797583,126.829644249811,구로구
hospital,이지신경외과의원,"서울특별시 구로구 구로동로26길 37, 3층 (구로동)",37.4902679096097,126.886213943676,구로구
hospital,이튼튼치과의원,"서울특별시 구로구 디지털로32가길 25, 티타운빌딩 1층 (구로동)",37.4821488683208,126.898930994884,구로구
hospital,이화가정의학과의원,"서울특별시 구로구 구로동로26길 116, 보건당빌딩 2층 (구로동)",37.4899648753734,126.890379952436,구로구
hospital,인아치과의원,"서울특별시 구로구 서해안로 2098, 항동프라자 3층 301호 (항동)",37.4800610311955,126.823207022088,구로구
hospital,인의한의원,"서울특별시 구로구 구로동로22길 1, 2층 (구로동)",37.4895376833278,126.884583283504,구로구
hospital,인제한의원,"서울특별시 구로구 경인로 319, 대림프라자 5층 (개봉동)",37.4977003766024,126.86387144544,구로구
hospital,일로한방병원,"서울특별시 구로구 경인로 176, 501,502,601호 (오류동, 시티월드)",37.4943597756678,126.841048713001,구로구
hospital,일층경희한의원,"서울특별시 구로구 디지털로 272, 한신아이티타워 109-1호 (구로동)",37.4825015514453,126.894429926307,구로구
hospital,임순모치과의원,서울특별시 구로구 개봉로 68 (개봉동),37.4917558215986,126.856275990267,구로구
hospital,임혜라소아청소년과의원,"서울특별시 구로구 고척로 144, 두발로빌딩 (고척동)",37.5026111344033,126.849967301298,구로구
hospital,자애내과의원,서울특별시 구로구 경서로 6 (고척동),37.4980305876387,126.856926652502,구로구
hospital,자연e치과의원,"서울특별시 구로구 남부순환로 775 (개봉동, 개봉푸르지오)",37.5015678689641,126.847162335199,구로구
hospital,장도훈치과의원,"서울특별시 구로구 구로동로 153, 2층 (구로동)",37.4923558955247,126.883433466627,구로구
hospital,장윤주산부인과의원,"서울특별시 구로구 남부순환로97길 3, KS프리미어빌딩 701호 (개봉동)",37.4940213433847,126.858315692414,구로구
hospital,장한의원,"서울특별시 구로구 고척로 144, 두발로빌딩 2층 (고척동)",37.5026751091805,126.849970000623,구로구
hospital,장호준의원,"서울특별시 구로구 구일로4길 30, 신영상가 2층 (구로동)",37.4919177292651,126.876595793632,구로구
hospital,재단법인제중의료복지재단제중요양병원,"서울특별시 구로구 새말로 60, 제중요양병원 지하1,2/1~10층 (구로동)",37.5032247869143,126.886639083503,구로구
hospital,전동주한의원,"서울특별시 구로구 중앙로 60, 강산메디칼프라자 302호 (고척동)",37.5031373304,126.8625632525,구로구
hospital,전마취통증의학과의원,"서울특별시 구로구 개봉로20길 6, 201-1,201-2,202호 (개봉동, 현대아파트1단지)",37.4921831915366,126.856368573585,구로구
hospital,전안과의원,"서울특별시 구로구 경인로 643, 205동 201호 (신도림동, 신도림2차동아아파트)",37.5084207187879,126.886657353183,구로구
hospital,정가정의학과의원,"서울특별시 구로구 경인로 382 (개봉동, 한마을아파트)",37.4963605776975,126.863089074111,구로구
hospital,정내과의원,"서울특별시 구로구 구로중앙로 10, 정내과 (구로동)",37.4913589266084,126.892551811643,구로구
hospital,정명치과의원,서울특별시 구로구 개봉로20길 6,37.4921124261445,126.856611441731,구로구
hospital,정비뇨기과의원,"서울특별시 구로구 경인로 211-1, (오류동)",37.4965244084926,126.844407251364,구로구
hospital,정안과의원,"서울특별시 구로구 경인로 572, 스타팰리스 411,412호 (구로동)",37.5033062723055,126.881083869229,구로구
hospital,정앤장내과의원,"서울특별시 구로구 오리로 1149, 랑데르 106,107호 (천왕동)",37.4867763877917,126.838344327752,구로구
hospital,정원창치과의원,"서울특별시 구로구 가마산로 246, 6층 (구로동)",37.4946886322524,126.888315077346,구로구
hospital,정인과정신건강의학과의원,"서울특별시 구로구 가마산로 236, 도진빌딩 5층 (구로동)",37.4941011501142,126.887150090464,구로구
hospital,정재면내과의원,"서울특별시 구로구 경인로 565, 삼영빌딩 4,5층 (구로동)",37.5036093379375,126.879805415041,구로구
hospital,정직한이치과의원,"서울특별시 구로구 오류로8길 64, 2층 (오류동)",37.4923815802605,126.84385927557,구로구
hospital,정태환치과의원,"서울특별시 구로구 고척로 142, (고척동)",37.5025629926632,126.849667155196,구로구
hospital,제율한의원구로점,"서울특별시 구로구 시흥대로 577, 3층 일부/ 디지털로32나길 38, 5층 일부 (구로동)",37.4844395028997,126.902252053181,구로구
hospital,제인당한의원,"서울특별시 구로구 새말로 79, 구일빌딩 1층 (구로동)",37.5050786620961,126.888784675313,구로구
hospital,제일경희한의원,"서울특별시 구로구 구로중앙로28길 65, 202호 (구로동)",37.5004692575623,126.888931744162,구로구
hospital,제일성모내과의원,"서울특별시 구로구 시흥대로 561, 동해빌딩 3층 (구로동)",37.4832605046509,126.901242115542,구로구
hospital,제일치과의원,"서울특별시 구로구 구로동로 106-1, 제일치과 (구로동)",37.4881305555556,126.884847222222,구로구
hospital,제일허브힐한의원,"서울특별시 구로구 구로중앙로 212, 영삼빌딩 201,202호 (구로동)",37.5049633311794,126.877837052307,구로구
hospital,제통한의원,"서울특별시 구로구 구로동로26길 122, 2층 (구로동)",37.4897993386124,126.890648180164,구로구
hospital,조대엽치과의원,"서울특별시 구로구 경인로 187, 오류동 삼전솔하임 201호 (오류동)",37.4956124499427,126.841791274363,구로구
hospital,조은가정의학과의원,"서울특별시 구로구 가마산로 244, 동헌빌딩 2층일부 (구로동)",37.4945789797264,126.888029483958,구로구
hospital,조은성모안과의원,"서울특별시 구로구 중앙로 60, 강산메디칼프라자 201,202호 (고척동)",37.5031383188753,126.862560988844,구로구
hospital,조은의원,서울특별시 구로구 신도림로 16,37.5051228166042,126.88219103785,구로구
hospital,조은치과의원,"서울특별시 구로구 경인로40길 34, (개봉동)",37.4954202836841,126.858804979534,구로구
hospital,조은한의원,"서울특별시 구로구 남부순환로97길 12, 진영빌딩 4층 (개봉동)",37.4941938767318,126.858684009816,구로구
hospital,조이비인후과의원,"서울특별시 구로구 구로동로 135, 남부빌딩 3층 (구로동)",37.4906411011165,126.88370977403,구로구
hospital,조이치과의원,"서울특별시 구로구 구로중앙로 60, (구로동,대림오페라타워)",37.4951573973245,126.889441716862,구로구
hospital,조준호이비인후과의원,"서울특별시 구로구 고척로 230, 5층 502~503호 (고척동)",37.5059339567008,126.858516438411,구로구
hospital,좋은날마취통증의학과의원,"서울특별시 구로구 개봉로20길 60, 2,3,4층 (개봉동)",37.4933987409279,126.857710083529,구로구
hospital,좋은아침한의원구로디지털점,"서울특별시 구로구 디지털로 285, 에이스트윈타워1차 201호 (구로동)",37.4844868998,126.8945046962,구로구
hospital,주안우리의원,"서울특별시 구로구 구로중앙로 152, NC백화점 7층 (구로동)",37.5011601442131,126.882773011925,구로구
hospital,주헌장치과의원,"서울특별시 구로구 개봉로 30, 2층 (개봉동, 로얄타워)",37.4882503989572,126.85652705464,구로구
hospital,중앙미치과의원,"서울특별시 구로구 부일로 873 (온수동, 신안하임)",37.4929915543,126.8241666672,구로구
hospital,중앙의원,"서울특별시 구로구 경인로53길 15, 중앙유통단지 A01-01호 (구로동)",37.5020321024364,126.876117278882,구로구
hospital,지밸리산부인과의원,"서울특별시 구로구 디지털로26길 98, 디지털탑프라자 401호 (구로동)",37.4815845543,126.8973488896,구로구
hospital,지앤산부인과의원,"서울특별시 구로구 시흥대로 559, 부원빌딩 3,4층 (구로동)",37.4831420688953,126.901190374978,구로구
hospital,지의원,"서울특별시 구로구 경인로 176 (오류동, 시티월드)",37.4943605889981,126.841050520575,구로구
hospital,지타워의원,"서울특별시 구로구 디지털로26길 38, G-Tower B134호 (구로동)",37.4798477003537,126.895318461208,구로구
hospital,진가정의학과의원,"서울특별시 구로구 디지털로33길 11, 에이스테크노타워8차 201호 (구로동)",37.4857057781612,126.895512679788,구로구
hospital,진정성레오치과의원,"서울특별시 구로구 구일로 110, 해원리버파크 301호 (구로동)",37.4950749316149,126.872009076717,구로구
hospital,참맑은한의원,"서울특별시 구로구 디지털로 288, 대륭포스트타워1차 210호 (구로동)",37.4835687568,126.8955009574,구로구
hospital,참좋은내과의원,"서울특별시 구로구 구로동로 147, MEDI FLOWER 147 3층 (구로동)",37.4916865049695,126.883400470712,구로구
hospital,참좋은리빙웰치과의원,서울특별시 구로구 가마산로 244,37.494579431951,126.888031292584,구로구
hospital,참튼튼병원,"서울특별시 구로구 시흥대로 547, 금강빌딩 지하1,2~10층(구로동), 디지털로32가길 25, 티타운빌딩 B102,103,205,206,302 (구로동)",37.4821357843577,126.900393590898,구로구
hospital,척튼튼마취통증의학과의원,"서울특별시 구로구 새말로 18, 백봉빌딩 4,5층 (구로동)",37.5019861046095,126.883145604592,구로구
hospital,천왕에이스치과의원,서울특별시 구로구 천왕로 32 (천왕동),37.4805794128249,126.839783351836,구로구
hospital,천왕한의원,"서울특별시 구로구 천왕로 32, 천왕에이스프라자 305호 (천왕동)",37.480579867081,126.839784497961,구로구
hospital,천유한의원,서울특별시 구로구 오류로8길 72 (오류동),37.4926231884024,126.844168833553,구로구
hospital,청담맥의원,"서울특별시 구로구 디지털로 288, 대륭포스트타워1차 220호 (구로동)",37.4835695693308,126.895502765348,구로구
hospital,청아한의원,"서울특별시 구로구 부일로 965, 2층 (궁동)",37.4933776792,126.8344876592,구로구
hospital,청암한의원,"서울특별시 구로구 구로동로8길 95, 2층 (구로동)",37.4897500089331,126.88801138427,구로구
hospital,청정한몸한의원,"서울특별시 구로구 경인로67길 23, 307호 (신도림동, 신도림2차푸르지오)",37.5107095498229,126.889232363437,구로구
hospital,최석용정형외과의원,"서울특별시 구로구 경인로59길 8, 301,302,318호 (신도림동)",37.5063918465946,126.883427027522,구로구
hospital,최안과의원,서울특별시 구로구 경인로 211-1,37.496525424891,126.844358057597,구로구
hospital,최영식치과의원,"서울특별시 구로구 경인로35길 131-48, 2층 (고척동)",37.5013758999785,126.851069701792,구로구
hospital,최창영이비인후과의원,"서울특별시 구로구 도림로 69, 3층 (구로동)",37.4896331110441,126.891047234259,구로구
hospital,최태진내과의원,"서울특별시 구로구 천왕로 32, 천왕에이스프라자 302호 (천왕동)",37.4805805889512,126.839785287842,구로구
hospital,최흉부외과의원,"서울특별시 구로구 개봉로 48, 대성빌딩 1층 (개봉동)",37.4899205114592,126.856383535143,구로구
hospital,치과가는날치과의원,"서울특별시 구로구 시흥대로 561, 동해빌딩 4층 (구로동)",37.4832605046509,126.901242115542,구로구
hospital,치아랑치과의원,"서울특별시 구로구 디지털로 243, 지하이시티 204호 (구로동)",37.4819921356854,126.892348937684,구로구
hospital,치유앤미성형외과의원,"서울특별시 구로구 경인로 625, 힐스테이트 신도림역 센트럴 307~309호 (신도림동)",37.5070842748567,126.884718686628,구로구
hospital,치즈치과교정과치과의원,"서울특별시 구로구 경인로67길 23, 101-210호 (신도림동, 신도림2차푸르지오)",37.5104826397728,126.889481191271,구로구
hospital,코리아정형외과의원,"서울특별시 구로구 도림로 73, 인성빌딩 3층 (구로동)",37.4898550054825,126.891511081857,구로구
hospital,코알라이비인후과의원,"서울특별시 구로구 오류로8길 16, 세명프라자 202호 (오류동)",37.4909827176637,126.841521063759,구로구
hospital,코앤유의원,"서울특별시 구로구 경인로59길 8, 태영프라자 311호 (신도림동)",37.5063918465946,126.883427027522,구로구
hospital,큐브산부인과의원,"서울특별시 구로구 경인로 661, 신도림1차푸르지오 238,239호 (신도림동)",37.5096619486431,126.887986372819,구로구
hospital,큐브성형외과의원,"서울특별시 구로구 경인로 662, 10층 (신도림동, 디큐브시티)",37.5081230677129,126.888212953215,구로구
hospital,타임안과의원,"서울특별시 구로구 경인로 387, 5층 (고척동)",37.4970868505034,126.863142594513,구로구
hospital,탑비뇨기과의원,"서울특별시 구로구 개봉로24길 46, 206~208호 (개봉동, 신영지웰 에스테이트 개봉역)",37.4955704479805,126.857645011702,구로구
hospital,탑치과의원,"서울특별시 구로구 경인로 643 (신도림동, 신도림2차동아아파트)",37.5088498841248,126.885553611579,구로구
hospital,태영성모의원,"서울특별시 구로구 새말로 83, 2층 (구로동)",37.505223452864,126.889071388744,구로구
hospital,터커리한의원,"서울특별시 구로구 경인로59길 8, 태영프라자 304호 (신도림동)",37.5063925667346,126.883426347806,구로구
hospital,토마토치과의원,서울특별시 구로구 경인로 203 (오류동),37.496074182903,126.843389754612,구로구
hospital,투엠치과의원,"서울특별시 구로구 경인로 557, 삼영빌딩 301호 (구로동)",37.5031086474128,126.879009129455,구로구
hospital,퍼스트치과의원,"서울특별시 구로구 경인로43길 49, B동 202호 (고척동, 고척아이파크)",37.4990691887707,126.857532971967,구로구
hospital,편안한마취통증의학과의원,"서울특별시 구로구 새말로 94, 1층 (구로동)",37.5054702180553,126.890498431184,구로구
hospital,편한봄한의원,"서울특별시 구로구 신도림로 16, 204호 (신도림동, 신도림대림1,2차아파트)",37.5051228166042,126.88219103785,구로구
hospital,평화한의원,서울특별시 구로구 개봉로 35 (개봉동),37.4889115082242,126.855899952706,구로구
hospital,포그니병원,"서울특별시 구로구 경인로 393-7, 일이삼전자타운 2동 6,7층 (고척동)",37.4974421887122,126.86304887653,구로구
hospital,포에버의원,"서울특별시 구로구 디지털로26길 123, 지플러스코오롱디지털타워 205호 (구로동)",37.6547688511508,127.060019298479,구로구
hospital,포인트의원,"서울특별시 구로구 구로동로 115, 청보빌딩 401호 (구로동)",37.4887698909785,126.884261981664,구로구
hospital,푸른솔정신건강의학과의원,"서울특별시 구로구 디지털로 285, 에이스트윈타워1차 2층 203호 (구로동)",37.4844869911182,126.894506052909,구로구
hospital,푸른이비인후과의원,"서울특별시 구로구 개봉로 63, 2층 (개봉동)",37.4913821799938,126.855689499758,구로구
hospital,푸른치과의원,"서울특별시 구로구 경인로67길 23, 101동 308호 (신도림동, 신도림2차푸르지오)",37.5104826397728,126.889481191271,구로구
hospital,픽스포츠한의원,"서울특별시 구로구 경인로40길 34, 2층 (개봉동)",37.4954003771142,126.858803752615,구로구
hospital,필의원,"서울특별시 구로구 구로동로 240, 세일빌딩 3층 302호 (구로동)",37.5000087655668,126.88269870264,구로구
hospital,필치과의원,서울특별시 구로구 남부순환로97길 3 (개봉동),37.49399577225,126.858255129585,구로구
hospital,하나정형외과의원,"서울특별시 구로구 도림로 75, 한진빌딩 2층 (구로동)",37.4899957438661,126.891708645586,구로구
hospital,하나치과의원,서울특별시 구로구 개봉로3길 35,37.4861774553968,126.854321430679,구로구
hospital,하늘경희한의원,서울특별시 구로구 구로동로 35 (가리봉동),37.4847744186449,126.885884093369,구로구
hospital,하늘뿌리한의원,"서울특별시 구로구 구로동로 132, 2층 (구로동)",37.4904204080333,126.884315068042,구로구
hospital,하늘샘한의원,서울특별시 구로구 신도림로 7 (신도림동),37.5061627731358,126.877165552643,구로구
hospital,하얀미소치과의원,서울특별시 구로구 고척로 239 (고척동),37.5067054043043,126.859579928771,구로구
hospital,하이덴트치과의원,서울특별시 구로구 가마산로 286,37.4966237192901,126.892189975376,구로구
hospital,한가정의학과의원,"서울특별시 구로구 경인로47길 126, 2층 (고척동)",37.5042090603849,126.863482453949,구로구
hospital,한길의원,"서울특별시 구로구 고척로21나길 18, 2층 (개봉동)",37.5028727821132,126.844666182116,구로구
hospital,한길정형외과의원,"서울특별시 구로구 신도림로19길 7, 성광빌딩 409,410,411호 (신도림동)",37.5112029731186,126.884470304555,구로구
hospital,한내과의원,"서울특별시 구로구 경인로40길 12, 2층 (개봉동)",37.4962642022543,126.859131313522,구로구
hospital,한사랑가정의원,"서울특별시 구로구 오류로8길 57, 대성빌딩 (오류동)",37.492403480765,126.843387355249,구로구
hospital,한사랑의원,"서울특별시 구로구 경인로 643 (신도림동, 신도림2차동아아파트)",37.5088498841248,126.885553611579,구로구
hospital,한상현치과의원,"서울특별시 구로구 경인로 19, 동진빌라 203호 (온수동)",37.4910027830573,126.825395036809,구로구
hospital,한솔정형외과의원,"서울특별시 구로구 개봉로 13, 1-2층 (개봉동)",37.4867890597467,126.856086277292,구로구
hospital,한솔한의원,"서울특별시 구로구 고척로 140, 제일빌딩 6,7,8층 (고척동)",37.5024505830416,126.84952093496,구로구
hospital,한승엽치과의원,"서울특별시 구로구 구로동로 126-2, 2층 (구로동)",37.4899312300876,126.884569787511,구로구
hospital,한양정형외과내과의원,"서울특별시 구로구 경인로 164, 대일빌딩 (오류동)",37.4940224220979,126.839968378442,구로구
hospital,한울한의원,"서울특별시 구로구 구로동로26길 106, 에벤에셀 2층 (구로동)",37.4900567816147,126.889899251186,구로구
hospital,한의수안과의원,"서울특별시 구로구 개봉로 23 (개봉동, 고려크리닉센터)",37.4877650696629,126.85604415167,구로구
hospital,한일한의원,서울특별시 구로구 중앙로8길 10-17 (고척동),37.5019140557651,126.864379517777,구로구
hospital,한진치과의원,"서울특별시 구로구 개봉로3길 69, 2층 (개봉동)",37.4860059049942,126.852368753321,구로구
hospital,항동경희한의원,"서울특별시 구로구 서해안로 2102, 솔보프라자 4층 401,402호 (항동)",37.4801452858596,126.823394728559,구로구
hospital,항동상쾌한이비인후과의원,"서울특별시 구로구 서해안로 2098, 항동프라자 4층 403~406호 (항동)",37.4800610311955,126.823207022088,구로구
hospital,항동서울치과의원,"서울특별시 구로구 서해안로 2108, 아이온타워2 303,304호 (항동)",37.480597855409,126.823994013273,구로구
hospital,항동연세소아청소년과의원,"서울특별시 구로구 항동로3길 6, 가온 프라자 3층 301,302호 (항동)",37.4808405838883,126.824294637379,구로구
hospital,해광한의원,서울특별시 구로구 구로중앙로 32 2층 (구로동),37.4929137158,126.8911864184,구로구
hospital,해온한의원,"서울특별시 구로구 새말로 97, 신도림테크노마트 10층 오06호 (구로동)",37.5071919432105,126.890202081472,구로구
hospital,해피치과의원,"서울특별시 구로구 새말로 93, 1동 204호 (구로동, 신도림태영타운)",37.5062344102877,126.889103370184,구로구
hospital,햇빛치과의원,서울특별시 구로구 경인로 201,37.496022912441,126.843251447456,구로구
hospital,행복치과의원,"서울특별시 구로구 구로동로26길 119 (구로동,정엽빌딩 3층)",37.4900653805612,126.890620654436,구로구
hospital,행복플러스부부치과의원,서울특별시 구로구 경인로 193 (오류동),37.49576046373,126.842584579433,구로구
hospital,행복한가정의학과의원,"서울특별시 구로구 고척로 212, 오토젠빌딩 301호 (고척동)",37.5053092570087,126.856917965748,구로구
hospital,행복한치과의원,서울특별시 구로구 남부순환로97길 20-10 (개봉동),37.4938836196633,126.858574793409,구로구
hospital,허리편한의원,"서울특별시 구로구 남부순환로97길 3, KS프리미어빌딩 601호 (개봉동)",37.49399577225,126.858255129585,구로구
hospital,허형빈이비인후과의원,"서울특별시 구로구 고척로 142-1, 3층 (고척동)",37.5026470093918,126.849837285068,구로구
hospital,현치과의원,"서울특별시 구로구 구로동로 147, MEDI FLOWER 147 2층 (구로동)",37.4916865049695,126.883400470712,구로구
hospital,협동의원,서울특별시 구로구 구로동로 35 (가리봉동),37.4849672468365,126.885897028905,구로구
hospital,호담치과의원,"서울특별시 구로구 구로동로26길 36, 2층 201호 (구로동)",37.4900443472936,126.886003737979,구로구
hospital,호산의원,"서울특별시 구로구 구로동로 215-1, 2층 (구로동)",37.4978508872457,126.882276534236,구로구
hospital,호호치과의원,"서울특별시 구로구 오리로 1149, 랑데르 301호 (오류동)",37.4866023608152,126.83824746314,구로구
hospital,홍익치과의원,서울특별시 구로구 신도림로 16,37.5051228166042,126.88219103785,구로구
hospital,화이트치과의원,서울특별시 구로구 고척로 123 (개봉동),37.5021665004628,126.847653520951,구로구
hospital,화인치과의원,"서울특별시 구로구 신도림로 7, 204, 210호 (신도림동,금강리빙스텔)",37.5061633129074,126.877164760067,구로구